HIERARCHY
ROOT Hips
{
  OFFSET 0 98.0000 0
  CHANNELS 6 Xposition Yposition Zposition Zrotation Yrotation Xrotation
  JOINT LowerBack
  {
    OFFSET 0 0 0
    CHANNELS 3 Zrotation Yrotation Xrotation
    JOINT Spine
    {
      OFFSET 0 8.0000 0
      CHANNELS 3 Zrotation Yrotation Xrotation
      JOINT Spine1
      {
        OFFSET 0 12.0000 0
        CHANNELS 3 Zrotation Yrotation Xrotation
        JOINT Neck
        {
          OFFSET 0 12.0000 0
          CHANNELS 3 Zrotation Yrotation Xrotation
          JOINT Neck1
          {
            OFFSET 0 16.0000 0
            CHANNELS 3 Zrotation Yrotation Xrotation
            JOINT Head
            {
              OFFSET 0 9.0000 1.0000
              CHANNELS 3 Zrotation Yrotation Xrotation
              End Site
              {
                OFFSET 0 18.0000 0
              }
            }
          }
          JOINT LeftShoulder
          {
            OFFSET 3.0000 12.0000 0
            CHANNELS 3 Zrotation Yrotation Xrotation
            JOINT LeftArm
            {
              OFFSET 13.0000 0 0
              CHANNELS 3 Zrotation Yrotation Xrotation
              JOINT LeftForeArm
              {
                OFFSET 27.0000 0 0
                CHANNELS 3 Zrotation Yrotation Xrotation
                JOINT LeftHand
                {
                  OFFSET 25.0000 0 0
                  CHANNELS 3 Zrotation Yrotation Xrotation
                  End Site
                  {
                    OFFSET 8.0000 0 0
                  }
                }
              }
            }
          }
          JOINT RightShoulder
          {
            OFFSET -3.0000 12.0000 0
            CHANNELS 3 Zrotation Yrotation Xrotation
            JOINT RightArm
            {
              OFFSET -13.0000 0 0
              CHANNELS 3 Zrotation Yrotation Xrotation
              JOINT RightForeArm
              {
                OFFSET -27.0000 0 0
                CHANNELS 3 Zrotation Yrotation Xrotation
                JOINT RightHand
                {
                  OFFSET -25.0000 0 0
                  CHANNELS 3 Zrotation Yrotation Xrotation
                  End Site
                  {
                    OFFSET -8.0000 0 0
                  }
                }
              }
            }
          }
        }
      }
    }
  }
  JOINT LHipJoint
  {
    OFFSET 0 0 0
    CHANNELS 3 Zrotation Yrotation Xrotation
    JOINT LeftUpLeg
    {
      OFFSET 9.0000 -6.0000 0
      CHANNELS 3 Zrotation Yrotation Xrotation
      JOINT LeftLeg
      {
        OFFSET 0 -43.0000 0
        CHANNELS 3 Zrotation Yrotation Xrotation
        JOINT LeftFoot
        {
          OFFSET 0 -41.0000 0
          CHANNELS 3 Zrotation Yrotation Xrotation
          JOINT LeftToeBase
          {
            OFFSET 0 -7.0000 12.0000
            CHANNELS 3 Zrotation Yrotation Xrotation
            End Site
            {
              OFFSET 0 0 5.0000
            }
          }
        }
      }
    }
  }
  JOINT RHipJoint
  {
    OFFSET 0 0 0
    CHANNELS 3 Zrotation Yrotation Xrotation
    JOINT RightUpLeg
    {
      OFFSET -9.0000 -6.0000 0
      CHANNELS 3 Zrotation Yrotation Xrotation
      JOINT RightLeg
      {
        OFFSET 0 -43.0000 0
        CHANNELS 3 Zrotation Yrotation Xrotation
        JOINT RightFoot
        {
          OFFSET 0 -41.0000 0
          CHANNELS 3 Zrotation Yrotation Xrotation
          JOINT RightToeBase
          {
            OFFSET 0 -7.0000 12.0000
            CHANNELS 3 Zrotation Yrotation Xrotation
            End Site
            {
              OFFSET 0 0 5.0000
            }
          }
        }
      }
    }
  }
}
MOTION
Frames: 241
Frame Time: 0.0083333
0 98.0000 0 0 0 0 0 0 0 0 0 0 0 0 8.0000 0 0 0 0 0 5.0000 0 0 10.0000 0 0 0 -60.0000 0 0 0 -70.0000 0 15.0000 0 0 0 0 0 70.0000 0 0 0 75.0000 0 0 0 -15.0000 0 0 0 0 0 -20.0000 0 0 50.0000 0 0 10.0000 0 0 0 0 0 0 0 0 -20.0000 0 0 50.0000 0 0 0 0 0 0
0 98.1570 0.4167 0 0.2618 0 0 0 0 0 0 0 0 0 8.1571 0 -0.1571 0 0 0 4.9983 0 0.7853 9.9966 0 0 0 -60.0016 -0.3272 0.5668 0 -70.7853 0 14.9949 0 0.5235 0 0 0 70.0008 0.1791 0.4920 0 74.9949 0 0 0 -14.9949 0 0 0 0 0 -20.6544 0 0 50.6544 0 0 9.9966 0 0 0 0 0 0 0 0 -19.3456 0 0 49.3456 0 0 0 0 0 0
0 98.3136 0.8333 0 0.5234 0 0 0 0 0 0 0 0 0 8.3140 0 -0.3140 0 0 0 4.9931 0 1.5701 9.9863 0 0 0 -60.0065 -0.6542 1.1332 0 -71.5701 0 14.9794 0 1.0467 0 0 0 70.0031 0.3580 0.9836 0 74.9794 0 0 0 -14.9794 0 0 0 0 0 -21.3084 0 0 51.3084 0 0 9.9863 0 0 0 0 0 0 0 0 -18.6916 0 0 48.6916 0 0 0 0 0 0
0 98.4693 1.2500 0 0.7846 0 0 0 0 0 0 0 0 0 8.4708 0 -0.4708 0 0 0 4.9846 0 2.3538 9.9692 0 0 0 -60.0145 -0.9806 1.6989 0 -72.3538 0 14.9538 0 1.5692 0 0 0 70.0069 0.5366 1.4746 0 74.9538 0 0 0 -14.9538 0 0 0 0 0 -21.9615 0 0 51.9615 0 0 9.9692 0 0 0 0 0 0 0 0 -18.0385 0 0 48.0385 0 0 0 0 0 0
0 98.6237 1.6667 0 1.0453 0 0 0 0 0 0 0 0 0 8.6272 0 -0.6272 0 0 0 4.9726 0 3.1359 9.9452 0 0 0 -60.0258 -1.3063 2.2635 0 -73.1359 0 14.9178 0 2.0906 0 0 0 70.0123 0.7149 1.9646 0 74.9178 0 0 0 -14.9178 0 0 0 0 0 -22.6132 0 0 52.6132 0 0 9.9452 0 0 0 0 0 0 0 0 -17.3868 0 0 47.3868 0 0 0 0 0 0
0 98.7765 2.0833 0 1.3053 0 0 0 0 0 0 0 0 0 8.7832 0 -0.7832 0 0 0 4.9572 0 3.9158 9.9144 0 0 0 -60.0402 -1.6309 2.8267 0 -73.9158 0 14.8717 0 2.6105 0 0 0 70.0191 0.8926 2.4533 0 74.8717 0 0 0 -14.8717 0 0 0 0 0 -23.2632 0 0 53.2632 0 0 9.9144 0 0 0 0 0 0 0 0 -16.7368 0 0 46.7368 0 0 0 0 0 0
0 98.9271 2.5000 0 1.5643 0 0 0 0 0 0 0 0 0 8.9386 0 -0.9386 0 0 0 4.9384 0 4.6930 9.8769 0 0 0 -60.0578 -1.9543 3.3882 0 -74.6930 0 14.8153 0 3.1287 0 0 0 70.0275 1.0696 2.9403 0 74.8153 0 0 0 -14.8153 0 0 0 0 0 -23.9109 0 0 53.9109 0 0 9.8769 0 0 0 0 0 0 0 0 -16.0891 0 0 46.0891 0 0 0 0 0 0
0 99.0751 2.9167 0 1.8224 0 0 0 0 0 0 0 0 0 9.0934 0 -1.0934 0 0 0 4.9163 0 5.4671 9.8325 0 0 0 -60.0785 -2.2761 3.9476 0 -75.4671 0 14.7488 0 3.6447 0 0 0 70.0373 1.2458 3.4254 0 74.7488 0 0 0 -14.7488 0 0 0 0 0 -24.5559 0 0 54.5559 0 0 9.8325 0 0 0 0 0 0 0 0 -15.4441 0 0 45.4441 0 0 0 0 0 0
0 99.2202 3.3333 0 2.0791 0 0 0 0 0 0 0 0 0 9.2475 0 -1.2475 0 0 0 4.8907 0 6.2374 9.7815 0 0 0 -60.1021 -2.5962 4.5045 0 -76.2374 0 14.6722 0 4.1582 0 0 0 70.0485 1.4211 3.9083 0 74.6722 0 0 0 -14.6722 0 0 0 0 0 -25.1978 0 0 55.1978 0 0 9.7815 0 0 0 0 0 0 0 0 -14.8022 0 0 44.8022 0 0 0 0 0 0
0 99.3620 3.7500 0 2.3345 0 0 0 0 0 0 0 0 0 9.4007 0 -1.4007 0 0 0 4.8618 0 7.0034 9.7237 0 0 0 -60.1288 -2.9143 5.0586 0 -77.0034 0 14.5855 0 4.6689 0 0 0 70.0611 1.5953 4.3885 0 74.5855 0 0 0 -14.5855 0 0 0 0 0 -25.8361 0 0 55.8361 0 0 9.7237 0 0 0 0 0 0 0 0 -14.1639 0 0 44.1639 0 0 0 0 0 0
0 99.5000 4.1667 0 2.5882 0 0 0 0 0 0 0 0 0 9.5529 0 -1.5529 0 0 0 4.8296 0 7.7646 9.6593 0 0 0 -60.1583 -3.2301 5.6095 0 -77.7646 0 14.4889 0 5.1764 0 0 0 70.0751 1.7683 4.8658 0 74.4889 0 0 0 -14.4889 0 0 0 0 0 -26.4705 0 0 56.4705 0 0 9.6593 0 0 0 0 0 0 0 0 -13.5295 0 0 43.5295 0 0 0 0 0 0
0 99.6339 4.5833 0 2.8402 0 0 0 0 0 0 0 0 0 9.7041 0 -1.7041 0 0 0 4.7941 0 8.5205 9.5882 0 0 0 -60.1906 -3.5434 6.1570 0 -78.5205 0 14.3823 0 5.6803 0 0 0 70.0905 1.9400 5.3398 0 74.3823 0 0 0 -14.3823 0 0 0 0 0 -27.1004 0 0 57.1004 0 0 9.5882 0 0 0 0 0 0 0 0 -12.8996 0 0 42.8996 0 0 0 0 0 0
0 99.7634 5.0000 0 3.0902 0 0 0 0 0 0 0 0 0 9.8541 0 -1.8541 0 0 0 4.7553 0 9.2705 9.5106 0 0 0 -60.2257 -3.8539 6.7005 0 -79.2705 0 14.2658 0 6.1803 0 0 0 70.1071 2.1102 5.8103 0 74.2658 0 0 0 -14.2658 0 0 0 0 0 -27.7254 0 0 57.7254 0 0 9.5106 0 0 0 0 0 0 0 0 -12.2746 0 0 42.2746 0 0 0 0 0 0
0 99.8880 5.4167 0 3.3381 0 0 0 0 0 0 0 0 0 10.0028 0 -2.0028 0 0 0 4.7132 0 10.0142 9.4264 0 0 0 -60.2634 -4.1615 7.2399 0 -80.0142 0 14.1396 0 6.6761 0 0 0 70.1250 2.2788 6.2768 0 74.1396 0 0 0 -14.1396 0 0 0 0 0 -28.3452 0 0 58.3452 0 0 9.4264 0 0 0 0 0 0 0 0 -11.6548 0 0 41.6548 0 0 0 0 0 0
0 100.0074 5.8333 0 3.5837 0 0 0 0 0 0 0 0 0 10.1502 0 -2.1502 0 0 0 4.6679 0 10.7510 9.3358 0 0 0 -60.3036 -4.4659 7.7747 0 -80.7510 0 14.0037 0 7.1674 0 0 0 70.1440 2.4457 6.7392 0 74.0037 0 0 0 -14.0037 0 0 0 0 0 -28.9592 0 0 58.9592 0 0 9.3358 0 0 0 0 0 0 0 0 -11.0408 0 0 41.0408 0 0 0 0 0 0
0 100.1213 6.2500 0 3.8268 0 0 0 0 0 0 0 0 0 10.2961 0 -2.2961 0 0 0 4.6194 0 11.4805 9.2388 0 0 0 -60.3463 -4.7668 8.3046 0 -81.4805 0 13.8582 0 7.6537 0 0 0 70.1642 2.6108 7.1971 0 73.8582 0 0 0 -13.8582 0 0 0 0 0 -29.5671 0 0 59.5671 0 0 9.2388 0 0 0 0 0 0 0 0 -10.4329 0 0 40.4329 0 0 0 0 0 0
0 100.2294 6.6667 0 4.0674 0 0 0 0 0 0 0 0 0 10.4404 0 -2.4404 0 0 0 4.5677 0 12.2021 9.1355 0 0 0 -60.3912 -5.0642 8.8292 0 -82.2021 0 13.7032 0 8.1347 0 0 0 70.1855 2.7740 7.6501 0 73.7032 0 0 0 -13.7032 0 0 0 0 0 -30.1684 0 0 60.1684 0 0 9.1355 0 0 0 0 0 0 0 0 -9.8316 0 0 39.8316 0 0 0 0 0 0
0 100.3314 7.0833 0 4.3051 0 0 0 0 0 0 0 0 0 10.5831 0 -2.5831 0 0 0 4.5129 0 12.9153 9.0259 0 0 0 -60.4384 -5.3576 9.3482 0 -82.9153 0 13.5388 0 8.6102 0 0 0 70.2078 2.9351 8.0981 0 73.5388 0 0 0 -13.5388 0 0 0 0 0 -30.7628 0 0 60.7628 0 0 9.0259 0 0 0 0 0 0 0 0 -9.2372 0 0 39.2372 0 0 0 0 0 0
0 100.4271 7.5000 0 4.5399 0 0 0 0 0 0 0 0 0 10.7239 0 -2.7239 0 0 0 4.4550 0 13.6197 8.9101 0 0 0 -60.4875 -5.6470 9.8613 0 -83.6197 0 13.3651 0 9.0798 0 0 0 70.2311 3.0940 8.5406 0 73.3651 0 0 0 -13.3651 0 0 0 0 0 -31.3498 0 0 61.3498 0 0 8.9101 0 0 0 0 0 0 0 0 -8.6502 0 0 38.6502 0 0 0 0 0 0
0 100.5160 7.9167 0 4.7716 0 0 0 0 0 0 0 0 0 10.8630 0 -2.8630 0 0 0 4.3941 0 14.3148 8.7882 0 0 0 -60.5387 -5.9321 10.3680 0 -84.3148 0 13.1823 0 9.5432 0 0 0 70.2553 3.2506 8.9773 0 73.1823 0 0 0 -13.1823 0 0 0 0 0 -31.9290 0 0 61.9290 0 0 8.7882 0 0 0 0 0 0 0 0 -8.0710 0 0 38.0710 0 0 0 0 0 0
0 100.5981 8.3333 0 5.0000 0 0 0 0 0 0 0 0 0 11.0000 0 -3.0000 0 0 0 4.3301 0 15.0000 8.6603 0 0 0 -60.5916 -6.2127 10.8682 0 -85.0000 0 12.9904 0 10.0000 0 0 0 70.2803 3.4049 9.4080 0 72.9904 0 0 0 -12.9904 0 0 0 0 0 -32.5000 0 0 62.5000 0 0 8.6603 0 0 0 0 0 0 0 0 -7.5000 0 0 37.5000 0 0 0 0 0 0
0 100.6730 8.7500 0 5.2250 0 0 0 0 0 0 0 0 0 11.1350 0 -3.1350 0 0 0 4.2632 0 15.6750 8.5264 0 0 0 -60.6461 -6.4887 11.3613 0 -85.6750 0 12.7896 0 10.4500 0 0 0 70.3060 3.5566 9.8324 0 72.7896 0 0 0 -12.7896 0 0 0 0 0 -33.0625 0 0 63.0625 0 0 8.5264 0 0 0 0 0 0 0 0 -6.9375 0 0 36.9375 0 0 0 0 0 0
0 100.7406 9.1667 0 5.4464 0 0 0 0 0 0 0 0 0 11.2678 0 -3.2678 0 0 0 4.1934 0 16.3392 8.3867 0 0 0 -60.7022 -6.7598 11.8471 0 -86.3392 0 12.5801 0 10.8928 0 0 0 70.3325 3.7057 10.2502 0 72.5801 0 0 0 -12.5801 0 0 0 0 0 -33.6160 0 0 63.6160 0 0 8.3867 0 0 0 0 0 0 0 0 -6.3840 0 0 36.3840 0 0 0 0 0 0
0 100.8007 9.5833 0 5.6641 0 0 0 0 0 0 0 0 0 11.3984 0 -3.3984 0 0 0 4.1206 0 16.9922 8.2413 0 0 0 -60.7596 -7.0258 12.3253 0 -86.9922 0 12.3619 0 11.3281 0 0 0 70.3596 3.8522 10.6611 0 72.3619 0 0 0 -12.3619 0 0 0 0 0 -34.1602 0 0 64.1602 0 0 8.2413 0 0 0 0 0 0 0 0 -5.8398 0 0 35.8398 0 0 0 0 0 0
0 100.8532 10.0000 0 5.8779 0 0 0 0 0 0 0 0 0 11.5267 0 -3.5267 0 0 0 4.0451 0 17.6336 8.0902 0 0 0 -60.8181 -7.2867 12.7954 0 -87.6336 0 12.1353 0 11.7557 0 0 0 70.3872 3.9958 11.0648 0 72.1353 0 0 0 -12.1353 0 0 0 0 0 -34.6946 0 0 64.6946 0 0 8.0902 0 0 0 0 0 0 0 0 -5.3054 0 0 35.3054 0 0 0 0 0 0
0 100.8978 10.4167 0 6.0876 0 0 0 0 0 0 0 0 0 11.6526 0 -3.6526 0 0 0 3.9668 0 18.2628 7.9335 0 0 0 -60.8777 -7.5421 13.2573 0 -88.2628 0 11.9003 0 12.1752 0 0 0 70.4153 4.1365 11.4610 0 71.9003 0 0 0 -11.9003 0 0 0 0 0 -35.2190 0 0 65.2190 0 0 7.9335 0 0 0 0 0 0 0 0 -4.7810 0 0 34.7810 0 0 0 0 0 0
0 100.9344 10.8333 0 6.2932 0 0 0 0 0 0 0 0 0 11.7759 0 -3.7759 0 0 0 3.8857 0 18.8796 7.7715 0 0 0 -60.9382 -7.7920 13.7105 0 -88.8796 0 11.6572 0 12.5864 0 0 0 70.4438 4.2742 11.8495 0 71.6572 0 0 0 -11.6572 0 0 0 0 0 -35.7330 0 0 65.7330 0 0 7.7715 0 0 0 0 0 0 0 0 -4.2670 0 0 34.2670 0 0 0 0 0 0
0 100.9631 11.2500 0 6.4945 0 0 0 0 0 0 0 0 0 11.8967 0 -3.8967 0 0 0 3.8020 0 19.4834 7.6041 0 0 0 -60.9993 -8.0362 14.1547 0 -89.4834 0 11.4061 0 12.9890 0 0 0 70.4726 4.4089 12.2299 0 71.4061 0 0 0 -11.4061 0 0 0 0 0 -36.2362 0 0 66.2362 0 0 7.6041 0 0 0 0 0 0 0 0 -3.7638 0 0 33.7638 0 0 0 0 0 0
0 100.9836 11.6667 0 6.6913 0 0 0 0 0 0 0 0 0 12.0148 0 -4.0148 0 0 0 3.7157 0 20.0739 7.4314 0 0 0 -61.0610 -8.2745 14.5896 180.0000 -89.9261 180.0000 11.1472 0 13.3826 0 0 0 70.5016 4.5404 12.6021 0 71.1472 0 0 0 -11.1472 0 0 0 0 0 -36.7283 0 0 66.7283 0 0 7.4314 0 0 0 0 0 0 0 0 -3.2717 0 0 33.2717 0 0 0 0 0 0
0 100.9959 12.0833 0 6.8835 0 0 0 0 0 0 0 0 0 12.1301 0 -4.1301 0 0 0 3.6269 0 20.6506 7.2537 0 0 0 -61.1231 -8.5069 15.0148 180.0000 -89.3494 180.0000 10.8806 0 13.7671 0 0 0 70.5308 4.6686 12.9657 0 70.8806 0 0 0 -10.8806 0 0 0 0 0 -37.2089 0 0 67.2089 0 0 7.2537 0 0 0 0 0 0 0 0 -2.7911 0 0 32.7911 0 0 0 0 0 0
0 101.0000 12.5000 0 7.0711 0 0 0 0 0 0 0 0 0 12.2426 0 -4.2426 0 0 0 3.5355 0 21.2132 7.0711 0 0 0 -61.1853 -8.7330 15.4301 180.0000 -88.7868 180.0000 10.6066 0 14.1421 0 0 0 70.5601 4.7935 13.3206 0 70.6066 0 0 0 -10.6066 0 0 0 0 0 -37.6777 0 0 67.6777 0 0 7.0711 0 0 0 0 0 0 0 0 -2.3223 0 0 32.3223 0 0 0 0 0 0
0 100.9959 12.9167 0 7.2537 0 0 0 0 0 0 0 0 0 12.3522 0 -4.3522 0 0 0 3.4418 0 21.7612 6.8835 0 0 0 -61.2476 -8.9529 15.8352 180.0000 -88.2388 180.0000 10.3253 0 14.5075 0 0 0 70.5893 4.9150 13.6664 0 70.3253 0 0 0 -10.3253 0 0 0 0 0 -38.1344 0 0 68.1344 0 0 6.8835 0 0 0 0 0 0 0 0 -1.8656 0 0 31.8656 0 0 0 0 0 0
0 100.9836 13.3333 0 7.4314 0 0 0 0 0 0 0 0 0 12.4589 0 -4.4589 0 0 0 3.3457 0 22.2943 6.6913 0 0 0 -61.3097 -9.1664 16.2298 180.0000 -87.7057 180.0000 10.0370 0 14.8629 0 0 0 70.6185 5.0331 14.0029 0 70.0370 0 0 0 -10.0370 0 0 0 0 0 -38.5786 0 0 68.5786 0 0 6.6913 0 0 0 0 0 0 0 0 -1.4214 0 0 31.4214 0 0 0 0 0 0
0 100.9631 13.7500 0 7.6041 0 0 0 0 0 0 0 0 0 12.5624 0 -4.5624 0 0 0 3.2472 0 22.8122 6.4945 0 0 0 -61.3715 -9.3734 16.6134 180.0000 -87.1878 180.0000 9.7417 0 15.2081 0 0 0 70.6475 5.1475 14.3299 0 69.7417 0 0 0 -9.7417 0 0 0 0 0 -39.0101 0 0 69.0101 0 0 6.4945 0 0 0 0 0 0 0 0 -0.9899 0 0 30.9899 0 0 0 0 0 0
0 100.9344 14.1667 0 7.7715 0 0 0 0 0 0 0 0 0 12.6629 0 -4.6629 0 0 0 3.1466 0 23.3144 6.2932 0 0 0 -61.4329 -9.5737 16.9859 180.0000 -86.6856 180.0000 9.4398 0 15.5429 0 0 0 70.6763 5.2584 14.6471 0 69.4398 0 0 0 -9.4398 0 0 0 0 0 -39.4286 0 0 69.4286 0 0 6.2932 0 0 0 0 0 0 0 0 -0.5714 0 0 30.5714 0 0 0 0 0 0
0 100.8978 14.5833 0 7.9335 0 0 0 0 0 0 0 0 0 12.7601 0 -4.7601 0 0 0 3.0438 0 23.8006 6.0876 0 0 0 -61.4935 -9.7673 17.3470 180.0000 -86.1994 180.0000 9.1314 0 15.8671 0 0 0 70.7047 5.3656 14.9543 0 69.1314 0 0 0 -9.1314 0 0 0 0 0 -39.8338 0 0 69.8338 0 0 6.0876 0 0 0 0 0 0 0 0 -0.1662 0 0 30.1662 0 0 0 0 0 0
0 100.8532 15.0000 0 8.0902 0 0 0 0 0 0 0 0 0 12.8541 0 -4.8541 0 0 0 2.9389 0 24.2705 5.8779 0 0 0 -61.5533 -9.9540 17.6964 180.0000 -85.7295 180.0000 8.8168 0 16.1803 0 0 0 70.7328 5.4690 15.2513 0 68.8168 0 0 0 -8.8168 0 0 0 0 0 -40.2254 0 0 70.2254 0 0 5.8779 0 0 0 0 0 0 0 0 0.2254 0 0 29.7746 0 0 0 0 0 0
0 100.8007 15.4167 0 8.2413 0 0 0 0 0 0 0 0 0 12.9448 0 -4.9448 0 0 0 2.8320 0 24.7238 5.6641 0 0 0 -61.6122 -10.1337 18.0338 180.0000 -85.2762 180.0000 8.4961 0 16.4825 0 0 0 70.7603 5.5687 15.5379 0 68.4961 0 0 0 -8.4961 0 0 0 0 0 -40.6032 0 0 70.6032 0 0 5.6641 0 0 0 0 0 0 0 0 0.6032 0 0 29.3968 0 0 0 0 0 0
0 100.7406 15.8333 0 8.3867 0 0 0 0 0 0 0 0 0 13.0320 0 -5.0320 0 0 0 2.7232 0 25.1601 5.4464 0 0 0 -61.6699 -10.3065 18.3589 180.0000 -84.8399 180.0000 8.1696 0 16.7734 0 0 0 70.7873 5.6645 15.8139 0 68.1696 0 0 0 -8.1696 0 0 0 0 0 -40.9668 0 0 70.9668 0 0 5.4464 0 0 0 0 0 0 0 0 0.9668 0 0 29.0332 0 0 0 0 0 0
0 100.6730 16.2500 0 8.5264 0 0 0 0 0 0 0 0 0 13.1158 0 -5.1158 0 0 0 2.6125 0 25.5792 5.2250 0 0 0 -61.7263 -10.4720 18.6715 180.0000 -84.4208 180.0000 7.8375 0 17.0528 0 0 0 70.8137 5.7564 16.0791 0 67.8375 0 0 0 -7.8375 0 0 0 0 0 -41.3160 0 0 71.3160 0 0 5.2250 0 0 0 0 0 0 0 0 1.3160 0 0 28.6840 0 0 0 0 0 0
0 100.5981 16.6667 0 8.6603 0 0 0 0 0 0 0 0 0 13.1962 0 -5.1962 0 0 0 2.5000 0 25.9808 5.0000 0 0 0 -61.7812 -10.6304 18.9714 180.0000 -84.0192 180.0000 7.5000 0 17.3205 0 0 0 70.8394 5.8443 16.3333 0 67.5000 0 0 0 -7.5000 0 0 0 0 0 -41.6506 0 0 71.6506 0 0 5.0000 0 0 0 0 0 0 0 0 1.6506 0 0 28.3494 0 0 0 0 0 0
0 100.5160 17.0833 0 8.7882 0 0 0 0 0 0 0 0 0 13.2729 0 -5.2729 0 0 0 2.3858 0 26.3645 4.7716 0 0 0 -61.8345 -10.7815 19.2582 180.0000 -83.6355 180.0000 7.1574 0 17.5763 0 0 0 70.8643 5.9282 16.5762 0 67.1574 0 0 0 -7.1574 0 0 0 0 0 -41.9704 0 0 71.9704 0 0 4.7716 0 0 0 0 0 0 0 0 1.9704 0 0 28.0296 0 0 0 0 0 0
0 100.4271 17.5000 0 8.9101 0 0 0 0 0 0 0 0 0 13.3460 0 -5.3460 0 0 0 2.2700 0 26.7302 4.5399 0 0 0 -61.8860 -10.9252 19.5319 180.0000 -83.2698 180.0000 6.8099 0 17.8201 0 0 0 70.8884 6.0081 16.8078 0 66.8099 0 0 0 -6.8099 0 0 0 0 0 -42.2752 0 0 72.2752 0 0 4.5399 0 0 0 0 0 0 0 0 2.2752 0 0 27.7248 0 0 0 0 0 0
0 100.3314 17.9167 0 9.0259 0 0 0 0 0 0 0 0 0 13.4155 0 -5.4155 0 0 0 2.1526 0 27.0776 4.3051 0 0 0 -61.9356 -11.0615 19.7920 180.0000 -82.9224 180.0000 6.4577 0 18.0517 0 0 0 70.9116 6.0838 17.0279 0 66.4577 0 0 0 -6.4577 0 0 0 0 0 -42.5646 0 0 72.5646 0 0 4.3051 0 0 0 0 0 0 0 0 2.5646 0 0 27.4354 0 0 0 0 0 0
0 100.2294 18.3333 0 9.1355 0 0 0 0 0 0 0 0 0 13.4813 0 -5.4813 0 0 0 2.0337 0 27.4064 4.0674 0 0 0 -61.9831 -11.1903 20.0385 180.0000 -82.5936 180.0000 6.1010 0 18.2709 0 0 0 70.9338 6.1555 17.2362 0 66.1010 0 0 0 -6.1010 0 0 0 0 0 -42.8386 0 0 72.8386 0 0 4.0674 0 0 0 0 0 0 0 0 2.8386 0 0 27.1614 0 0 0 0 0 0
0 100.1213 18.7500 0 9.2388 0 0 0 0 0 0 0 0 0 13.5433 0 -5.5433 0 0 0 1.9134 0 27.7164 3.8268 0 0 0 -62.0285 -11.3116 20.2711 180.0000 -82.2836 180.0000 5.7403 0 18.4776 0 0 0 70.9550 6.2230 17.4327 0 65.7403 0 0 0 -5.7403 0 0 0 0 0 -43.0970 0 0 73.0970 0 0 3.8268 0 0 0 0 0 0 0 0 3.0970 0 0 26.9030 0 0 0 0 0 0
0 100.0074 19.1667 0 9.3358 0 0 0 0 0 0 0 0 0 13.6015 0 -5.6015 0 0 0 1.7918 0 28.0074 3.5837 0 0 0 -62.0716 -11.4253 20.4896 180.0000 -81.9926 180.0000 5.3755 0 18.6716 0 0 0 70.9751 6.2862 17.6172 0 65.3755 0 0 0 -5.3755 0 0 0 0 0 -43.3395 0 0 73.3395 0 0 3.5837 0 0 0 0 0 0 0 0 3.3395 0 0 26.6605 0 0 0 0 0 0
0 99.8880 19.5833 0 9.4264 0 0 0 0 0 0 0 0 0 13.6558 0 -5.6558 0 0 0 1.6690 0 28.2792 3.3381 0 0 0 -62.1122 -11.5313 20.6939 180.0000 -81.7208 180.0000 5.0071 0 18.8528 0 0 0 70.9940 6.3453 17.7896 0 65.0071 0 0 0 -5.0071 0 0 0 0 0 -43.5660 0 0 73.5660 0 0 3.3381 0 0 0 0 0 0 0 0 3.5660 0 0 26.4340 0 0 0 0 0 0
0 99.7634 20.0000 0 9.5106 0 0 0 0 0 0 0 0 0 13.7063 0 -5.7063 0 0 0 1.5451 0 28.5317 3.0902 0 0 0 -62.1504 -11.6296 20.8837 180.0000 -81.4683 180.0000 4.6353 0 19.0211 0 0 0 71.0118 6.4001 17.9497 0 64.6353 0 0 0 -4.6353 0 0 0 0 0 -43.7764 0 0 73.7764 0 0 3.0902 0 0 0 0 0 0 0 0 3.7764 0 0 26.2236 0 0 0 0 0 0
0 99.6339 20.4167 0 9.5882 0 0 0 0 0 0 0 0 0 13.7529 0 -5.7529 0 0 0 1.4201 0 28.7646 2.8402 0 0 0 -62.1858 -11.7202 21.0590 180.0000 -81.2354 180.0000 4.2602 0 19.1764 0 0 0 71.0284 6.4506 18.0975 0 64.2602 0 0 0 -4.2602 0 0 0 0 0 -43.9705 0 0 73.9705 0 0 2.8402 0 0 0 0 0 0 0 0 3.9705 0 0 26.0295 0 0 0 0 0 0
0 99.5000 20.8333 0 9.6593 0 0 0 0 0 0 0 0 0 13.7956 0 -5.7956 0 0 0 1.2941 0 28.9778 2.5882 0 0 0 -62.2185 -11.8031 21.2195 180.0000 -81.0222 180.0000 3.8823 0 19.3185 0 0 0 71.0436 6.4968 18.2327 0 63.8823 0 0 0 -3.8823 0 0 0 0 0 -44.1481 0 0 74.1481 0 0 2.5882 0 0 0 0 0 0 0 0 4.1481 0 0 25.8519 0 0 0 0 0 0
0 99.3620 21.2500 0 9.7237 0 0 0 0 0 0 0 0 0 13.8342 0 -5.8342 0 0 0 1.1672 0 29.1711 2.3345 0 0 0 -62.2484 -11.8781 21.3651 180.0000 -80.8289 180.0000 3.5017 0 19.4474 0 0 0 71.0575 6.5386 18.3554 0 63.5017 0 0 0 -3.5017 0 0 0 0 0 -44.3092 0 0 74.3092 0 0 2.3345 0 0 0 0 0 0 0 0 4.3092 0 0 25.6908 0 0 0 0 0 0
0 99.2202 21.6667 0 9.7815 0 0 0 0 0 0 0 0 0 13.8689 0 -5.8689 0 0 0 1.0396 0 29.3444 2.0791 0 0 0 -62.2754 -11.9454 21.4958 180.0000 -80.6556 180.0000 3.1187 0 19.5630 0 0 0 71.0701 6.5761 18.4655 0 63.1187 0 0 0 -3.1187 0 0 0 0 0 -44.4537 0 0 74.4537 0 0 2.0791 0 0 0 0 0 0 0 0 4.4537 0 0 25.5463 0 0 0 0 0 0
0 99.0751 22.0833 0 9.8325 0 0 0 0 0 0 0 0 0 13.8995 0 -5.8995 0 0 0 0.9112 0 29.4976 1.8224 0 0 0 -62.2994 -12.0047 21.6113 180.0000 -80.5024 180.0000 2.7335 0 19.6651 0 0 0 71.0813 6.6092 18.5627 0 62.7335 0 0 0 -2.7335 0 0 0 0 0 -44.5814 0 0 74.5814 0 0 1.8224 0 0 0 0 0 0 0 0 4.5814 0 0 25.4186 0 0 0 0 0 0
0 98.9271 22.5000 0 9.8769 0 0 0 0 0 0 0 0 0 13.9261 0 -5.9261 0 0 0 0.7822 0 29.6307 1.5643 0 0 0 -62.3203 -12.0562 21.7117 180.0000 -80.3693 180.0000 2.3465 0 19.7538 0 0 0 71.0910 6.6380 18.6472 0 62.3465 0 0 0 -2.3465 0 0 0 0 0 -44.6922 0 0 74.6922 0 0 1.5643 0 0 0 0 0 0 0 0 4.6922 0 0 25.3078 0 0 0 0 0 0
0 98.7765 22.9167 0 9.9144 0 0 0 0 0 0 0 0 0 13.9487 0 -5.9487 0 0 0 0.6526 0 29.7433 1.3053 0 0 0 -62.3381 -12.0999 21.7967 180.0000 -80.2567 180.0000 1.9579 0 19.8289 0 0 0 71.0993 6.6623 18.7187 0 61.9579 0 0 0 -1.9579 0 0 0 0 0 -44.7861 0 0 74.7861 0 0 1.3053 0 0 0 0 0 0 0 0 4.7861 0 0 25.2139 0 0 0 0 0 0
0 98.6237 23.3333 0 9.9452 0 0 0 0 0 0 0 0 0 13.9671 0 -5.9671 0 0 0 0.5226 0 29.8357 1.0453 0 0 0 -62.3527 -12.1356 21.8664 180.0000 -80.1643 180.0000 1.5679 0 19.8904 0 0 0 71.1061 6.6822 18.7773 0 61.5679 0 0 0 -1.5679 0 0 0 0 0 -44.8630 0 0 74.8630 0 0 1.0453 0 0 0 0 0 0 0 0 4.8630 0 0 25.1370 0 0 0 0 0 0
0 98.4693 23.7500 0 9.9692 0 0 0 0 0 0 0 0 0 13.9815 0 -5.9815 0 0 0 0.3923 0 29.9075 0.7846 0 0 0 -62.3641 -12.1633 21.9207 180.0000 -80.0925 180.0000 1.1769 0 19.9383 0 0 0 71.1114 6.6978 18.8230 0 61.1769 0 0 0 -1.1769 0 0 0 0 0 -44.9229 0 0 74.9229 0 0 0.7846 0 0 0 0 0 0 0 0 4.9229 0 0 25.0771 0 0 0 0 0 0
0 98.3136 24.1667 0 9.9863 0 0 0 0 0 0 0 0 0 13.9918 0 -5.9918 0 0 0 0.2617 0 29.9589 0.5234 0 0 0 -62.3723 -12.1832 21.9595 180.0000 -80.0411 180.0000 0.7850 0 19.9726 0 0 0 71.1152 6.7088 18.8556 0 60.7850 0 0 0 -0.7850 0 0 0 0 0 -44.9657 0 0 74.9657 0 0 0.5234 0 0 0 0 0 0 0 0 4.9657 0 0 25.0343 0 0 0 0 0 0
0 98.1570 24.5833 0 9.9966 0 0 0 0 0 0 0 0 0 13.9979 0 -5.9979 0 0 0 0.1309 0 29.9897 0.2618 0 0 0 -62.3772 -12.1951 21.9828 180.0000 -80.0103 180.0000 0.3927 0 19.9931 0 0 0 71.1175 6.7155 18.8752 0 60.3927 0 0 0 -0.3927 0 0 0 0 0 -44.9914 0 0 74.9914 0 0 0.2618 0 0 0 0 0 0 0 0 4.9914 0 0 25.0086 0 0 0 0 0 0
0 98.0000 25.0000 0 10.0000 0 0 0 0 0 0 0 0 0 14.0000 0 -6.0000 0 0 0 0 0 30.0000 0 0 0 0 -62.3789 -12.1991 21.9905 180.0000 -80.0000 180.0000 0 0 20.0000 0 0 0 71.1183 6.7177 18.8817 0 60.0000 0 0 0 0 0 0 0 0 0 -45.0000 0 0 75.0000 0 0 0 0 0 0 0 0 0 0 0 5.0000 0 0 25.0000 0 0 0 0 0 0
0 97.8430 25.4167 0 9.9966 0 0 0 0 0 0 0 0 0 13.9979 0 -5.9979 0 0 0 -0.1309 0 29.9897 -0.2618 0 0 0 -62.3772 -12.1951 21.9828 180.0000 -80.0103 180.0000 -0.3927 0 19.9931 0 0 0 71.1175 6.7155 18.8752 0 59.6073 0 0 0 0.3927 0 0 0 0 0 -44.9914 0 0 74.9914 0 0 -0.2618 0 0 0 0 0 0 0 0 4.9914 0 0 25.0086 0 0 0 0 0 0
0 97.6864 25.8333 0 9.9863 0 0 0 0 0 0 0 0 0 13.9918 0 -5.9918 0 0 0 -0.2617 0 29.9589 -0.5234 0 0 0 -62.3723 -12.1832 21.9595 180.0000 -80.0411 180.0000 -0.7850 0 19.9726 0 0 0 71.1152 6.7088 18.8556 0 59.2150 0 0 0 0.7850 0 0 0 0 0 -44.9657 0 0 74.9657 0 0 -0.5234 0 0 0 0 0 0 0 0 4.9657 0 0 25.0343 0 0 0 0 0 0
0 97.5307 26.2500 0 9.9692 0 0 0 0 0 0 0 0 0 13.9815 0 -5.9815 0 0 0 -0.3923 0 29.9075 -0.7846 0 0 0 -62.3641 -12.1633 21.9207 180.0000 -80.0925 180.0000 -1.1769 0 19.9383 0 0 0 71.1114 6.6978 18.8230 0 58.8231 0 0 0 1.1769 0 0 0 0 0 -44.9229 0 0 74.9229 0 0 -0.7846 0 0 0 0 0 0 0 0 4.9229 0 0 25.0771 0 0 0 0 0 0
0 97.3763 26.6667 0 9.9452 0 0 0 0 0 0 0 0 0 13.9671 0 -5.9671 0 0 0 -0.5226 0 29.8357 -1.0453 0 0 0 -62.3527 -12.1356 21.8664 180.0000 -80.1643 180.0000 -1.5679 0 19.8904 0 0 0 71.1061 6.6822 18.7773 0 58.4321 0 0 0 1.5679 0 0 0 0 0 -44.8630 0 0 74.8630 0 0 -1.0453 0 0 0 0 0 0 0 0 4.8630 0 0 25.1370 0 0 0 0 0 0
0 97.2235 27.0833 0 9.9144 0 0 0 0 0 0 0 0 0 13.9487 0 -5.9487 0 0 0 -0.6526 0 29.7433 -1.3053 0 0 0 -62.3381 -12.0999 21.7967 180.0000 -80.2567 180.0000 -1.9579 0 19.8289 0 0 0 71.0993 6.6623 18.7187 0 58.0421 0 0 0 1.9579 0 0 0 0 0 -44.7861 0 0 74.7861 0 0 -1.3053 0 0 0 0 0 0 0 0 4.7861 0 0 25.2139 0 0 0 0 0 0
0 97.0729 27.5000 0 9.8769 0 0 0 0 0 0 0 0 0 13.9261 0 -5.9261 0 0 0 -0.7822 0 29.6307 -1.5643 0 0 0 -62.3203 -12.0562 21.7117 180.0000 -80.3693 180.0000 -2.3465 0 19.7538 0 0 0 71.0910 6.6380 18.6472 0 57.6535 0 0 0 2.3465 0 0 0 0 0 -44.6922 0 0 74.6922 0 0 -1.5643 0 0 0 0 0 0 0 0 4.6922 0 0 25.3078 0 0 0 0 0 0
0 96.9249 27.9167 0 9.8325 0 0 0 0 0 0 0 0 0 13.8995 0 -5.8995 0 0 0 -0.9112 0 29.4976 -1.8224 0 0 0 -62.2994 -12.0047 21.6113 180.0000 -80.5024 180.0000 -2.7335 0 19.6651 0 0 0 71.0813 6.6092 18.5627 0 57.2665 0 0 0 2.7335 0 0 0 0 0 -44.5814 0 0 74.5814 0 0 -1.8224 0 0 0 0 0 0 0 0 4.5814 0 0 25.4186 0 0 0 0 0 0
0 96.7798 28.3333 0 9.7815 0 0 0 0 0 0 0 0 0 13.8689 0 -5.8689 0 0 0 -1.0396 0 29.3444 -2.0791 0 0 0 -62.2754 -11.9454 21.4958 180.0000 -80.6556 180.0000 -3.1187 0 19.5630 0 0 0 71.0701 6.5761 18.4655 0 56.8813 0 0 0 3.1187 0 0 0 0 0 -44.4537 0 0 74.4537 0 0 -2.0791 0 0 0 0 0 0 0 0 4.4537 0 0 25.5463 0 0 0 0 0 0
0 96.6380 28.7500 0 9.7237 0 0 0 0 0 0 0 0 0 13.8342 0 -5.8342 0 0 0 -1.1672 0 29.1711 -2.3345 0 0 0 -62.2484 -11.8781 21.3651 180.0000 -80.8289 180.0000 -3.5017 0 19.4474 0 0 0 71.0575 6.5386 18.3554 0 56.4983 0 0 0 3.5017 0 0 0 0 0 -44.3092 0 0 74.3092 0 0 -2.3345 0 0 0 0 0 0 0 0 4.3092 0 0 25.6908 0 0 0 0 0 0
0 96.5000 29.1667 0 9.6593 0 0 0 0 0 0 0 0 0 13.7956 0 -5.7956 0 0 0 -1.2941 0 28.9778 -2.5882 0 0 0 -62.2185 -11.8031 21.2195 180.0000 -81.0222 180.0000 -3.8823 0 19.3185 0 0 0 71.0436 6.4968 18.2327 0 56.1177 0 0 0 3.8823 0 0 0 0 0 -44.1481 0 0 74.1481 0 0 -2.5882 0 0 0 0 0 0 0 0 4.1481 0 0 25.8519 0 0 0 0 0 0
0 96.3661 29.5833 0 9.5882 0 0 0 0 0 0 0 0 0 13.7529 0 -5.7529 0 0 0 -1.4201 0 28.7646 -2.8402 0 0 0 -62.1858 -11.7202 21.0590 180.0000 -81.2354 180.0000 -4.2602 0 19.1764 0 0 0 71.0284 6.4506 18.0975 0 55.7398 0 0 0 4.2602 0 0 0 0 0 -43.9705 0 0 73.9705 0 0 -2.8402 0 0 0 0 0 0 0 0 3.9705 0 0 26.0295 0 0 0 0 0 0
0 96.2366 30.0000 0 9.5106 0 0 0 0 0 0 0 0 0 13.7063 0 -5.7063 0 0 0 -1.5451 0 28.5317 -3.0902 0 0 0 -62.1504 -11.6296 20.8837 180.0000 -81.4683 180.0000 -4.6353 0 19.0211 0 0 0 71.0118 6.4001 17.9497 0 55.3647 0 0 0 4.6353 0 0 0 0 0 -43.7764 0 0 73.7764 0 0 -3.0902 0 0 0 0 0 0 0 0 3.7764 0 0 26.2236 0 0 0 0 0 0
0 96.1120 30.4167 0 9.4264 0 0 0 0 0 0 0 0 0 13.6558 0 -5.6558 0 0 0 -1.6690 0 28.2792 -3.3381 0 0 0 -62.1122 -11.5313 20.6939 180.0000 -81.7208 180.0000 -5.0071 0 18.8528 0 0 0 70.9940 6.3453 17.7896 0 54.9929 0 0 0 5.0071 0 0 0 0 0 -43.5660 0 0 73.5660 0 0 -3.3381 0 0 0 0 0 0 0 0 3.5660 0 0 26.4340 0 0 0 0 0 0
0 95.9926 30.8333 0 9.3358 0 0 0 0 0 0 0 0 0 13.6015 0 -5.6015 0 0 0 -1.7918 0 28.0074 -3.5837 0 0 0 -62.0716 -11.4253 20.4896 180.0000 -81.9926 180.0000 -5.3755 0 18.6716 0 0 0 70.9751 6.2862 17.6172 0 54.6245 0 0 0 5.3755 0 0 0 0 0 -43.3395 0 0 73.3395 0 0 -3.5837 0 0 0 0 0 0 0 0 3.3395 0 0 26.6605 0 0 0 0 0 0
0 95.8787 31.2500 0 9.2388 0 0 0 0 0 0 0 0 0 13.5433 0 -5.5433 0 0 0 -1.9134 0 27.7164 -3.8268 0 0 0 -62.0285 -11.3116 20.2711 180.0000 -82.2836 180.0000 -5.7403 0 18.4776 0 0 0 70.9550 6.2230 17.4327 0 54.2597 0 0 0 5.7403 0 0 0 0 0 -43.0970 0 0 73.0970 0 0 -3.8268 0 0 0 0 0 0 0 0 3.0970 0 0 26.9030 0 0 0 0 0 0
0 95.7706 31.6667 0 9.1355 0 0 0 0 0 0 0 0 0 13.4813 0 -5.4813 0 0 0 -2.0337 0 27.4064 -4.0674 0 0 0 -61.9831 -11.1903 20.0385 180.0000 -82.5936 180.0000 -6.1010 0 18.2709 0 0 0 70.9338 6.1555 17.2362 0 53.8990 0 0 0 6.1010 0 0 0 0 0 -42.8386 0 0 72.8386 0 0 -4.0674 0 0 0 0 0 0 0 0 2.8386 0 0 27.1614 0 0 0 0 0 0
0 95.6686 32.0833 0 9.0259 0 0 0 0 0 0 0 0 0 13.4155 0 -5.4155 0 0 0 -2.1526 0 27.0776 -4.3051 0 0 0 -61.9356 -11.0615 19.7920 180.0000 -82.9224 180.0000 -6.4577 0 18.0517 0 0 0 70.9116 6.0838 17.0279 0 53.5423 0 0 0 6.4577 0 0 0 0 0 -42.5646 0 0 72.5646 0 0 -4.3051 0 0 0 0 0 0 0 0 2.5646 0 0 27.4354 0 0 0 0 0 0
0 95.5729 32.5000 0 8.9101 0 0 0 0 0 0 0 0 0 13.3460 0 -5.3460 0 0 0 -2.2700 0 26.7302 -4.5399 0 0 0 -61.8860 -10.9252 19.5319 180.0000 -83.2698 180.0000 -6.8099 0 17.8201 0 0 0 70.8884 6.0081 16.8078 0 53.1901 0 0 0 6.8099 0 0 0 0 0 -42.2752 0 0 72.2752 0 0 -4.5399 0 0 0 0 0 0 0 0 2.2752 0 0 27.7248 0 0 0 0 0 0
0 95.4840 32.9167 0 8.7882 0 0 0 0 0 0 0 0 0 13.2729 0 -5.2729 0 0 0 -2.3858 0 26.3645 -4.7716 0 0 0 -61.8345 -10.7815 19.2582 180.0000 -83.6355 180.0000 -7.1574 0 17.5763 0 0 0 70.8643 5.9282 16.5762 0 52.8426 0 0 0 7.1574 0 0 0 0 0 -41.9704 0 0 71.9704 0 0 -4.7716 0 0 0 0 0 0 0 0 1.9704 0 0 28.0296 0 0 0 0 0 0
0 95.4019 33.3333 0 8.6603 0 0 0 0 0 0 0 0 0 13.1962 0 -5.1962 0 0 0 -2.5000 0 25.9808 -5.0000 0 0 0 -61.7812 -10.6304 18.9714 180.0000 -84.0192 180.0000 -7.5000 0 17.3205 0 0 0 70.8394 5.8443 16.3333 0 52.5000 0 0 0 7.5000 0 0 0 0 0 -41.6506 0 0 71.6506 0 0 -5.0000 0 0 0 0 0 0 0 0 1.6506 0 0 28.3494 0 0 0 0 0 0
0 95.3270 33.7500 0 8.5264 0 0 0 0 0 0 0 0 0 13.1158 0 -5.1158 0 0 0 -2.6125 0 25.5792 -5.2250 0 0 0 -61.7263 -10.4720 18.6715 180.0000 -84.4208 180.0000 -7.8375 0 17.0528 0 0 0 70.8137 5.7564 16.0791 0 52.1625 0 0 0 7.8375 0 0 0 0 0 -41.3160 0 0 71.3160 0 0 -5.2250 0 0 0 0 0 0 0 0 1.3160 0 0 28.6840 0 0 0 0 0 0
0 95.2594 34.1667 0 8.3867 0 0 0 0 0 0 0 0 0 13.0320 0 -5.0320 0 0 0 -2.7232 0 25.1601 -5.4464 0 0 0 -61.6699 -10.3065 18.3589 180.0000 -84.8399 180.0000 -8.1696 0 16.7734 0 0 0 70.7873 5.6645 15.8139 0 51.8304 0 0 0 8.1696 0 0 0 0 0 -40.9668 0 0 70.9668 0 0 -5.4464 0 0 0 0 0 0 0 0 0.9668 0 0 29.0332 0 0 0 0 0 0
0 95.1993 34.5833 0 8.2413 0 0 0 0 0 0 0 0 0 12.9448 0 -4.9448 0 0 0 -2.8320 0 24.7238 -5.6641 0 0 0 -61.6122 -10.1337 18.0338 180.0000 -85.2762 180.0000 -8.4961 0 16.4825 0 0 0 70.7603 5.5687 15.5379 0 51.5039 0 0 0 8.4961 0 0 0 0 0 -40.6032 0 0 70.6032 0 0 -5.6641 0 0 0 0 0 0 0 0 0.6032 0 0 29.3968 0 0 0 0 0 0
0 95.1468 35.0000 0 8.0902 0 0 0 0 0 0 0 0 0 12.8541 0 -4.8541 0 0 0 -2.9389 0 24.2705 -5.8779 0 0 0 -61.5533 -9.9540 17.6964 180.0000 -85.7295 180.0000 -8.8168 0 16.1803 0 0 0 70.7328 5.4690 15.2513 0 51.1832 0 0 0 8.8168 0 0 0 0 0 -40.2254 0 0 70.2254 0 0 -5.8779 0 0 0 0 0 0 0 0 0.2254 0 0 29.7746 0 0 0 0 0 0
0 95.1022 35.4167 0 7.9335 0 0 0 0 0 0 0 0 0 12.7601 0 -4.7601 0 0 0 -3.0438 0 23.8006 -6.0876 0 0 0 -61.4935 -9.7673 17.3470 180.0000 -86.1994 180.0000 -9.1314 0 15.8671 0 0 0 70.7047 5.3656 14.9543 0 50.8686 0 0 0 9.1314 0 0 0 0 0 -39.8338 0 0 69.8338 0 0 -6.0876 0 0 0 0 0 0 0 0 -0.1662 0 0 30.1662 0 0 0 0 0 0
0 95.0656 35.8333 0 7.7715 0 0 0 0 0 0 0 0 0 12.6629 0 -4.6629 0 0 0 -3.1466 0 23.3144 -6.2932 0 0 0 -61.4329 -9.5737 16.9859 180.0000 -86.6856 180.0000 -9.4398 0 15.5429 0 0 0 70.6763 5.2584 14.6471 0 50.5602 0 0 0 9.4398 0 0 0 0 0 -39.4286 0 0 69.4286 0 0 -6.2932 0 0 0 0 0 0 0 0 -0.5714 0 0 30.5714 0 0 0 0 0 0
0 95.0369 36.2500 0 7.6041 0 0 0 0 0 0 0 0 0 12.5624 0 -4.5624 0 0 0 -3.2472 0 22.8122 -6.4945 0 0 0 -61.3715 -9.3734 16.6134 180.0000 -87.1878 180.0000 -9.7417 0 15.2081 0 0 0 70.6475 5.1475 14.3299 0 50.2583 0 0 0 9.7417 0 0 0 0 0 -39.0101 0 0 69.0101 0 0 -6.4945 0 0 0 0 0 0 0 0 -0.9899 0 0 30.9899 0 0 0 0 0 0
0 95.0164 36.6667 0 7.4314 0 0 0 0 0 0 0 0 0 12.4589 0 -4.4589 0 0 0 -3.3457 0 22.2943 -6.6913 0 0 0 -61.3097 -9.1664 16.2298 180.0000 -87.7057 180.0000 -10.0370 0 14.8629 0 0 0 70.6185 5.0331 14.0029 0 49.9630 0 0 0 10.0370 0 0 0 0 0 -38.5786 0 0 68.5786 0 0 -6.6913 0 0 0 0 0 0 0 0 -1.4214 0 0 31.4214 0 0 0 0 0 0
0 95.0041 37.0833 0 7.2537 0 0 0 0 0 0 0 0 0 12.3522 0 -4.3522 0 0 0 -3.4418 0 21.7612 -6.8835 0 0 0 -61.2476 -8.9529 15.8352 180.0000 -88.2388 180.0000 -10.3253 0 14.5075 0 0 0 70.5893 4.9150 13.6664 0 49.6747 0 0 0 10.3253 0 0 0 0 0 -38.1344 0 0 68.1344 0 0 -6.8835 0 0 0 0 0 0 0 0 -1.8656 0 0 31.8656 0 0 0 0 0 0
0 95.0000 37.5000 0 7.0711 0 0 0 0 0 0 0 0 0 12.2426 0 -4.2426 0 0 0 -3.5355 0 21.2132 -7.0711 0 0 0 -61.1853 -8.7330 15.4301 180.0000 -88.7868 180.0000 -10.6066 0 14.1421 0 0 0 70.5601 4.7935 13.3206 0 49.3934 0 0 0 10.6066 0 0 0 0 0 -37.6777 0 0 67.6777 0 0 -7.0711 0 0 0 0 0 0 0 0 -2.3223 0 0 32.3223 0 0 0 0 0 0
0 95.0041 37.9167 0 6.8835 0 0 0 0 0 0 0 0 0 12.1301 0 -4.1301 0 0 0 -3.6269 0 20.6506 -7.2537 0 0 0 -61.1231 -8.5069 15.0148 180.0000 -89.3494 180.0000 -10.8806 0 13.7671 0 0 0 70.5308 4.6686 12.9657 0 49.1194 0 0 0 10.8806 0 0 0 0 0 -37.2089 0 0 67.2089 0 0 -7.2537 0 0 0 0 0 0 0 0 -2.7911 0 0 32.7911 0 0 0 0 0 0
0 95.0164 38.3333 0 6.6913 0 0 0 0 0 0 0 0 0 12.0148 0 -4.0148 0 0 0 -3.7157 0 20.0739 -7.4314 0 0 0 -61.0610 -8.2745 14.5896 180.0000 -89.9261 180.0000 -11.1472 0 13.3826 0 0 0 70.5016 4.5404 12.6021 0 48.8528 0 0 0 11.1472 0 0 0 0 0 -36.7283 0 0 66.7283 0 0 -7.4314 0 0 0 0 0 0 0 0 -3.2717 0 0 33.2717 0 0 0 0 0 0
0 95.0369 38.7500 0 6.4945 0 0 0 0 0 0 0 0 0 11.8967 0 -3.8967 0 0 0 -3.8020 0 19.4834 -7.6041 0 0 0 -60.9993 -8.0362 14.1547 0 -89.4834 0 -11.4061 0 12.9890 0 0 0 70.4726 4.4089 12.2299 0 48.5939 0 0 0 11.4061 0 0 0 0 0 -36.2362 0 0 66.2362 0 0 -7.6041 0 0 0 0 0 0 0 0 -3.7638 0 0 33.7638 0 0 0 0 0 0
0 95.0656 39.1667 0 6.2932 0 0 0 0 0 0 0 0 0 11.7759 0 -3.7759 0 0 0 -3.8857 0 18.8796 -7.7715 0 0 0 -60.9382 -7.7920 13.7105 0 -88.8796 0 -11.6572 0 12.5864 0 0 0 70.4438 4.2742 11.8495 0 48.3428 0 0 0 11.6572 0 0 0 0 0 -35.7330 0 0 65.7330 0 0 -7.7715 0 0 0 0 0 0 0 0 -4.2670 0 0 34.2670 0 0 0 0 0 0
0 95.1022 39.5833 0 6.0876 0 0 0 0 0 0 0 0 0 11.6526 0 -3.6526 0 0 0 -3.9668 0 18.2628 -7.9335 0 0 0 -60.8777 -7.5421 13.2573 0 -88.2628 0 -11.9003 0 12.1752 0 0 0 70.4153 4.1365 11.4610 0 48.0997 0 0 0 11.9003 0 0 0 0 0 -35.2190 0 0 65.2190 0 0 -7.9335 0 0 0 0 0 0 0 0 -4.7810 0 0 34.7810 0 0 0 0 0 0
0 95.1468 40.0000 0 5.8779 0 0 0 0 0 0 0 0 0 11.5267 0 -3.5267 0 0 0 -4.0451 0 17.6336 -8.0902 0 0 0 -60.8181 -7.2867 12.7954 0 -87.6336 0 -12.1353 0 11.7557 0 0 0 70.3872 3.9958 11.0648 0 47.8647 0 0 0 12.1353 0 0 0 0 0 -34.6946 0 0 64.6946 0 0 -8.0902 0 0 0 0 0 0 0 0 -5.3054 0 0 35.3054 0 0 0 0 0 0
0 95.1993 40.4167 0 5.6641 0 0 0 0 0 0 0 0 0 11.3984 0 -3.3984 0 0 0 -4.1206 0 16.9922 -8.2413 0 0 0 -60.7596 -7.0258 12.3253 0 -86.9922 0 -12.3619 0 11.3281 0 0 0 70.3596 3.8522 10.6611 0 47.6381 0 0 0 12.3619 0 0 0 0 0 -34.1602 0 0 64.1602 0 0 -8.2413 0 0 0 0 0 0 0 0 -5.8398 0 0 35.8398 0 0 0 0 0 0
0 95.2594 40.8333 0 5.4464 0 0 0 0 0 0 0 0 0 11.2678 0 -3.2678 0 0 0 -4.1934 0 16.3392 -8.3867 0 0 0 -60.7022 -6.7598 11.8471 0 -86.3392 0 -12.5801 0 10.8928 0 0 0 70.3325 3.7057 10.2502 0 47.4199 0 0 0 12.5801 0 0 0 0 0 -33.6160 0 0 63.6160 0 0 -8.3867 0 0 0 0 0 0 0 0 -6.3840 0 0 36.3840 0 0 0 0 0 0
0 95.3270 41.2500 0 5.2250 0 0 0 0 0 0 0 0 0 11.1350 0 -3.1350 0 0 0 -4.2632 0 15.6750 -8.5264 0 0 0 -60.6461 -6.4887 11.3613 0 -85.6750 0 -12.7896 0 10.4500 0 0 0 70.3060 3.5566 9.8324 0 47.2104 0 0 0 12.7896 0 0 0 0 0 -33.0625 0 0 63.0625 0 0 -8.5264 0 0 0 0 0 0 0 0 -6.9375 0 0 36.9375 0 0 0 0 0 0
0 95.4019 41.6667 0 5.0000 0 0 0 0 0 0 0 0 0 11.0000 0 -3.0000 0 0 0 -4.3301 0 15.0000 -8.6603 0 0 0 -60.5916 -6.2127 10.8682 0 -85.0000 0 -12.9904 0 10.0000 0 0 0 70.2803 3.4049 9.4080 0 47.0096 0 0 0 12.9904 0 0 0 0 0 -32.5000 0 0 62.5000 0 0 -8.6603 0 0 0 0 0 0 0 0 -7.5000 0 0 37.5000 0 0 0 0 0 0
0 95.4840 42.0833 0 4.7716 0 0 0 0 0 0 0 0 0 10.8630 0 -2.8630 0 0 0 -4.3941 0 14.3148 -8.7882 0 0 0 -60.5387 -5.9321 10.3680 0 -84.3148 0 -13.1823 0 9.5432 0 0 0 70.2553 3.2506 8.9773 0 46.8177 0 0 0 13.1823 0 0 0 0 0 -31.9290 0 0 61.9290 0 0 -8.7882 0 0 0 0 0 0 0 0 -8.0710 0 0 38.0710 0 0 0 0 0 0
0 95.5729 42.5000 0 4.5399 0 0 0 0 0 0 0 0 0 10.7239 0 -2.7239 0 0 0 -4.4550 0 13.6197 -8.9101 0 0 0 -60.4875 -5.6470 9.8613 0 -83.6197 0 -13.3651 0 9.0798 0 0 0 70.2311 3.0940 8.5406 0 46.6349 0 0 0 13.3651 0 0 0 0 0 -31.3498 0 0 61.3498 0 0 -8.9101 0 0 0 0 0 0 0 0 -8.6502 0 0 38.6502 0 0 0 0 0 0
0 95.6686 42.9167 0 4.3051 0 0 0 0 0 0 0 0 0 10.5831 0 -2.5831 0 0 0 -4.5129 0 12.9153 -9.0259 0 0 0 -60.4384 -5.3576 9.3482 0 -82.9153 0 -13.5388 0 8.6102 0 0 0 70.2078 2.9351 8.0981 0 46.4612 0 0 0 13.5388 0 0 0 0 0 -30.7628 0 0 60.7628 0 0 -9.0259 0 0 0 0 0 0 0 0 -9.2372 0 0 39.2372 0 0 0 0 0 0
0 95.7706 43.3333 0 4.0674 0 0 0 0 0 0 0 0 0 10.4404 0 -2.4404 0 0 0 -4.5677 0 12.2021 -9.1355 0 0 0 -60.3912 -5.0642 8.8292 0 -82.2021 0 -13.7032 0 8.1347 0 0 0 70.1855 2.7740 7.6501 0 46.2968 0 0 0 13.7032 0 0 0 0 0 -30.1684 0 0 60.1684 0 0 -9.1355 0 0 0 0 0 0 0 0 -9.8316 0 0 39.8316 0 0 0 0 0 0
0 95.8787 43.7500 0 3.8268 0 0 0 0 0 0 0 0 0 10.2961 0 -2.2961 0 0 0 -4.6194 0 11.4805 -9.2388 0 0 0 -60.3463 -4.7668 8.3046 0 -81.4805 0 -13.8582 0 7.6537 0 0 0 70.1642 2.6108 7.1971 0 46.1418 0 0 0 13.8582 0 0 0 0 0 -29.5671 0 0 59.5671 0 0 -9.2388 0 0 0 0 0 0 0 0 -10.4329 0 0 40.4329 0 0 0 0 0 0
0 95.9926 44.1667 0 3.5837 0 0 0 0 0 0 0 0 0 10.1502 0 -2.1502 0 0 0 -4.6679 0 10.7510 -9.3358 0 0 0 -60.3036 -4.4659 7.7747 0 -80.7510 0 -14.0037 0 7.1674 0 0 0 70.1440 2.4457 6.7392 0 45.9963 0 0 0 14.0037 0 0 0 0 0 -28.9592 0 0 58.9592 0 0 -9.3358 0 0 0 0 0 0 0 0 -11.0408 0 0 41.0408 0 0 0 0 0 0
0 96.1120 44.5833 0 3.3381 0 0 0 0 0 0 0 0 0 10.0028 0 -2.0028 0 0 0 -4.7132 0 10.0142 -9.4264 0 0 0 -60.2634 -4.1615 7.2399 0 -80.0142 0 -14.1396 0 6.6761 0 0 0 70.1250 2.2788 6.2768 0 45.8604 0 0 0 14.1396 0 0 0 0 0 -28.3452 0 0 58.3452 0 0 -9.4264 0 0 0 0 0 0 0 0 -11.6548 0 0 41.6548 0 0 0 0 0 0
0 96.2366 45.0000 0 3.0902 0 0 0 0 0 0 0 0 0 9.8541 0 -1.8541 0 0 0 -4.7553 0 9.2705 -9.5106 0 0 0 -60.2257 -3.8539 6.7005 0 -79.2705 0 -14.2658 0 6.1803 0 0 0 70.1071 2.1102 5.8103 0 45.7342 0 0 0 14.2658 0 0 0 0 0 -27.7254 0 0 57.7254 0 0 -9.5106 0 0 0 0 0 0 0 0 -12.2746 0 0 42.2746 0 0 0 0 0 0
0 96.3661 45.4167 0 2.8402 0 0 0 0 0 0 0 0 0 9.7041 0 -1.7041 0 0 0 -4.7941 0 8.5205 -9.5882 0 0 0 -60.1906 -3.5434 6.1570 0 -78.5205 0 -14.3823 0 5.6803 0 0 0 70.0905 1.9400 5.3398 0 45.6177 0 0 0 14.3823 0 0 0 0 0 -27.1004 0 0 57.1004 0 0 -9.5882 0 0 0 0 0 0 0 0 -12.8996 0 0 42.8996 0 0 0 0 0 0
0 96.5000 45.8333 0 2.5882 0 0 0 0 0 0 0 0 0 9.5529 0 -1.5529 0 0 0 -4.8296 0 7.7646 -9.6593 0 0 0 -60.1583 -3.2301 5.6095 0 -77.7646 0 -14.4889 0 5.1764 0 0 0 70.0751 1.7683 4.8658 0 45.5111 0 0 0 14.4889 0 0 0 0 0 -26.4705 0 0 56.4705 0 0 -9.6593 0 0 0 0 0 0 0 0 -13.5295 0 0 43.5295 0 0 0 0 0 0
0 96.6380 46.2500 0 2.3345 0 0 0 0 0 0 0 0 0 9.4007 0 -1.4007 0 0 0 -4.8618 0 7.0034 -9.7237 0 0 0 -60.1288 -2.9143 5.0586 0 -77.0034 0 -14.5855 0 4.6689 0 0 0 70.0611 1.5953 4.3885 0 45.4145 0 0 0 14.5855 0 0 0 0 0 -25.8361 0 0 55.8361 0 0 -9.7237 0 0 0 0 0 0 0 0 -14.1639 0 0 44.1639 0 0 0 0 0 0
0 96.7798 46.6667 0 2.0791 0 0 0 0 0 0 0 0 0 9.2475 0 -1.2475 0 0 0 -4.8907 0 6.2374 -9.7815 0 0 0 -60.1021 -2.5962 4.5045 0 -76.2374 0 -14.6722 0 4.1582 0 0 0 70.0485 1.4211 3.9083 0 45.3278 0 0 0 14.6722 0 0 0 0 0 -25.1978 0 0 55.1978 0 0 -9.7815 0 0 0 0 0 0 0 0 -14.8022 0 0 44.8022 0 0 0 0 0 0
0 96.9249 47.0833 0 1.8224 0 0 0 0 0 0 0 0 0 9.0934 0 -1.0934 0 0 0 -4.9163 0 5.4671 -9.8325 0 0 0 -60.0785 -2.2761 3.9476 0 -75.4671 0 -14.7488 0 3.6447 0 0 0 70.0373 1.2458 3.4254 0 45.2512 0 0 0 14.7488 0 0 0 0 0 -24.5559 0 0 54.5559 0 0 -9.8325 0 0 0 0 0 0 0 0 -15.4441 0 0 45.4441 0 0 0 0 0 0
0 97.0729 47.5000 0 1.5643 0 0 0 0 0 0 0 0 0 8.9386 0 -0.9386 0 0 0 -4.9384 0 4.6930 -9.8769 0 0 0 -60.0578 -1.9543 3.3882 0 -74.6930 0 -14.8153 0 3.1287 0 0 0 70.0275 1.0696 2.9403 0 45.1847 0 0 0 14.8153 0 0 0 0 0 -23.9109 0 0 53.9109 0 0 -9.8769 0 0 0 0 0 0 0 0 -16.0891 0 0 46.0891 0 0 0 0 0 0
0 97.2235 47.9167 0 1.3053 0 0 0 0 0 0 0 0 0 8.7832 0 -0.7832 0 0 0 -4.9572 0 3.9158 -9.9144 0 0 0 -60.0402 -1.6309 2.8267 0 -73.9158 0 -14.8717 0 2.6105 0 0 0 70.0191 0.8926 2.4533 0 45.1283 0 0 0 14.8717 0 0 0 0 0 -23.2632 0 0 53.2632 0 0 -9.9144 0 0 0 0 0 0 0 0 -16.7368 0 0 46.7368 0 0 0 0 0 0
0 97.3763 48.3333 0 1.0453 0 0 0 0 0 0 0 0 0 8.6272 0 -0.6272 0 0 0 -4.9726 0 3.1359 -9.9452 0 0 0 -60.0258 -1.3063 2.2635 0 -73.1359 0 -14.9178 0 2.0906 0 0 0 70.0123 0.7149 1.9646 0 45.0822 0 0 0 14.9178 0 0 0 0 0 -22.6132 0 0 52.6132 0 0 -9.9452 0 0 0 0 0 0 0 0 -17.3868 0 0 47.3868 0 0 0 0 0 0
0 97.5307 48.7500 0 0.7846 0 0 0 0 0 0 0 0 0 8.4708 0 -0.4708 0 0 0 -4.9846 0 2.3538 -9.9692 0 0 0 -60.0145 -0.9806 1.6989 0 -72.3538 0 -14.9538 0 1.5692 0 0 0 70.0069 0.5366 1.4746 0 45.0462 0 0 0 14.9538 0 0 0 0 0 -21.9615 0 0 51.9615 0 0 -9.9692 0 0 0 0 0 0 0 0 -18.0385 0 0 48.0385 0 0 0 0 0 0
0 97.6864 49.1667 0 0.5234 0 0 0 0 0 0 0 0 0 8.3140 0 -0.3140 0 0 0 -4.9931 0 1.5701 -9.9863 0 0 0 -60.0065 -0.6542 1.1332 0 -71.5701 0 -14.9794 0 1.0467 0 0 0 70.0031 0.3580 0.9836 0 45.0206 0 0 0 14.9794 0 0 0 0 0 -21.3084 0 0 51.3084 0 0 -9.9863 0 0 0 0 0 0 0 0 -18.6916 0 0 48.6916 0 0 0 0 0 0
0 97.8430 49.5833 0 0.2618 0 0 0 0 0 0 0 0 0 8.1571 0 -0.1571 0 0 0 -4.9983 0 0.7853 -9.9966 0 0 0 -60.0016 -0.3272 0.5668 0 -70.7853 0 -14.9949 0 0.5235 0 0 0 70.0008 0.1791 0.4920 0 45.0051 0 0 0 14.9949 0 0 0 0 0 -20.6544 0 0 50.6544 0 0 -9.9966 0 0 0 0 0 0 0 0 -19.3456 0 0 49.3456 0 0 0 0 0 0
0 98.0000 50.0000 0 0 0 0 0 0 0 0 0 0 0 8.0000 0 0 0 0 0 -5.0000 0 0 -10.0000 0 0 0 -60.0000 0 0 0 -70.0000 0 -15.0000 0 0 0 0 0 70.0000 0 0 0 45.0000 0 0 0 15.0000 0 0 0 0 0 -20.0000 0 0 50.0000 0 0 -10.0000 0 0 0 0 0 0 0 0 -20.0000 0 0 50.0000 0 0 0 0 0 0
0 98.1570 50.4167 0 -0.2618 0 0 0 0 0 0 0 0 0 7.8429 0 0.1571 0 0 0 -4.9983 0 -0.7853 -9.9966 0 0 0 -60.0016 0.3272 -0.5668 0 -69.2147 0 -14.9949 0 -0.5235 0 0 0 70.0008 -0.1791 -0.4920 0 45.0051 0 0 0 14.9949 0 0 0 0 0 -19.3456 0 0 49.3456 0 0 -9.9966 0 0 0 0 0 0 0 0 -20.6544 0 0 50.6544 0 0 0 0 0 0
0 98.3136 50.8333 0 -0.5234 0 0 0 0 0 0 0 0 0 7.6860 0 0.3140 0 0 0 -4.9931 0 -1.5701 -9.9863 0 0 0 -60.0065 0.6542 -1.1332 0 -68.4299 0 -14.9794 0 -1.0467 0 0 0 70.0031 -0.3580 -0.9836 0 45.0206 0 0 0 14.9794 0 0 0 0 0 -18.6916 0 0 48.6916 0 0 -9.9863 0 0 0 0 0 0 0 0 -21.3084 0 0 51.3084 0 0 0 0 0 0
0 98.4693 51.2500 0 -0.7846 0 0 0 0 0 0 0 0 0 7.5292 0 0.4708 0 0 0 -4.9846 0 -2.3538 -9.9692 0 0 0 -60.0145 0.9806 -1.6989 0 -67.6462 0 -14.9538 0 -1.5692 0 0 0 70.0069 -0.5366 -1.4746 0 45.0462 0 0 0 14.9538 0 0 0 0 0 -18.0385 0 0 48.0385 0 0 -9.9692 0 0 0 0 0 0 0 0 -21.9615 0 0 51.9615 0 0 0 0 0 0
0 98.6237 51.6667 0 -1.0453 0 0 0 0 0 0 0 0 0 7.3728 0 0.6272 0 0 0 -4.9726 0 -3.1359 -9.9452 0 0 0 -60.0258 1.3063 -2.2635 0 -66.8641 0 -14.9178 0 -2.0906 0 0 0 70.0123 -0.7149 -1.9646 0 45.0822 0 0 0 14.9178 0 0 0 0 0 -17.3868 0 0 47.3868 0 0 -9.9452 0 0 0 0 0 0 0 0 -22.6132 0 0 52.6132 0 0 0 0 0 0
0 98.7765 52.0833 0 -1.3053 0 0 0 0 0 0 0 0 0 7.2168 0 0.7832 0 0 0 -4.9572 0 -3.9158 -9.9144 0 0 0 -60.0402 1.6309 -2.8267 0 -66.0842 0 -14.8717 0 -2.6105 0 0 0 70.0191 -0.8926 -2.4533 0 45.1283 0 0 0 14.8717 0 0 0 0 0 -16.7368 0 0 46.7368 0 0 -9.9144 0 0 0 0 0 0 0 0 -23.2632 0 0 53.2632 0 0 0 0 0 0
0 98.9271 52.5000 0 -1.5643 0 0 0 0 0 0 0 0 0 7.0614 0 0.9386 0 0 0 -4.9384 0 -4.6930 -9.8769 0 0 0 -60.0578 1.9543 -3.3882 0 -65.3070 0 -14.8153 0 -3.1287 0 0 0 70.0275 -1.0696 -2.9403 0 45.1847 0 0 0 14.8153 0 0 0 0 0 -16.0891 0 0 46.0891 0 0 -9.8769 0 0 0 0 0 0 0 0 -23.9109 0 0 53.9109 0 0 0 0 0 0
0 99.0751 52.9167 0 -1.8224 0 0 0 0 0 0 0 0 0 6.9066 0 1.0934 0 0 0 -4.9163 0 -5.4671 -9.8325 0 0 0 -60.0785 2.2761 -3.9476 0 -64.5329 0 -14.7488 0 -3.6447 0 0 0 70.0373 -1.2458 -3.4254 0 45.2512 0 0 0 14.7488 0 0 0 0 0 -15.4441 0 0 45.4441 0 0 -9.8325 0 0 0 0 0 0 0 0 -24.5559 0 0 54.5559 0 0 0 0 0 0
0 99.2202 53.3333 0 -2.0791 0 0 0 0 0 0 0 0 0 6.7525 0 1.2475 0 0 0 -4.8907 0 -6.2374 -9.7815 0 0 0 -60.1021 2.5962 -4.5045 0 -63.7626 0 -14.6722 0 -4.1582 0 0 0 70.0485 -1.4211 -3.9083 0 45.3278 0 0 0 14.6722 0 0 0 0 0 -14.8022 0 0 44.8022 0 0 -9.7815 0 0 0 0 0 0 0 0 -25.1978 0 0 55.1978 0 0 0 0 0 0
0 99.3620 53.7500 0 -2.3345 0 0 0 0 0 0 0 0 0 6.5993 0 1.4007 0 0 0 -4.8618 0 -7.0034 -9.7237 0 0 0 -60.1288 2.9143 -5.0586 0 -62.9966 0 -14.5855 0 -4.6689 0 0 0 70.0611 -1.5953 -4.3885 0 45.4145 0 0 0 14.5855 0 0 0 0 0 -14.1639 0 0 44.1639 0 0 -9.7237 0 0 0 0 0 0 0 0 -25.8361 0 0 55.8361 0 0 0 0 0 0
0 99.5000 54.1667 0 -2.5882 0 0 0 0 0 0 0 0 0 6.4471 0 1.5529 0 0 0 -4.8296 0 -7.7646 -9.6593 0 0 0 -60.1583 3.2301 -5.6095 0 -62.2354 0 -14.4889 0 -5.1764 0 0 0 70.0751 -1.7683 -4.8658 0 45.5111 0 0 0 14.4889 0 0 0 0 0 -13.5295 0 0 43.5295 0 0 -9.6593 0 0 0 0 0 0 0 0 -26.4705 0 0 56.4705 0 0 0 0 0 0
0 99.6339 54.5833 0 -2.8402 0 0 0 0 0 0 0 0 0 6.2959 0 1.7041 0 0 0 -4.7941 0 -8.5205 -9.5882 0 0 0 -60.1906 3.5434 -6.1570 0 -61.4795 0 -14.3823 0 -5.6803 0 0 0 70.0905 -1.9400 -5.3398 0 45.6177 0 0 0 14.3823 0 0 0 0 0 -12.8996 0 0 42.8996 0 0 -9.5882 0 0 0 0 0 0 0 0 -27.1004 0 0 57.1004 0 0 0 0 0 0
0 99.7634 55.0000 0 -3.0902 0 0 0 0 0 0 0 0 0 6.1459 0 1.8541 0 0 0 -4.7553 0 -9.2705 -9.5106 0 0 0 -60.2257 3.8539 -6.7005 0 -60.7295 0 -14.2658 0 -6.1803 0 0 0 70.1071 -2.1102 -5.8103 0 45.7342 0 0 0 14.2658 0 0 0 0 0 -12.2746 0 0 42.2746 0 0 -9.5106 0 0 0 0 0 0 0 0 -27.7254 0 0 57.7254 0 0 0 0 0 0
0 99.8880 55.4167 0 -3.3381 0 0 0 0 0 0 0 0 0 5.9972 0 2.0028 0 0 0 -4.7132 0 -10.0142 -9.4264 0 0 0 -60.2634 4.1615 -7.2399 0 -59.9858 0 -14.1396 0 -6.6761 0 0 0 70.1250 -2.2788 -6.2768 0 45.8604 0 0 0 14.1396 0 0 0 0 0 -11.6548 0 0 41.6548 0 0 -9.4264 0 0 0 0 0 0 0 0 -28.3452 0 0 58.3452 0 0 0 0 0 0
0 100.0074 55.8333 0 -3.5837 0 0 0 0 0 0 0 0 0 5.8498 0 2.1502 0 0 0 -4.6679 0 -10.7510 -9.3358 0 0 0 -60.3036 4.4659 -7.7747 0 -59.2490 0 -14.0037 0 -7.1674 0 0 0 70.1440 -2.4457 -6.7392 0 45.9963 0 0 0 14.0037 0 0 0 0 0 -11.0408 0 0 41.0408 0 0 -9.3358 0 0 0 0 0 0 0 0 -28.9592 0 0 58.9592 0 0 0 0 0 0
0 100.1213 56.2500 0 -3.8268 0 0 0 0 0 0 0 0 0 5.7039 0 2.2961 0 0 0 -4.6194 0 -11.4805 -9.2388 0 0 0 -60.3463 4.7668 -8.3046 0 -58.5195 0 -13.8582 0 -7.6537 0 0 0 70.1642 -2.6108 -7.1971 0 46.1418 0 0 0 13.8582 0 0 0 0 0 -10.4329 0 0 40.4329 0 0 -9.2388 0 0 0 0 0 0 0 0 -29.5671 0 0 59.5671 0 0 0 0 0 0
0 100.2294 56.6667 0 -4.0674 0 0 0 0 0 0 0 0 0 5.5596 0 2.4404 0 0 0 -4.5677 0 -12.2021 -9.1355 0 0 0 -60.3912 5.0642 -8.8292 0 -57.7979 0 -13.7032 0 -8.1347 0 0 0 70.1855 -2.7740 -7.6501 0 46.2968 0 0 0 13.7032 0 0 0 0 0 -9.8316 0 0 39.8316 0 0 -9.1355 0 0 0 0 0 0 0 0 -30.1684 0 0 60.1684 0 0 0 0 0 0
0 100.3314 57.0833 0 -4.3051 0 0 0 0 0 0 0 0 0 5.4169 0 2.5831 0 0 0 -4.5129 0 -12.9153 -9.0259 0 0 0 -60.4384 5.3576 -9.3482 0 -57.0847 0 -13.5388 0 -8.6102 0 0 0 70.2078 -2.9351 -8.0981 0 46.4612 0 0 0 13.5388 0 0 0 0 0 -9.2372 0 0 39.2372 0 0 -9.0259 0 0 0 0 0 0 0 0 -30.7628 0 0 60.7628 0 0 0 0 0 0
0 100.4271 57.5000 0 -4.5399 0 0 0 0 0 0 0 0 0 5.2761 0 2.7239 0 0 0 -4.4550 0 -13.6197 -8.9101 0 0 0 -60.4875 5.6470 -9.8613 0 -56.3803 0 -13.3651 0 -9.0798 0 0 0 70.2311 -3.0940 -8.5406 0 46.6349 0 0 0 13.3651 0 0 0 0 0 -8.6502 0 0 38.6502 0 0 -8.9101 0 0 0 0 0 0 0 0 -31.3498 0 0 61.3498 0 0 0 0 0 0
0 100.5160 57.9167 0 -4.7716 0 0 0 0 0 0 0 0 0 5.1370 0 2.8630 0 0 0 -4.3941 0 -14.3148 -8.7882 0 0 0 -60.5387 5.9321 -10.3680 0 -55.6852 0 -13.1823 0 -9.5432 0 0 0 70.2553 -3.2506 -8.9773 0 46.8177 0 0 0 13.1823 0 0 0 0 0 -8.0710 0 0 38.0710 0 0 -8.7882 0 0 0 0 0 0 0 0 -31.9290 0 0 61.9290 0 0 0 0 0 0
0 100.5981 58.3333 0 -5.0000 0 0 0 0 0 0 0 0 0 5.0000 0 3.0000 0 0 0 -4.3301 0 -15.0000 -8.6603 0 0 0 -60.5916 6.2127 -10.8682 0 -55.0000 0 -12.9904 0 -10.0000 0 0 0 70.2803 -3.4049 -9.4080 0 47.0096 0 0 0 12.9904 0 0 0 0 0 -7.5000 0 0 37.5000 0 0 -8.6603 0 0 0 0 0 0 0 0 -32.5000 0 0 62.5000 0 0 0 0 0 0
0 100.6730 58.7500 0 -5.2250 0 0 0 0 0 0 0 0 0 4.8650 0 3.1350 0 0 0 -4.2632 0 -15.6750 -8.5264 0 0 0 -60.6461 6.4887 -11.3613 0 -54.3250 0 -12.7896 0 -10.4500 0 0 0 70.3060 -3.5566 -9.8324 0 47.2104 0 0 0 12.7896 0 0 0 0 0 -6.9375 0 0 36.9375 0 0 -8.5264 0 0 0 0 0 0 0 0 -33.0625 0 0 63.0625 0 0 0 0 0 0
0 100.7406 59.1667 0 -5.4464 0 0 0 0 0 0 0 0 0 4.7322 0 3.2678 0 0 0 -4.1934 0 -16.3392 -8.3867 0 0 0 -60.7022 6.7598 -11.8471 0 -53.6608 0 -12.5801 0 -10.8928 0 0 0 70.3325 -3.7057 -10.2502 0 47.4199 0 0 0 12.5801 0 0 0 0 0 -6.3840 0 0 36.3840 0 0 -8.3867 0 0 0 0 0 0 0 0 -33.6160 0 0 63.6160 0 0 0 0 0 0
0 100.8007 59.5833 0 -5.6641 0 0 0 0 0 0 0 0 0 4.6016 0 3.3984 0 0 0 -4.1206 0 -16.9922 -8.2413 0 0 0 -60.7596 7.0258 -12.3253 0 -53.0078 0 -12.3619 0 -11.3281 0 0 0 70.3596 -3.8522 -10.6611 0 47.6381 0 0 0 12.3619 0 0 0 0 0 -5.8398 0 0 35.8398 0 0 -8.2413 0 0 0 0 0 0 0 0 -34.1602 0 0 64.1602 0 0 0 0 0 0
0 100.8532 60.0000 0 -5.8779 0 0 0 0 0 0 0 0 0 4.4733 0 3.5267 0 0 0 -4.0451 0 -17.6336 -8.0902 0 0 0 -60.8181 7.2867 -12.7954 0 -52.3664 0 -12.1353 0 -11.7557 0 0 0 70.3872 -3.9958 -11.0648 0 47.8647 0 0 0 12.1353 0 0 0 0 0 -5.3054 0 0 35.3054 0 0 -8.0902 0 0 0 0 0 0 0 0 -34.6946 0 0 64.6946 0 0 0 0 0 0
0 100.8978 60.4167 0 -6.0876 0 0 0 0 0 0 0 0 0 4.3474 0 3.6526 0 0 0 -3.9668 0 -18.2628 -7.9335 0 0 0 -60.8777 7.5421 -13.2573 0 -51.7372 0 -11.9003 0 -12.1752 0 0 0 70.4153 -4.1365 -11.4610 0 48.0997 0 0 0 11.9003 0 0 0 0 0 -4.7810 0 0 34.7810 0 0 -7.9335 0 0 0 0 0 0 0 0 -35.2190 0 0 65.2190 0 0 0 0 0 0
0 100.9344 60.8333 0 -6.2932 0 0 0 0 0 0 0 0 0 4.2241 0 3.7759 0 0 0 -3.8857 0 -18.8796 -7.7715 0 0 0 -60.9382 7.7920 -13.7105 0 -51.1204 0 -11.6572 0 -12.5864 0 0 0 70.4438 -4.2742 -11.8495 0 48.3428 0 0 0 11.6572 0 0 0 0 0 -4.2670 0 0 34.2670 0 0 -7.7715 0 0 0 0 0 0 0 0 -35.7330 0 0 65.7330 0 0 0 0 0 0
0 100.9631 61.2500 0 -6.4945 0 0 0 0 0 0 0 0 0 4.1033 0 3.8967 0 0 0 -3.8020 0 -19.4834 -7.6041 0 0 0 -60.9993 8.0362 -14.1547 0 -50.5166 0 -11.4061 0 -12.9890 0 0 0 70.4726 -4.4089 -12.2299 0 48.5939 0 0 0 11.4061 0 0 0 0 0 -3.7638 0 0 33.7638 0 0 -7.6041 0 0 0 0 0 0 0 0 -36.2362 0 0 66.2362 0 0 0 0 0 0
0 100.9836 61.6667 0 -6.6913 0 0 0 0 0 0 0 0 0 3.9852 0 4.0148 0 0 0 -3.7157 0 -20.0739 -7.4314 0 0 0 -61.0610 8.2745 -14.5896 0 -49.9261 0 -11.1472 0 -13.3826 0 0 0 70.5016 -4.5404 -12.6021 0 48.8528 0 0 0 11.1472 0 0 0 0 0 -3.2717 0 0 33.2717 0 0 -7.4314 0 0 0 0 0 0 0 0 -36.7283 0 0 66.7283 0 0 0 0 0 0
0 100.9959 62.0833 0 -6.8835 0 0 0 0 0 0 0 0 0 3.8699 0 4.1301 0 0 0 -3.6269 0 -20.6506 -7.2537 0 0 0 -61.1231 8.5069 -15.0148 0 -49.3494 0 -10.8806 0 -13.7671 0 0 0 70.5308 -4.6686 -12.9657 0 49.1194 0 0 0 10.8806 0 0 0 0 0 -2.7911 0 0 32.7911 0 0 -7.2537 0 0 0 0 0 0 0 0 -37.2089 0 0 67.2089 0 0 0 0 0 0
0 101.0000 62.5000 0 -7.0711 0 0 0 0 0 0 0 0 0 3.7574 0 4.2426 0 0 0 -3.5355 0 -21.2132 -7.0711 0 0 0 -61.1853 8.7330 -15.4301 0 -48.7868 0 -10.6066 0 -14.1421 0 0 0 70.5601 -4.7935 -13.3206 0 49.3934 0 0 0 10.6066 0 0 0 0 0 -2.3223 0 0 32.3223 0 0 -7.0711 0 0 0 0 0 0 0 0 -37.6777 0 0 67.6777 0 0 0 0 0 0
0 100.9959 62.9167 0 -7.2537 0 0 0 0 0 0 0 0 0 3.6478 0 4.3522 0 0 0 -3.4418 0 -21.7612 -6.8835 0 0 0 -61.2476 8.9529 -15.8352 0 -48.2388 0 -10.3253 0 -14.5075 0 0 0 70.5893 -4.9150 -13.6664 0 49.6747 0 0 0 10.3253 0 0 0 0 0 -1.8656 0 0 31.8656 0 0 -6.8835 0 0 0 0 0 0 0 0 -38.1344 0 0 68.1344 0 0 0 0 0 0
0 100.9836 63.3333 0 -7.4314 0 0 0 0 0 0 0 0 0 3.5411 0 4.4589 0 0 0 -3.3457 0 -22.2943 -6.6913 0 0 0 -61.3097 9.1664 -16.2298 0 -47.7057 0 -10.0370 0 -14.8629 0 0 0 70.6185 -5.0331 -14.0029 0 49.9630 0 0 0 10.0370 0 0 0 0 0 -1.4214 0 0 31.4214 0 0 -6.6913 0 0 0 0 0 0 0 0 -38.5786 0 0 68.5786 0 0 0 0 0 0
0 100.9631 63.7500 0 -7.6041 0 0 0 0 0 0 0 0 0 3.4376 0 4.5624 0 0 0 -3.2472 0 -22.8122 -6.4945 0 0 0 -61.3715 9.3734 -16.6134 0 -47.1878 0 -9.7417 0 -15.2081 0 0 0 70.6475 -5.1475 -14.3299 0 50.2583 0 0 0 9.7417 0 0 0 0 0 -0.9899 0 0 30.9899 0 0 -6.4945 0 0 0 0 0 0 0 0 -39.0101 0 0 69.0101 0 0 0 0 0 0
0 100.9344 64.1667 0 -7.7715 0 0 0 0 0 0 0 0 0 3.3371 0 4.6629 0 0 0 -3.1466 0 -23.3144 -6.2932 0 0 0 -61.4329 9.5737 -16.9859 0 -46.6856 0 -9.4398 0 -15.5429 0 0 0 70.6763 -5.2584 -14.6471 0 50.5602 0 0 0 9.4398 0 0 0 0 0 -0.5714 0 0 30.5714 0 0 -6.2932 0 0 0 0 0 0 0 0 -39.4286 0 0 69.4286 0 0 0 0 0 0
0 100.8978 64.5833 0 -7.9335 0 0 0 0 0 0 0 0 0 3.2399 0 4.7601 0 0 0 -3.0438 0 -23.8006 -6.0876 0 0 0 -61.4935 9.7673 -17.3470 0 -46.1994 0 -9.1314 0 -15.8671 0 0 0 70.7047 -5.3656 -14.9543 0 50.8686 0 0 0 9.1314 0 0 0 0 0 -0.1662 0 0 30.1662 0 0 -6.0876 0 0 0 0 0 0 0 0 -39.8338 0 0 69.8338 0 0 0 0 0 0
0 100.8532 65.0000 0 -8.0902 0 0 0 0 0 0 0 0 0 3.1459 0 4.8541 0 0 0 -2.9389 0 -24.2705 -5.8779 0 0 0 -61.5533 9.9540 -17.6964 0 -45.7295 0 -8.8168 0 -16.1803 0 0 0 70.7328 -5.4690 -15.2513 0 51.1832 0 0 0 8.8168 0 0 0 0 0 0.2254 0 0 29.7746 0 0 -5.8779 0 0 0 0 0 0 0 0 -40.2254 0 0 70.2254 0 0 0 0 0 0
0 100.8007 65.4167 0 -8.2413 0 0 0 0 0 0 0 0 0 3.0552 0 4.9448 0 0 0 -2.8320 0 -24.7238 -5.6641 0 0 0 -61.6122 10.1337 -18.0338 0 -45.2762 0 -8.4961 0 -16.4825 0 0 0 70.7603 -5.5687 -15.5379 0 51.5039 0 0 0 8.4961 0 0 0 0 0 0.6032 0 0 29.3968 0 0 -5.6641 0 0 0 0 0 0 0 0 -40.6032 0 0 70.6032 0 0 0 0 0 0
0 100.7406 65.8333 0 -8.3867 0 0 0 0 0 0 0 0 0 2.9680 0 5.0320 0 0 0 -2.7232 0 -25.1601 -5.4464 0 0 0 -61.6699 10.3065 -18.3589 0 -44.8399 0 -8.1696 0 -16.7734 0 0 0 70.7873 -5.6645 -15.8139 0 51.8304 0 0 0 8.1696 0 0 0 0 0 0.9668 0 0 29.0332 0 0 -5.4464 0 0 0 0 0 0 0 0 -40.9668 0 0 70.9668 0 0 0 0 0 0
0 100.6730 66.2500 0 -8.5264 0 0 0 0 0 0 0 0 0 2.8842 0 5.1158 0 0 0 -2.6125 0 -25.5792 -5.2250 0 0 0 -61.7263 10.4720 -18.6715 0 -44.4208 0 -7.8375 0 -17.0528 0 0 0 70.8137 -5.7564 -16.0791 0 52.1625 0 0 0 7.8375 0 0 0 0 0 1.3160 0 0 28.6840 0 0 -5.2250 0 0 0 0 0 0 0 0 -41.3160 0 0 71.3160 0 0 0 0 0 0
0 100.5981 66.6667 0 -8.6603 0 0 0 0 0 0 0 0 0 2.8038 0 5.1962 0 0 0 -2.5000 0 -25.9808 -5.0000 0 0 0 -61.7812 10.6304 -18.9714 0 -44.0192 0 -7.5000 0 -17.3205 0 0 0 70.8394 -5.8443 -16.3333 0 52.5000 0 0 0 7.5000 0 0 0 0 0 1.6506 0 0 28.3494 0 0 -5.0000 0 0 0 0 0 0 0 0 -41.6506 0 0 71.6506 0 0 0 0 0 0
0 100.5160 67.0833 0 -8.7882 0 0 0 0 0 0 0 0 0 2.7271 0 5.2729 0 0 0 -2.3858 0 -26.3645 -4.7716 0 0 0 -61.8345 10.7815 -19.2582 0 -43.6355 0 -7.1574 0 -17.5763 0 0 0 70.8643 -5.9282 -16.5762 0 52.8426 0 0 0 7.1574 0 0 0 0 0 1.9704 0 0 28.0296 0 0 -4.7716 0 0 0 0 0 0 0 0 -41.9704 0 0 71.9704 0 0 0 0 0 0
0 100.4271 67.5000 0 -8.9101 0 0 0 0 0 0 0 0 0 2.6540 0 5.3460 0 0 0 -2.2700 0 -26.7302 -4.5399 0 0 0 -61.8860 10.9252 -19.5319 0 -43.2698 0 -6.8099 0 -17.8201 0 0 0 70.8884 -6.0081 -16.8078 0 53.1901 0 0 0 6.8099 0 0 0 0 0 2.2752 0 0 27.7248 0 0 -4.5399 0 0 0 0 0 0 0 0 -42.2752 0 0 72.2752 0 0 0 0 0 0
0 100.3314 67.9167 0 -9.0259 0 0 0 0 0 0 0 0 0 2.5845 0 5.4155 0 0 0 -2.1526 0 -27.0776 -4.3051 0 0 0 -61.9356 11.0615 -19.7920 0 -42.9224 0 -6.4577 0 -18.0517 0 0 0 70.9116 -6.0838 -17.0279 0 53.5423 0 0 0 6.4577 0 0 0 0 0 2.5646 0 0 27.4354 0 0 -4.3051 0 0 0 0 0 0 0 0 -42.5646 0 0 72.5646 0 0 0 0 0 0
0 100.2294 68.3333 0 -9.1355 0 0 0 0 0 0 0 0 0 2.5187 0 5.4813 0 0 0 -2.0337 0 -27.4064 -4.0674 0 0 0 -61.9831 11.1903 -20.0385 0 -42.5936 0 -6.1010 0 -18.2709 0 0 0 70.9338 -6.1555 -17.2362 0 53.8990 0 0 0 6.1010 0 0 0 0 0 2.8386 0 0 27.1614 0 0 -4.0674 0 0 0 0 0 0 0 0 -42.8386 0 0 72.8386 0 0 0 0 0 0
0 100.1213 68.7500 0 -9.2388 0 0 0 0 0 0 0 0 0 2.4567 0 5.5433 0 0 0 -1.9134 0 -27.7164 -3.8268 0 0 0 -62.0285 11.3116 -20.2711 0 -42.2836 0 -5.7403 0 -18.4776 0 0 0 70.9550 -6.2230 -17.4327 0 54.2597 0 0 0 5.7403 0 0 0 0 0 3.0970 0 0 26.9030 0 0 -3.8268 0 0 0 0 0 0 0 0 -43.0970 0 0 73.0970 0 0 0 0 0 0
0 100.0074 69.1667 0 -9.3358 0 0 0 0 0 0 0 0 0 2.3985 0 5.6015 0 0 0 -1.7918 0 -28.0074 -3.5837 0 0 0 -62.0716 11.4253 -20.4896 0 -41.9926 0 -5.3755 0 -18.6716 0 0 0 70.9751 -6.2862 -17.6172 0 54.6245 0 0 0 5.3755 0 0 0 0 0 3.3395 0 0 26.6605 0 0 -3.5837 0 0 0 0 0 0 0 0 -43.3395 0 0 73.3395 0 0 0 0 0 0
0 99.8880 69.5833 0 -9.4264 0 0 0 0 0 0 0 0 0 2.3442 0 5.6558 0 0 0 -1.6690 0 -28.2792 -3.3381 0 0 0 -62.1122 11.5313 -20.6939 0 -41.7208 0 -5.0071 0 -18.8528 0 0 0 70.9940 -6.3453 -17.7896 0 54.9929 0 0 0 5.0071 0 0 0 0 0 3.5660 0 0 26.4340 0 0 -3.3381 0 0 0 0 0 0 0 0 -43.5660 0 0 73.5660 0 0 0 0 0 0
0 99.7634 70.0000 0 -9.5106 0 0 0 0 0 0 0 0 0 2.2937 0 5.7063 0 0 0 -1.5451 0 -28.5317 -3.0902 0 0 0 -62.1504 11.6296 -20.8837 0 -41.4683 0 -4.6353 0 -19.0211 0 0 0 71.0118 -6.4001 -17.9497 0 55.3647 0 0 0 4.6353 0 0 0 0 0 3.7764 0 0 26.2236 0 0 -3.0902 0 0 0 0 0 0 0 0 -43.7764 0 0 73.7764 0 0 0 0 0 0
0 99.6339 70.4167 0 -9.5882 0 0 0 0 0 0 0 0 0 2.2471 0 5.7529 0 0 0 -1.4201 0 -28.7646 -2.8402 0 0 0 -62.1858 11.7202 -21.0590 0 -41.2354 0 -4.2602 0 -19.1764 0 0 0 71.0284 -6.4506 -18.0975 0 55.7398 0 0 0 4.2602 0 0 0 0 0 3.9705 0 0 26.0295 0 0 -2.8402 0 0 0 0 0 0 0 0 -43.9705 0 0 73.9705 0 0 0 0 0 0
0 99.5000 70.8333 0 -9.6593 0 0 0 0 0 0 0 0 0 2.2044 0 5.7956 0 0 0 -1.2941 0 -28.9778 -2.5882 0 0 0 -62.2185 11.8031 -21.2195 0 -41.0222 0 -3.8823 0 -19.3185 0 0 0 71.0436 -6.4968 -18.2327 0 56.1177 0 0 0 3.8823 0 0 0 0 0 4.1481 0 0 25.8519 0 0 -2.5882 0 0 0 0 0 0 0 0 -44.1481 0 0 74.1481 0 0 0 0 0 0
0 99.3620 71.2500 0 -9.7237 0 0 0 0 0 0 0 0 0 2.1658 0 5.8342 0 0 0 -1.1672 0 -29.1711 -2.3345 0 0 0 -62.2484 11.8781 -21.3651 0 -40.8289 0 -3.5017 0 -19.4474 0 0 0 71.0575 -6.5386 -18.3554 0 56.4983 0 0 0 3.5017 0 0 0 0 0 4.3092 0 0 25.6908 0 0 -2.3345 0 0 0 0 0 0 0 0 -44.3092 0 0 74.3092 0 0 0 0 0 0
0 99.2202 71.6667 0 -9.7815 0 0 0 0 0 0 0 0 0 2.1311 0 5.8689 0 0 0 -1.0396 0 -29.3444 -2.0791 0 0 0 -62.2754 11.9454 -21.4958 0 -40.6556 0 -3.1187 0 -19.5630 0 0 0 71.0701 -6.5761 -18.4655 0 56.8813 0 0 0 3.1187 0 0 0 0 0 4.4537 0 0 25.5463 0 0 -2.0791 0 0 0 0 0 0 0 0 -44.4537 0 0 74.4537 0 0 0 0 0 0
0 99.0751 72.0833 0 -9.8325 0 0 0 0 0 0 0 0 0 2.1005 0 5.8995 0 0 0 -0.9112 0 -29.4976 -1.8224 0 0 0 -62.2994 12.0047 -21.6113 0 -40.5024 0 -2.7335 0 -19.6651 0 0 0 71.0813 -6.6092 -18.5627 0 57.2665 0 0 0 2.7335 0 0 0 0 0 4.5814 0 0 25.4186 0 0 -1.8224 0 0 0 0 0 0 0 0 -44.5814 0 0 74.5814 0 0 0 0 0 0
0 98.9271 72.5000 0 -9.8769 0 0 0 0 0 0 0 0 0 2.0739 0 5.9261 0 0 0 -0.7822 0 -29.6307 -1.5643 0 0 0 -62.3203 12.0562 -21.7117 0 -40.3693 0 -2.3465 0 -19.7538 0 0 0 71.0910 -6.6380 -18.6472 0 57.6535 0 0 0 2.3465 0 0 0 0 0 4.6922 0 0 25.3078 0 0 -1.5643 0 0 0 0 0 0 0 0 -44.6922 0 0 74.6922 0 0 0 0 0 0
0 98.7765 72.9167 0 -9.9144 0 0 0 0 0 0 0 0 0 2.0513 0 5.9487 0 0 0 -0.6526 0 -29.7433 -1.3053 0 0 0 -62.3381 12.0999 -21.7967 0 -40.2567 0 -1.9579 0 -19.8289 0 0 0 71.0993 -6.6623 -18.7187 0 58.0421 0 0 0 1.9579 0 0 0 0 0 4.7861 0 0 25.2139 0 0 -1.3053 0 0 0 0 0 0 0 0 -44.7861 0 0 74.7861 0 0 0 0 0 0
0 98.6237 73.3333 0 -9.9452 0 0 0 0 0 0 0 0 0 2.0329 0 5.9671 0 0 0 -0.5226 0 -29.8357 -1.0453 0 0 0 -62.3527 12.1356 -21.8664 0 -40.1643 0 -1.5679 0 -19.8904 0 0 0 71.1061 -6.6822 -18.7773 0 58.4321 0 0 0 1.5679 0 0 0 0 0 4.8630 0 0 25.1370 0 0 -1.0453 0 0 0 0 0 0 0 0 -44.8630 0 0 74.8630 0 0 0 0 0 0
0 98.4693 73.7500 0 -9.9692 0 0 0 0 0 0 0 0 0 2.0185 0 5.9815 0 0 0 -0.3923 0 -29.9075 -0.7846 0 0 0 -62.3641 12.1633 -21.9207 0 -40.0925 0 -1.1769 0 -19.9383 0 0 0 71.1114 -6.6978 -18.8230 0 58.8231 0 0 0 1.1769 0 0 0 0 0 4.9229 0 0 25.0771 0 0 -0.7846 0 0 0 0 0 0 0 0 -44.9229 0 0 74.9229 0 0 0 0 0 0
0 98.3136 74.1667 0 -9.9863 0 0 0 0 0 0 0 0 0 2.0082 0 5.9918 0 0 0 -0.2617 0 -29.9589 -0.5234 0 0 0 -62.3723 12.1832 -21.9595 0 -40.0411 0 -0.7850 0 -19.9726 0 0 0 71.1152 -6.7088 -18.8556 0 59.2150 0 0 0 0.7850 0 0 0 0 0 4.9657 0 0 25.0343 0 0 -0.5234 0 0 0 0 0 0 0 0 -44.9657 0 0 74.9657 0 0 0 0 0 0
0 98.1570 74.5833 0 -9.9966 0 0 0 0 0 0 0 0 0 2.0021 0 5.9979 0 0 0 -0.1309 0 -29.9897 -0.2618 0 0 0 -62.3772 12.1951 -21.9828 0 -40.0103 0 -0.3927 0 -19.9931 0 0 0 71.1175 -6.7155 -18.8752 0 59.6073 0 0 0 0.3927 0 0 0 0 0 4.9914 0 0 25.0086 0 0 -0.2618 0 0 0 0 0 0 0 0 -44.9914 0 0 74.9914 0 0 0 0 0 0
0 98.0000 75.0000 0 -10.0000 0 0 0 0 0 0 0 0 0 2.0000 0 6.0000 0 0 0 0 0 -30.0000 0 0 0 0 -62.3789 12.1991 -21.9905 0 -40.0000 0 0 0 -20.0000 0 0 0 71.1183 -6.7177 -18.8817 0 60.0000 0 0 0 0 0 0 0 0 0 5.0000 0 0 25.0000 0 0 0 0 0 0 0 0 0 0 0 -45.0000 0 0 75.0000 0 0 0 0 0 0
0 97.8430 75.4167 0 -9.9966 0 0 0 0 0 0 0 0 0 2.0021 0 5.9979 0 0 0 0.1309 0 -29.9897 0.2618 0 0 0 -62.3772 12.1951 -21.9828 0 -40.0103 0 0.3927 0 -19.9931 0 0 0 71.1175 -6.7155 -18.8752 0 60.3927 0 0 0 -0.3927 0 0 0 0 0 4.9914 0 0 25.0086 0 0 0.2618 0 0 0 0 0 0 0 0 -44.9914 0 0 74.9914 0 0 0 0 0 0
0 97.6864 75.8333 0 -9.9863 0 0 0 0 0 0 0 0 0 2.0082 0 5.9918 0 0 0 0.2617 0 -29.9589 0.5234 0 0 0 -62.3723 12.1832 -21.9595 0 -40.0411 0 0.7850 0 -19.9726 0 0 0 71.1152 -6.7088 -18.8556 0 60.7850 0 0 0 -0.7850 0 0 0 0 0 4.9657 0 0 25.0343 0 0 0.5234 0 0 0 0 0 0 0 0 -44.9657 0 0 74.9657 0 0 0 0 0 0
0 97.5307 76.2500 0 -9.9692 0 0 0 0 0 0 0 0 0 2.0185 0 5.9815 0 0 0 0.3923 0 -29.9075 0.7846 0 0 0 -62.3641 12.1633 -21.9207 0 -40.0925 0 1.1769 0 -19.9383 0 0 0 71.1114 -6.6978 -18.8230 0 61.1769 0 0 0 -1.1769 0 0 0 0 0 4.9229 0 0 25.0771 0 0 0.7846 0 0 0 0 0 0 0 0 -44.9229 0 0 74.9229 0 0 0 0 0 0
0 97.3763 76.6667 0 -9.9452 0 0 0 0 0 0 0 0 0 2.0329 0 5.9671 0 0 0 0.5226 0 -29.8357 1.0453 0 0 0 -62.3527 12.1356 -21.8664 0 -40.1643 0 1.5679 0 -19.8904 0 0 0 71.1061 -6.6822 -18.7773 0 61.5679 0 0 0 -1.5679 0 0 0 0 0 4.8630 0 0 25.1370 0 0 1.0453 0 0 0 0 0 0 0 0 -44.8630 0 0 74.8630 0 0 0 0 0 0
0 97.2235 77.0833 0 -9.9144 0 0 0 0 0 0 0 0 0 2.0513 0 5.9487 0 0 0 0.6526 0 -29.7433 1.3053 0 0 0 -62.3381 12.0999 -21.7967 0 -40.2567 0 1.9579 0 -19.8289 0 0 0 71.0993 -6.6623 -18.7187 0 61.9579 0 0 0 -1.9579 0 0 0 0 0 4.7861 0 0 25.2139 0 0 1.3053 0 0 0 0 0 0 0 0 -44.7861 0 0 74.7861 0 0 0 0 0 0
0 97.0729 77.5000 0 -9.8769 0 0 0 0 0 0 0 0 0 2.0739 0 5.9261 0 0 0 0.7822 0 -29.6307 1.5643 0 0 0 -62.3203 12.0562 -21.7117 0 -40.3693 0 2.3465 0 -19.7538 0 0 0 71.0910 -6.6380 -18.6472 0 62.3465 0 0 0 -2.3465 0 0 0 0 0 4.6922 0 0 25.3078 0 0 1.5643 0 0 0 0 0 0 0 0 -44.6922 0 0 74.6922 0 0 0 0 0 0
0 96.9249 77.9167 0 -9.8325 0 0 0 0 0 0 0 0 0 2.1005 0 5.8995 0 0 0 0.9112 0 -29.4976 1.8224 0 0 0 -62.2994 12.0047 -21.6113 0 -40.5024 0 2.7335 0 -19.6651 0 0 0 71.0813 -6.6092 -18.5627 0 62.7335 0 0 0 -2.7335 0 0 0 0 0 4.5814 0 0 25.4186 0 0 1.8224 0 0 0 0 0 0 0 0 -44.5814 0 0 74.5814 0 0 0 0 0 0
0 96.7798 78.3333 0 -9.7815 0 0 0 0 0 0 0 0 0 2.1311 0 5.8689 0 0 0 1.0396 0 -29.3444 2.0791 0 0 0 -62.2754 11.9454 -21.4958 0 -40.6556 0 3.1187 0 -19.5630 0 0 0 71.0701 -6.5761 -18.4655 0 63.1187 0 0 0 -3.1187 0 0 0 0 0 4.4537 0 0 25.5463 0 0 2.0791 0 0 0 0 0 0 0 0 -44.4537 0 0 74.4537 0 0 0 0 0 0
0 96.6380 78.7500 0 -9.7237 0 0 0 0 0 0 0 0 0 2.1658 0 5.8342 0 0 0 1.1672 0 -29.1711 2.3345 0 0 0 -62.2484 11.8781 -21.3651 0 -40.8289 0 3.5017 0 -19.4474 0 0 0 71.0575 -6.5386 -18.3554 0 63.5017 0 0 0 -3.5017 0 0 0 0 0 4.3092 0 0 25.6908 0 0 2.3345 0 0 0 0 0 0 0 0 -44.3092 0 0 74.3092 0 0 0 0 0 0
0 96.5000 79.1667 0 -9.6593 0 0 0 0 0 0 0 0 0 2.2044 0 5.7956 0 0 0 1.2941 0 -28.9778 2.5882 0 0 0 -62.2185 11.8031 -21.2195 0 -41.0222 0 3.8823 0 -19.3185 0 0 0 71.0436 -6.4968 -18.2327 0 63.8823 0 0 0 -3.8823 0 0 0 0 0 4.1481 0 0 25.8519 0 0 2.5882 0 0 0 0 0 0 0 0 -44.1481 0 0 74.1481 0 0 0 0 0 0
0 96.3661 79.5833 0 -9.5882 0 0 0 0 0 0 0 0 0 2.2471 0 5.7529 0 0 0 1.4201 0 -28.7646 2.8402 0 0 0 -62.1858 11.7202 -21.0590 0 -41.2354 0 4.2602 0 -19.1764 0 0 0 71.0284 -6.4506 -18.0975 0 64.2602 0 0 0 -4.2602 0 0 0 0 0 3.9705 0 0 26.0295 0 0 2.8402 0 0 0 0 0 0 0 0 -43.9705 0 0 73.9705 0 0 0 0 0 0
0 96.2366 80.0000 0 -9.5106 0 0 0 0 0 0 0 0 0 2.2937 0 5.7063 0 0 0 1.5451 0 -28.5317 3.0902 0 0 0 -62.1504 11.6296 -20.8837 0 -41.4683 0 4.6353 0 -19.0211 0 0 0 71.0118 -6.4001 -17.9497 0 64.6353 0 0 0 -4.6353 0 0 0 0 0 3.7764 0 0 26.2236 0 0 3.0902 0 0 0 0 0 0 0 0 -43.7764 0 0 73.7764 0 0 0 0 0 0
0 96.1120 80.4167 0 -9.4264 0 0 0 0 0 0 0 0 0 2.3442 0 5.6558 0 0 0 1.6690 0 -28.2792 3.3381 0 0 0 -62.1122 11.5313 -20.6939 0 -41.7208 0 5.0071 0 -18.8528 0 0 0 70.9940 -6.3453 -17.7896 0 65.0071 0 0 0 -5.0071 0 0 0 0 0 3.5660 0 0 26.4340 0 0 3.3381 0 0 0 0 0 0 0 0 -43.5660 0 0 73.5660 0 0 0 0 0 0
0 95.9926 80.8333 0 -9.3358 0 0 0 0 0 0 0 0 0 2.3985 0 5.6015 0 0 0 1.7918 0 -28.0074 3.5837 0 0 0 -62.0716 11.4253 -20.4896 0 -41.9926 0 5.3755 0 -18.6716 0 0 0 70.9751 -6.2862 -17.6172 0 65.3755 0 0 0 -5.3755 0 0 0 0 0 3.3395 0 0 26.6605 0 0 3.5837 0 0 0 0 0 0 0 0 -43.3395 0 0 73.3395 0 0 0 0 0 0
0 95.8787 81.2500 0 -9.2388 0 0 0 0 0 0 0 0 0 2.4567 0 5.5433 0 0 0 1.9134 0 -27.7164 3.8268 0 0 0 -62.0285 11.3116 -20.2711 0 -42.2836 0 5.7403 0 -18.4776 0 0 0 70.9550 -6.2230 -17.4327 0 65.7403 0 0 0 -5.7403 0 0 0 0 0 3.0970 0 0 26.9030 0 0 3.8268 0 0 0 0 0 0 0 0 -43.0970 0 0 73.0970 0 0 0 0 0 0
0 95.7706 81.6667 0 -9.1355 0 0 0 0 0 0 0 0 0 2.5187 0 5.4813 0 0 0 2.0337 0 -27.4064 4.0674 0 0 0 -61.9831 11.1903 -20.0385 0 -42.5936 0 6.1010 0 -18.2709 0 0 0 70.9338 -6.1555 -17.2362 0 66.1010 0 0 0 -6.1010 0 0 0 0 0 2.8386 0 0 27.1614 0 0 4.0674 0 0 0 0 0 0 0 0 -42.8386 0 0 72.8386 0 0 0 0 0 0
0 95.6686 82.0833 0 -9.0259 0 0 0 0 0 0 0 0 0 2.5845 0 5.4155 0 0 0 2.1526 0 -27.0776 4.3051 0 0 0 -61.9356 11.0615 -19.7920 0 -42.9224 0 6.4577 0 -18.0517 0 0 0 70.9116 -6.0838 -17.0279 0 66.4577 0 0 0 -6.4577 0 0 0 0 0 2.5646 0 0 27.4354 0 0 4.3051 0 0 0 0 0 0 0 0 -42.5646 0 0 72.5646 0 0 0 0 0 0
0 95.5729 82.5000 0 -8.9101 0 0 0 0 0 0 0 0 0 2.6540 0 5.3460 0 0 0 2.2700 0 -26.7302 4.5399 0 0 0 -61.8860 10.9252 -19.5319 0 -43.2698 0 6.8099 0 -17.8201 0 0 0 70.8884 -6.0081 -16.8078 0 66.8099 0 0 0 -6.8099 0 0 0 0 0 2.2752 0 0 27.7248 0 0 4.5399 0 0 0 0 0 0 0 0 -42.2752 0 0 72.2752 0 0 0 0 0 0
0 95.4840 82.9167 0 -8.7882 0 0 0 0 0 0 0 0 0 2.7271 0 5.2729 0 0 0 2.3858 0 -26.3645 4.7716 0 0 0 -61.8345 10.7815 -19.2582 0 -43.6355 0 7.1574 0 -17.5763 0 0 0 70.8643 -5.9282 -16.5762 0 67.1574 0 0 0 -7.1574 0 0 0 0 0 1.9704 0 0 28.0296 0 0 4.7716 0 0 0 0 0 0 0 0 -41.9704 0 0 71.9704 0 0 0 0 0 0
0 95.4019 83.3333 0 -8.6603 0 0 0 0 0 0 0 0 0 2.8038 0 5.1962 0 0 0 2.5000 0 -25.9808 5.0000 0 0 0 -61.7812 10.6304 -18.9714 0 -44.0192 0 7.5000 0 -17.3205 0 0 0 70.8394 -5.8443 -16.3333 0 67.5000 0 0 0 -7.5000 0 0 0 0 0 1.6506 0 0 28.3494 0 0 5.0000 0 0 0 0 0 0 0 0 -41.6506 0 0 71.6506 0 0 0 0 0 0
0 95.3270 83.7500 0 -8.5264 0 0 0 0 0 0 0 0 0 2.8842 0 5.1158 0 0 0 2.6125 0 -25.5792 5.2250 0 0 0 -61.7263 10.4720 -18.6715 0 -44.4208 0 7.8375 0 -17.0528 0 0 0 70.8137 -5.7564 -16.0791 0 67.8375 0 0 0 -7.8375 0 0 0 0 0 1.3160 0 0 28.6840 0 0 5.2250 0 0 0 0 0 0 0 0 -41.3160 0 0 71.3160 0 0 0 0 0 0
0 95.2594 84.1667 0 -8.3867 0 0 0 0 0 0 0 0 0 2.9680 0 5.0320 0 0 0 2.7232 0 -25.1601 5.4464 0 0 0 -61.6699 10.3065 -18.3589 0 -44.8399 0 8.1696 0 -16.7734 0 0 0 70.7873 -5.6645 -15.8139 0 68.1696 0 0 0 -8.1696 0 0 0 0 0 0.9668 0 0 29.0332 0 0 5.4464 0 0 0 0 0 0 0 0 -40.9668 0 0 70.9668 0 0 0 0 0 0
0 95.1993 84.5833 0 -8.2413 0 0 0 0 0 0 0 0 0 3.0552 0 4.9448 0 0 0 2.8320 0 -24.7238 5.6641 0 0 0 -61.6122 10.1337 -18.0338 0 -45.2762 0 8.4961 0 -16.4825 0 0 0 70.7603 -5.5687 -15.5379 0 68.4961 0 0 0 -8.4961 0 0 0 0 0 0.6032 0 0 29.3968 0 0 5.6641 0 0 0 0 0 0 0 0 -40.6032 0 0 70.6032 0 0 0 0 0 0
0 95.1468 85.0000 0 -8.0902 0 0 0 0 0 0 0 0 0 3.1459 0 4.8541 0 0 0 2.9389 0 -24.2705 5.8779 0 0 0 -61.5533 9.9540 -17.6964 0 -45.7295 0 8.8168 0 -16.1803 0 0 0 70.7328 -5.4690 -15.2513 0 68.8168 0 0 0 -8.8168 0 0 0 0 0 0.2254 0 0 29.7746 0 0 5.8779 0 0 0 0 0 0 0 0 -40.2254 0 0 70.2254 0 0 0 0 0 0
0 95.1022 85.4167 0 -7.9335 0 0 0 0 0 0 0 0 0 3.2399 0 4.7601 0 0 0 3.0438 0 -23.8006 6.0876 0 0 0 -61.4935 9.7673 -17.3470 0 -46.1994 0 9.1314 0 -15.8671 0 0 0 70.7047 -5.3656 -14.9543 0 69.1314 0 0 0 -9.1314 0 0 0 0 0 -0.1662 0 0 30.1662 0 0 6.0876 0 0 0 0 0 0 0 0 -39.8338 0 0 69.8338 0 0 0 0 0 0
0 95.0656 85.8333 0 -7.7715 0 0 0 0 0 0 0 0 0 3.3371 0 4.6629 0 0 0 3.1466 0 -23.3144 6.2932 0 0 0 -61.4329 9.5737 -16.9859 0 -46.6856 0 9.4398 0 -15.5429 0 0 0 70.6763 -5.2584 -14.6471 0 69.4398 0 0 0 -9.4398 0 0 0 0 0 -0.5714 0 0 30.5714 0 0 6.2932 0 0 0 0 0 0 0 0 -39.4286 0 0 69.4286 0 0 0 0 0 0
0 95.0369 86.2500 0 -7.6041 0 0 0 0 0 0 0 0 0 3.4376 0 4.5624 0 0 0 3.2472 0 -22.8122 6.4945 0 0 0 -61.3715 9.3734 -16.6134 0 -47.1878 0 9.7417 0 -15.2081 0 0 0 70.6475 -5.1475 -14.3299 0 69.7417 0 0 0 -9.7417 0 0 0 0 0 -0.9899 0 0 30.9899 0 0 6.4945 0 0 0 0 0 0 0 0 -39.0101 0 0 69.0101 0 0 0 0 0 0
0 95.0164 86.6667 0 -7.4314 0 0 0 0 0 0 0 0 0 3.5411 0 4.4589 0 0 0 3.3457 0 -22.2943 6.6913 0 0 0 -61.3097 9.1664 -16.2298 0 -47.7057 0 10.0370 0 -14.8629 0 0 0 70.6185 -5.0331 -14.0029 0 70.0370 0 0 0 -10.0370 0 0 0 0 0 -1.4214 0 0 31.4214 0 0 6.6913 0 0 0 0 0 0 0 0 -38.5786 0 0 68.5786 0 0 0 0 0 0
0 95.0041 87.0833 0 -7.2537 0 0 0 0 0 0 0 0 0 3.6478 0 4.3522 0 0 0 3.4418 0 -21.7612 6.8835 0 0 0 -61.2476 8.9529 -15.8352 0 -48.2388 0 10.3253 0 -14.5075 0 0 0 70.5893 -4.9150 -13.6664 0 70.3253 0 0 0 -10.3253 0 0 0 0 0 -1.8656 0 0 31.8656 0 0 6.8835 0 0 0 0 0 0 0 0 -38.1344 0 0 68.1344 0 0 0 0 0 0
0 95.0000 87.5000 0 -7.0711 0 0 0 0 0 0 0 0 0 3.7574 0 4.2426 0 0 0 3.5355 0 -21.2132 7.0711 0 0 0 -61.1853 8.7330 -15.4301 0 -48.7868 0 10.6066 0 -14.1421 0 0 0 70.5601 -4.7935 -13.3206 0 70.6066 0 0 0 -10.6066 0 0 0 0 0 -2.3223 0 0 32.3223 0 0 7.0711 0 0 0 0 0 0 0 0 -37.6777 0 0 67.6777 0 0 0 0 0 0
0 95.0041 87.9167 0 -6.8835 0 0 0 0 0 0 0 0 0 3.8699 0 4.1301 0 0 0 3.6269 0 -20.6506 7.2537 0 0 0 -61.1231 8.5069 -15.0148 0 -49.3494 0 10.8806 0 -13.7671 0 0 0 70.5308 -4.6686 -12.9657 0 70.8806 0 0 0 -10.8806 0 0 0 0 0 -2.7911 0 0 32.7911 0 0 7.2537 0 0 0 0 0 0 0 0 -37.2089 0 0 67.2089 0 0 0 0 0 0
0 95.0164 88.3333 0 -6.6913 0 0 0 0 0 0 0 0 0 3.9852 0 4.0148 0 0 0 3.7157 0 -20.0739 7.4314 0 0 0 -61.0610 8.2745 -14.5896 0 -49.9261 0 11.1472 0 -13.3826 0 0 0 70.5016 -4.5404 -12.6021 0 71.1472 0 0 0 -11.1472 0 0 0 0 0 -3.2717 0 0 33.2717 0 0 7.4314 0 0 0 0 0 0 0 0 -36.7283 0 0 66.7283 0 0 0 0 0 0
0 95.0369 88.7500 0 -6.4945 0 0 0 0 0 0 0 0 0 4.1033 0 3.8967 0 0 0 3.8020 0 -19.4834 7.6041 0 0 0 -60.9993 8.0362 -14.1547 0 -50.5166 0 11.4061 0 -12.9890 0 0 0 70.4726 -4.4089 -12.2299 0 71.4061 0 0 0 -11.4061 0 0 0 0 0 -3.7638 0 0 33.7638 0 0 7.6041 0 0 0 0 0 0 0 0 -36.2362 0 0 66.2362 0 0 0 0 0 0
0 95.0656 89.1667 0 -6.2932 0 0 0 0 0 0 0 0 0 4.2241 0 3.7759 0 0 0 3.8857 0 -18.8796 7.7715 0 0 0 -60.9382 7.7920 -13.7105 0 -51.1204 0 11.6572 0 -12.5864 0 0 0 70.4438 -4.2742 -11.8495 0 71.6572 0 0 0 -11.6572 0 0 0 0 0 -4.2670 0 0 34.2670 0 0 7.7715 0 0 0 0 0 0 0 0 -35.7330 0 0 65.7330 0 0 0 0 0 0
0 95.1022 89.5833 0 -6.0876 0 0 0 0 0 0 0 0 0 4.3474 0 3.6526 0 0 0 3.9668 0 -18.2628 7.9335 0 0 0 -60.8777 7.5421 -13.2573 0 -51.7372 0 11.9003 0 -12.1752 0 0 0 70.4153 -4.1365 -11.4610 0 71.9003 0 0 0 -11.9003 0 0 0 0 0 -4.7810 0 0 34.7810 0 0 7.9335 0 0 0 0 0 0 0 0 -35.2190 0 0 65.2190 0 0 0 0 0 0
0 95.1468 90.0000 0 -5.8779 0 0 0 0 0 0 0 0 0 4.4733 0 3.5267 0 0 0 4.0451 0 -17.6336 8.0902 0 0 0 -60.8181 7.2867 -12.7954 0 -52.3664 0 12.1353 0 -11.7557 0 0 0 70.3872 -3.9958 -11.0648 0 72.1353 0 0 0 -12.1353 0 0 0 0 0 -5.3054 0 0 35.3054 0 0 8.0902 0 0 0 0 0 0 0 0 -34.6946 0 0 64.6946 0 0 0 0 0 0
0 95.1993 90.4167 0 -5.6641 0 0 0 0 0 0 0 0 0 4.6016 0 3.3984 0 0 0 4.1206 0 -16.9922 8.2413 0 0 0 -60.7596 7.0258 -12.3253 0 -53.0078 0 12.3619 0 -11.3281 0 0 0 70.3596 -3.8522 -10.6611 0 72.3619 0 0 0 -12.3619 0 0 0 0 0 -5.8398 0 0 35.8398 0 0 8.2413 0 0 0 0 0 0 0 0 -34.1602 0 0 64.1602 0 0 0 0 0 0
0 95.2594 90.8333 0 -5.4464 0 0 0 0 0 0 0 0 0 4.7322 0 3.2678 0 0 0 4.1934 0 -16.3392 8.3867 0 0 0 -60.7022 6.7598 -11.8471 0 -53.6608 0 12.5801 0 -10.8928 0 0 0 70.3325 -3.7057 -10.2502 0 72.5801 0 0 0 -12.5801 0 0 0 0 0 -6.3840 0 0 36.3840 0 0 8.3867 0 0 0 0 0 0 0 0 -33.6160 0 0 63.6160 0 0 0 0 0 0
0 95.3270 91.2500 0 -5.2250 0 0 0 0 0 0 0 0 0 4.8650 0 3.1350 0 0 0 4.2632 0 -15.6750 8.5264 0 0 0 -60.6461 6.4887 -11.3613 0 -54.3250 0 12.7896 0 -10.4500 0 0 0 70.3060 -3.5566 -9.8324 0 72.7896 0 0 0 -12.7896 0 0 0 0 0 -6.9375 0 0 36.9375 0 0 8.5264 0 0 0 0 0 0 0 0 -33.0625 0 0 63.0625 0 0 0 0 0 0
0 95.4019 91.6667 0 -5.0000 0 0 0 0 0 0 0 0 0 5.0000 0 3.0000 0 0 0 4.3301 0 -15.0000 8.6603 0 0 0 -60.5916 6.2127 -10.8682 0 -55.0000 0 12.9904 0 -10.0000 0 0 0 70.2803 -3.4049 -9.4080 0 72.9904 0 0 0 -12.9904 0 0 0 0 0 -7.5000 0 0 37.5000 0 0 8.6603 0 0 0 0 0 0 0 0 -32.5000 0 0 62.5000 0 0 0 0 0 0
0 95.4840 92.0833 0 -4.7716 0 0 0 0 0 0 0 0 0 5.1370 0 2.8630 0 0 0 4.3941 0 -14.3148 8.7882 0 0 0 -60.5387 5.9321 -10.3680 0 -55.6852 0 13.1823 0 -9.5432 0 0 0 70.2553 -3.2506 -8.9773 0 73.1823 0 0 0 -13.1823 0 0 0 0 0 -8.0710 0 0 38.0710 0 0 8.7882 0 0 0 0 0 0 0 0 -31.9290 0 0 61.9290 0 0 0 0 0 0
0 95.5729 92.5000 0 -4.5399 0 0 0 0 0 0 0 0 0 5.2761 0 2.7239 0 0 0 4.4550 0 -13.6197 8.9101 0 0 0 -60.4875 5.6470 -9.8613 0 -56.3803 0 13.3651 0 -9.0798 0 0 0 70.2311 -3.0940 -8.5406 0 73.3651 0 0 0 -13.3651 0 0 0 0 0 -8.6502 0 0 38.6502 0 0 8.9101 0 0 0 0 0 0 0 0 -31.3498 0 0 61.3498 0 0 0 0 0 0
0 95.6686 92.9167 0 -4.3051 0 0 0 0 0 0 0 0 0 5.4169 0 2.5831 0 0 0 4.5129 0 -12.9153 9.0259 0 0 0 -60.4384 5.3576 -9.3482 0 -57.0847 0 13.5388 0 -8.6102 0 0 0 70.2078 -2.9351 -8.0981 0 73.5388 0 0 0 -13.5388 0 0 0 0 0 -9.2372 0 0 39.2372 0 0 9.0259 0 0 0 0 0 0 0 0 -30.7628 0 0 60.7628 0 0 0 0 0 0
0 95.7706 93.3333 0 -4.0674 0 0 0 0 0 0 0 0 0 5.5596 0 2.4404 0 0 0 4.5677 0 -12.2021 9.1355 0 0 0 -60.3912 5.0642 -8.8292 0 -57.7979 0 13.7032 0 -8.1347 0 0 0 70.1855 -2.7740 -7.6501 0 73.7032 0 0 0 -13.7032 0 0 0 0 0 -9.8316 0 0 39.8316 0 0 9.1355 0 0 0 0 0 0 0 0 -30.1684 0 0 60.1684 0 0 0 0 0 0
0 95.8787 93.7500 0 -3.8268 0 0 0 0 0 0 0 0 0 5.7039 0 2.2961 0 0 0 4.6194 0 -11.4805 9.2388 0 0 0 -60.3463 4.7668 -8.3046 0 -58.5195 0 13.8582 0 -7.6537 0 0 0 70.1642 -2.6108 -7.1971 0 73.8582 0 0 0 -13.8582 0 0 0 0 0 -10.4329 0 0 40.4329 0 0 9.2388 0 0 0 0 0 0 0 0 -29.5671 0 0 59.5671 0 0 0 0 0 0
0 95.9926 94.1667 0 -3.5837 0 0 0 0 0 0 0 0 0 5.8498 0 2.1502 0 0 0 4.6679 0 -10.7510 9.3358 0 0 0 -60.3036 4.4659 -7.7747 0 -59.2490 0 14.0037 0 -7.1674 0 0 0 70.1440 -2.4457 -6.7392 0 74.0037 0 0 0 -14.0037 0 0 0 0 0 -11.0408 0 0 41.0408 0 0 9.3358 0 0 0 0 0 0 0 0 -28.9592 0 0 58.9592 0 0 0 0 0 0
0 96.1120 94.5833 0 -3.3381 0 0 0 0 0 0 0 0 0 5.9972 0 2.0028 0 0 0 4.7132 0 -10.0142 9.4264 0 0 0 -60.2634 4.1615 -7.2399 0 -59.9858 0 14.1396 0 -6.6761 0 0 0 70.1250 -2.2788 -6.2768 0 74.1396 0 0 0 -14.1396 0 0 0 0 0 -11.6548 0 0 41.6548 0 0 9.4264 0 0 0 0 0 0 0 0 -28.3452 0 0 58.3452 0 0 0 0 0 0
0 96.2366 95.0000 0 -3.0902 0 0 0 0 0 0 0 0 0 6.1459 0 1.8541 0 0 0 4.7553 0 -9.2705 9.5106 0 0 0 -60.2257 3.8539 -6.7005 0 -60.7295 0 14.2658 0 -6.1803 0 0 0 70.1071 -2.1102 -5.8103 0 74.2658 0 0 0 -14.2658 0 0 0 0 0 -12.2746 0 0 42.2746 0 0 9.5106 0 0 0 0 0 0 0 0 -27.7254 0 0 57.7254 0 0 0 0 0 0
0 96.3661 95.4167 0 -2.8402 0 0 0 0 0 0 0 0 0 6.2959 0 1.7041 0 0 0 4.7941 0 -8.5205 9.5882 0 0 0 -60.1906 3.5434 -6.1570 0 -61.4795 0 14.3823 0 -5.6803 0 0 0 70.0905 -1.9400 -5.3398 0 74.3823 0 0 0 -14.3823 0 0 0 0 0 -12.8996 0 0 42.8996 0 0 9.5882 0 0 0 0 0 0 0 0 -27.1004 0 0 57.1004 0 0 0 0 0 0
0 96.5000 95.8333 0 -2.5882 0 0 0 0 0 0 0 0 0 6.4471 0 1.5529 0 0 0 4.8296 0 -7.7646 9.6593 0 0 0 -60.1583 3.2301 -5.6095 0 -62.2354 0 14.4889 0 -5.1764 0 0 0 70.0751 -1.7683 -4.8658 0 74.4889 0 0 0 -14.4889 0 0 0 0 0 -13.5295 0 0 43.5295 0 0 9.6593 0 0 0 0 0 0 0 0 -26.4705 0 0 56.4705 0 0 0 0 0 0
0 96.6380 96.2500 0 -2.3345 0 0 0 0 0 0 0 0 0 6.5993 0 1.4007 0 0 0 4.8618 0 -7.0034 9.7237 0 0 0 -60.1288 2.9143 -5.0586 0 -62.9966 0 14.5855 0 -4.6689 0 0 0 70.0611 -1.5953 -4.3885 0 74.5855 0 0 0 -14.5855 0 0 0 0 0 -14.1639 0 0 44.1639 0 0 9.7237 0 0 0 0 0 0 0 0 -25.8361 0 0 55.8361 0 0 0 0 0 0
0 96.7798 96.6667 0 -2.0791 0 0 0 0 0 0 0 0 0 6.7525 0 1.2475 0 0 0 4.8907 0 -6.2374 9.7815 0 0 0 -60.1021 2.5962 -4.5045 0 -63.7626 0 14.6722 0 -4.1582 0 0 0 70.0485 -1.4211 -3.9083 0 74.6722 0 0 0 -14.6722 0 0 0 0 0 -14.8022 0 0 44.8022 0 0 9.7815 0 0 0 0 0 0 0 0 -25.1978 0 0 55.1978 0 0 0 0 0 0
0 96.9249 97.0833 0 -1.8224 0 0 0 0 0 0 0 0 0 6.9066 0 1.0934 0 0 0 4.9163 0 -5.4671 9.8325 0 0 0 -60.0785 2.2761 -3.9476 0 -64.5329 0 14.7488 0 -3.6447 0 0 0 70.0373 -1.2458 -3.4254 0 74.7488 0 0 0 -14.7488 0 0 0 0 0 -15.4441 0 0 45.4441 0 0 9.8325 0 0 0 0 0 0 0 0 -24.5559 0 0 54.5559 0 0 0 0 0 0
0 97.0729 97.5000 0 -1.5643 0 0 0 0 0 0 0 0 0 7.0614 0 0.9386 0 0 0 4.9384 0 -4.6930 9.8769 0 0 0 -60.0578 1.9543 -3.3882 0 -65.3070 0 14.8153 0 -3.1287 0 0 0 70.0275 -1.0696 -2.9403 0 74.8153 0 0 0 -14.8153 0 0 0 0 0 -16.0891 0 0 46.0891 0 0 9.8769 0 0 0 0 0 0 0 0 -23.9109 0 0 53.9109 0 0 0 0 0 0
0 97.2235 97.9167 0 -1.3053 0 0 0 0 0 0 0 0 0 7.2168 0 0.7832 0 0 0 4.9572 0 -3.9158 9.9144 0 0 0 -60.0402 1.6309 -2.8267 0 -66.0842 0 14.8717 0 -2.6105 0 0 0 70.0191 -0.8926 -2.4533 0 74.8717 0 0 0 -14.8717 0 0 0 0 0 -16.7368 0 0 46.7368 0 0 9.9144 0 0 0 0 0 0 0 0 -23.2632 0 0 53.2632 0 0 0 0 0 0
0 97.3763 98.3333 0 -1.0453 0 0 0 0 0 0 0 0 0 7.3728 0 0.6272 0 0 0 4.9726 0 -3.1359 9.9452 0 0 0 -60.0258 1.3063 -2.2635 0 -66.8641 0 14.9178 0 -2.0906 0 0 0 70.0123 -0.7149 -1.9646 0 74.9178 0 0 0 -14.9178 0 0 0 0 0 -17.3868 0 0 47.3868 0 0 9.9452 0 0 0 0 0 0 0 0 -22.6132 0 0 52.6132 0 0 0 0 0 0
0 97.5307 98.7500 0 -0.7846 0 0 0 0 0 0 0 0 0 7.5292 0 0.4708 0 0 0 4.9846 0 -2.3538 9.9692 0 0 0 -60.0145 0.9806 -1.6989 0 -67.6462 0 14.9538 0 -1.5692 0 0 0 70.0069 -0.5366 -1.4746 0 74.9538 0 0 0 -14.9538 0 0 0 0 0 -18.0385 0 0 48.0385 0 0 9.9692 0 0 0 0 0 0 0 0 -21.9615 0 0 51.9615 0 0 0 0 0 0
0 97.6864 99.1667 0 -0.5234 0 0 0 0 0 0 0 0 0 7.6860 0 0.3140 0 0 0 4.9931 0 -1.5701 9.9863 0 0 0 -60.0065 0.6542 -1.1332 0 -68.4299 0 14.9794 0 -1.0467 0 0 0 70.0031 -0.3580 -0.9836 0 74.9794 0 0 0 -14.9794 0 0 0 0 0 -18.6916 0 0 48.6916 0 0 9.9863 0 0 0 0 0 0 0 0 -21.3084 0 0 51.3084 0 0 0 0 0 0
0 97.8430 99.5833 0 -0.2618 0 0 0 0 0 0 0 0 0 7.8429 0 0.1571 0 0 0 4.9983 0 -0.7853 9.9966 0 0 0 -60.0016 0.3272 -0.5668 0 -69.2147 0 14.9949 0 -0.5235 0 0 0 70.0008 -0.1791 -0.4920 0 74.9949 0 0 0 -14.9949 0 0 0 0 0 -19.3456 0 0 49.3456 0 0 9.9966 0 0 0 0 0 0 0 0 -20.6544 0 0 50.6544 0 0 0 0 0 0
0 98.0000 100.0000 0 0 0 0 0 0 0 0 0 0 0 8.0000 0 0 0 0 0 5.0000 0 0 10.0000 0 0 0 -60.0000 0 0 0 -70.0000 0 15.0000 0 0 0 0 0 70.0000 0 0 0 75.0000 0 0 0 -15.0000 0 0 0 0 0 -20.0000 0 0 50.0000 0 0 10.0000 0 0 0 0 0 0 0 0 -20.0000 0 0 50.0000 0 0 0 0 0 0
