HIERARCHY
ROOT mixamorig:Hips
{
  OFFSET 0 98.0000 0
  CHANNELS 6 Xposition Yposition Zposition Zrotation Xrotation Yrotation
  JOINT mixamorig:Spine
  {
    OFFSET 0 8.0000 0
    CHANNELS 3 Zrotation Xrotation Yrotation
    JOINT mixamorig:Spine1
    {
      OFFSET 0 12.0000 0
      CHANNELS 3 Zrotation Xrotation Yrotation
      JOINT mixamorig:Spine2
      {
        OFFSET 0 12.0000 0
        CHANNELS 3 Zrotation Xrotation Yrotation
        JOINT mixamorig:Neck
        {
          OFFSET 0 16.0000 0
          CHANNELS 3 Zrotation Xrotation Yrotation
          JOINT mixamorig:Head
          {
            OFFSET 0 9.0000 1.0000
            CHANNELS 3 Zrotation Xrotation Yrotation
            End Site
            {
              OFFSET 0 18.0000 0
            }
          }
        }
        JOINT mixamorig:LeftShoulder
        {
          OFFSET 3.0000 12.0000 0
          CHANNELS 3 Zrotation Xrotation Yrotation
          JOINT mixamorig:LeftArm
          {
            OFFSET 13.0000 0 0
            CHANNELS 3 Zrotation Xrotation Yrotation
            JOINT mixamorig:LeftForeArm
            {
              OFFSET 27.0000 0 0
              CHANNELS 3 Zrotation Xrotation Yrotation
              JOINT mixamorig:LeftHand
              {
                OFFSET 25.0000 0 0
                CHANNELS 3 Zrotation Xrotation Yrotation
                JOINT mixamorig:LeftHandThumb1
                {
                  OFFSET 2.5000 -1.0000 3.0000
                  CHANNELS 3 Zrotation Xrotation Yrotation
                  JOINT mixamorig:LeftHandThumb2
                  {
                    OFFSET 3.0000 0 2.0000
                    CHANNELS 3 Zrotation Xrotation Yrotation
                    JOINT mixamorig:LeftHandThumb3
                    {
                      OFFSET 2.5000 0 1.5000
                      CHANNELS 3 Zrotation Xrotation Yrotation
                      JOINT mixamorig:LeftHandThumb4
                      {
                        OFFSET 2.0000 0 1.0000
                        CHANNELS 3 Zrotation Xrotation Yrotation
                        End Site
                        {
                          OFFSET 0.6000 0 0
                        }
                      }
                    }
                  }
                }
                JOINT mixamorig:LeftHandIndex1
                {
                  OFFSET 9.0000 0 2.5000
                  CHANNELS 3 Zrotation Xrotation Yrotation
                  JOINT mixamorig:LeftHandIndex2
                  {
                    OFFSET 4.0000 0 0
                    CHANNELS 3 Zrotation Xrotation Yrotation
                    JOINT mixamorig:LeftHandIndex3
                    {
                      OFFSET 2.5000 0 0
                      CHANNELS 3 Zrotation Xrotation Yrotation
                      JOINT mixamorig:LeftHandIndex4
                      {
                        OFFSET 2.0000 0 0
                        CHANNELS 3 Zrotation Xrotation Yrotation
                        End Site
                        {
                          OFFSET 0.6000 0 0
                        }
                      }
                    }
                  }
                }
                JOINT mixamorig:LeftHandMiddle1
                {
                  OFFSET 9.5000 0 0.8000
                  CHANNELS 3 Zrotation Xrotation Yrotation
                  JOINT mixamorig:LeftHandMiddle2
                  {
                    OFFSET 4.5000 0 0
                    CHANNELS 3 Zrotation Xrotation Yrotation
                    JOINT mixamorig:LeftHandMiddle3
                    {
                      OFFSET 2.8000 0 0
                      CHANNELS 3 Zrotation Xrotation Yrotation
                      JOINT mixamorig:LeftHandMiddle4
                      {
                        OFFSET 2.1000 0 0
                        CHANNELS 3 Zrotation Xrotation Yrotation
                        End Site
                        {
                          OFFSET 0.6000 0 0
                        }
                      }
                    }
                  }
                }
                JOINT mixamorig:LeftHandRing1
                {
                  OFFSET 9.0000 0 -0.9000
                  CHANNELS 3 Zrotation Xrotation Yrotation
                  JOINT mixamorig:LeftHandRing2
                  {
                    OFFSET 4.2000 0 0
                    CHANNELS 3 Zrotation Xrotation Yrotation
                    JOINT mixamorig:LeftHandRing3
                    {
                      OFFSET 2.6000 0 0
                      CHANNELS 3 Zrotation Xrotation Yrotation
                      JOINT mixamorig:LeftHandRing4
                      {
                        OFFSET 2.0000 0 0
                        CHANNELS 3 Zrotation Xrotation Yrotation
                        End Site
                        {
                          OFFSET 0.6000 0 0
                        }
                      }
                    }
                  }
                }
                JOINT mixamorig:LeftHandPinky1
                {
                  OFFSET 8.0000 0 -2.5000
                  CHANNELS 3 Zrotation Xrotation Yrotation
                  JOINT mixamorig:LeftHandPinky2
                  {
                    OFFSET 3.3000 0 0
                    CHANNELS 3 Zrotation Xrotation Yrotation
                    JOINT mixamorig:LeftHandPinky3
                    {
                      OFFSET 2.0000 0 0
                      CHANNELS 3 Zrotation Xrotation Yrotation
                      JOINT mixamorig:LeftHandPinky4
                      {
                        OFFSET 1.7000 0 0
                        CHANNELS 3 Zrotation Xrotation Yrotation
                        End Site
                        {
                          OFFSET 0.6000 0 0
                        }
                      }
                    }
                  }
                }
                End Site
                {
                  OFFSET 8.0000 0 0
                }
              }
            }
          }
        }
        JOINT mixamorig:RightShoulder
        {
          OFFSET -3.0000 12.0000 0
          CHANNELS 3 Zrotation Xrotation Yrotation
          JOINT mixamorig:RightArm
          {
            OFFSET -13.0000 0 0
            CHANNELS 3 Zrotation Xrotation Yrotation
            JOINT mixamorig:RightForeArm
            {
              OFFSET -27.0000 0 0
              CHANNELS 3 Zrotation Xrotation Yrotation
              JOINT mixamorig:RightHand
              {
                OFFSET -25.0000 0 0
                CHANNELS 3 Zrotation Xrotation Yrotation
                JOINT mixamorig:RightHandThumb1
                {
                  OFFSET -2.5000 -1.0000 3.0000
                  CHANNELS 3 Zrotation Xrotation Yrotation
                  JOINT mixamorig:RightHandThumb2
                  {
                    OFFSET -3.0000 0 2.0000
                    CHANNELS 3 Zrotation Xrotation Yrotation
                    JOINT mixamorig:RightHandThumb3
                    {
                      OFFSET -2.5000 0 1.5000
                      CHANNELS 3 Zrotation Xrotation Yrotation
                      JOINT mixamorig:RightHandThumb4
                      {
                        OFFSET -2.0000 0 1.0000
                        CHANNELS 3 Zrotation Xrotation Yrotation
                        End Site
                        {
                          OFFSET -0.6000 0 0
                        }
                      }
                    }
                  }
                }
                JOINT mixamorig:RightHandIndex1
                {
                  OFFSET -9.0000 0 2.5000
                  CHANNELS 3 Zrotation Xrotation Yrotation
                  JOINT mixamorig:RightHandIndex2
                  {
                    OFFSET -4.0000 0 0
                    CHANNELS 3 Zrotation Xrotation Yrotation
                    JOINT mixamorig:RightHandIndex3
                    {
                      OFFSET -2.5000 0 0
                      CHANNELS 3 Zrotation Xrotation Yrotation
                      JOINT mixamorig:RightHandIndex4
                      {
                        OFFSET -2.0000 0 0
                        CHANNELS 3 Zrotation Xrotation Yrotation
                        End Site
                        {
                          OFFSET -0.6000 0 0
                        }
                      }
                    }
                  }
                }
                JOINT mixamorig:RightHandMiddle1
                {
                  OFFSET -9.5000 0 0.8000
                  CHANNELS 3 Zrotation Xrotation Yrotation
                  JOINT mixamorig:RightHandMiddle2
                  {
                    OFFSET -4.5000 0 0
                    CHANNELS 3 Zrotation Xrotation Yrotation
                    JOINT mixamorig:RightHandMiddle3
                    {
                      OFFSET -2.8000 0 0
                      CHANNELS 3 Zrotation Xrotation Yrotation
                      JOINT mixamorig:RightHandMiddle4
                      {
                        OFFSET -2.1000 0 0
                        CHANNELS 3 Zrotation Xrotation Yrotation
                        End Site
                        {
                          OFFSET -0.6000 0 0
                        }
                      }
                    }
                  }
                }
                JOINT mixamorig:RightHandRing1
                {
                  OFFSET -9.0000 0 -0.9000
                  CHANNELS 3 Zrotation Xrotation Yrotation
                  JOINT mixamorig:RightHandRing2
                  {
                    OFFSET -4.2000 0 0
                    CHANNELS 3 Zrotation Xrotation Yrotation
                    JOINT mixamorig:RightHandRing3
                    {
                      OFFSET -2.6000 0 0
                      CHANNELS 3 Zrotation Xrotation Yrotation
                      JOINT mixamorig:RightHandRing4
                      {
                        OFFSET -2.0000 0 0
                        CHANNELS 3 Zrotation Xrotation Yrotation
                        End Site
                        {
                          OFFSET -0.6000 0 0
                        }
                      }
                    }
                  }
                }
                JOINT mixamorig:RightHandPinky1
                {
                  OFFSET -8.0000 0 -2.5000
                  CHANNELS 3 Zrotation Xrotation Yrotation
                  JOINT mixamorig:RightHandPinky2
                  {
                    OFFSET -3.3000 0 0
                    CHANNELS 3 Zrotation Xrotation Yrotation
                    JOINT mixamorig:RightHandPinky3
                    {
                      OFFSET -2.0000 0 0
                      CHANNELS 3 Zrotation Xrotation Yrotation
                      JOINT mixamorig:RightHandPinky4
                      {
                        OFFSET -1.7000 0 0
                        CHANNELS 3 Zrotation Xrotation Yrotation
                        End Site
                        {
                          OFFSET -0.6000 0 0
                        }
                      }
                    }
                  }
                }
                End Site
                {
                  OFFSET -8.0000 0 0
                }
              }
            }
          }
        }
      }
    }
  }
  JOINT mixamorig:LeftUpLeg
  {
    OFFSET 9.0000 -6.0000 0
    CHANNELS 3 Zrotation Xrotation Yrotation
    JOINT mixamorig:LeftLeg
    {
      OFFSET 0 -43.0000 0
      CHANNELS 3 Zrotation Xrotation Yrotation
      JOINT mixamorig:LeftFoot
      {
        OFFSET 0 -41.0000 0
        CHANNELS 3 Zrotation Xrotation Yrotation
        JOINT mixamorig:LeftToeBase
        {
          OFFSET 0 -7.0000 12.0000
          CHANNELS 3 Zrotation Xrotation Yrotation
          End Site
          {
            OFFSET 0 0 5.0000
          }
        }
      }
    }
  }
  JOINT mixamorig:RightUpLeg
  {
    OFFSET -9.0000 -6.0000 0
    CHANNELS 3 Zrotation Xrotation Yrotation
    JOINT mixamorig:RightLeg
    {
      OFFSET 0 -43.0000 0
      CHANNELS 3 Zrotation Xrotation Yrotation
      JOINT mixamorig:RightFoot
      {
        OFFSET 0 -41.0000 0
        CHANNELS 3 Zrotation Xrotation Yrotation
        JOINT mixamorig:RightToeBase
        {
          OFFSET 0 -7.0000 12.0000
          CHANNELS 3 Zrotation Xrotation Yrotation
          End Site
          {
            OFFSET 0 0 5.0000
          }
        }
      }
    }
  }
}
MOTION
Frames: 121
Frame Time: 0.0166667
0 98.0000 0 0 0 0 0 0 0 0 8.0000 0 0 0 0 0 5.0000 0 0 10.0000 0 0 0 0 -60.0000 0 0 0 0 -70.0000 15.0000 0 0 0 0 0 0 0 0 0 0 0 0 0 0 -30.0000 0 0 -30.0000 0 0 -30.0000 0 0 0 0 0 0 0 0 0 0 0 0 0 0 0 0 0 0 0 0 0 0 0 0 0 0 0 0 0 0 0 0 0 0 0 0 0 0 0 0 0 0 0 0 70.0000 0 0 0 0 75.0000 0 -15.0000 0 0 0 0 0 0 0 0 0 0 0 0 0 0 0 0 0 0 0 0 0 0 0 0 0 0 0 0 0 0 0 0 0 0 0 0 0 0 0 0 0 0 0 0 0 0 0 0 0 0 0 0 0 0 0 0 0 0 0 0 0 0 -20.0000 0 0 50.0000 0 0 10.0000 0 0 0 0 0 -20.0000 0 0 50.0000 0 0 0 0 0 0 0
0 98.3136 0.8333 0 0 0.5234 0 0 0 0 8.3140 0 0 0 -0.3140 0 4.9931 0 -0.2764 9.9825 1.5942 0 0 0 -59.9935 1.1331 -0.6543 0 0 -71.5701 14.9794 1.0467 0 0 0 0 0 0 0 0 0 0 0 0 0 -31.5701 0 0 -31.5701 0 0 -31.5701 0 0 0 0 0 0 0 0 0 0 0 0 0 0 0 0 0 0 0 0 0 0 0 0 0 0 0 0 0 0 0 0 0 0 0 0 0 0 0 0 0 0 0 0 69.9969 0.9836 0.3580 0 0 74.9794 0 -14.9794 0 0 0 0 0 0 0 0 0 0 0 0 0 0 0 0 0 0 0 0 0 0 0 0 0 0 0 0 0 0 0 0 0 0 0 0 0 0 0 0 0 0 0 0 0 0 0 0 0 0 0 0 0 0 0 0 0 0 0 0 0 0 -21.3084 0 0 51.3084 0 0 9.9863 0 0 0 0 0 -18.6916 0 0 48.6916 0 0 0 0 0 0 0
0 98.6237 1.6667 0 0 1.0453 0 0 0 0 8.6272 0 0 0 -0.6272 0 4.9726 0 -0.5496 9.9302 3.1836 0 0 0 -59.9742 2.2629 -1.3073 0 0 -73.1359 14.9178 2.0906 0 0 0 0 0 0 0 0 0 0 0 0 0 -33.1359 0 0 -33.1359 0 0 -33.1359 0 0 0 0 0 0 0 0 0 0 0 0 0 0 0 0 0 0 0 0 0 0 0 0 0 0 0 0 0 0 0 0 0 0 0 0 0 0 0 0 0 0 0 0 69.9877 1.9644 0.7153 0 0 74.9178 0 -14.9178 0 0 0 0 0 0 0 0 0 0 0 0 0 0 0 0 0 0 0 0 0 0 0 0 0 0 0 0 0 0 0 0 0 0 0 0 0 0 0 0 0 0 0 0 0 0 0 0 0 0 0 0 0 0 0 0 0 0 0 0 0 0 -22.6132 0 0 52.6132 0 0 9.9452 0 0 0 0 0 -17.3868 0 0 47.3868 0 0 0 0 0 0 0
0 98.9271 2.5000 0 0 1.5643 0 0 0 0 8.9386 0 0 0 -0.9386 0 4.9384 0 -0.8161 9.8434 4.7633 0 0 0 -59.9421 3.3862 -1.9577 0 0 -74.6930 14.8153 3.1287 0 0 0 0 0 0 0 0 0 0 0 0 0 -34.6930 0 0 -34.6930 0 0 -34.6930 0 0 0 0 0 0 0 0 0 0 0 0 0 0 0 0 0 0 0 0 0 0 0 0 0 0 0 0 0 0 0 0 0 0 0 0 0 0 0 0 0 0 0 0 69.9725 2.9398 1.0710 0 0 74.8153 0 -14.8153 0 0 0 0 0 0 0 0 0 0 0 0 0 0 0 0 0 0 0 0 0 0 0 0 0 0 0 0 0 0 0 0 0 0 0 0 0 0 0 0 0 0 0 0 0 0 0 0 0 0 0 0 0 0 0 0 0 0 0 0 0 0 -23.9109 0 0 53.9109 0 0 9.8769 0 0 0 0 0 -16.0891 0 0 46.0891 0 0 0 0 0 0 0
0 99.2202 3.3333 0 0 2.0791 0 0 0 0 9.2475 0 0 0 -1.2475 0 4.8907 0 -1.0731 9.7230 6.3286 0 0 0 -59.8977 4.4999 -2.6043 0 0 -76.2374 14.6722 4.1582 0 0 0 0 0 0 0 0 0 0 0 0 0 -36.2374 0 0 -36.2374 0 0 -36.2374 0 0 0 0 0 0 0 0 0 0 0 0 0 0 0 0 0 0 0 0 0 0 0 0 0 0 0 0 0 0 0 0 0 0 0 0 0 0 0 0 0 0 0 0 69.9514 3.9071 1.4244 0 0 74.6722 0 -14.6722 0 0 0 0 0 0 0 0 0 0 0 0 0 0 0 0 0 0 0 0 0 0 0 0 0 0 0 0 0 0 0 0 0 0 0 0 0 0 0 0 0 0 0 0 0 0 0 0 0 0 0 0 0 0 0 0 0 0 0 0 0 0 -25.1978 0 0 55.1978 0 0 9.7815 0 0 0 0 0 -14.8022 0 0 44.8022 0 0 0 0 0 0 0
0 99.5000 4.1667 0 0 2.5882 0 0 0 0 9.5529 0 0 0 -1.5529 0 4.8296 0 -1.3173 9.5699 7.8748 0 0 0 -59.8412 5.6006 -3.2456 0 0 -77.7646 14.4889 5.1764 0 0 0 0 0 0 0 0 0 0 0 0 0 -37.7646 0 0 -37.7646 0 0 -37.7646 0 0 0 0 0 0 0 0 0 0 0 0 0 0 0 0 0 0 0 0 0 0 0 0 0 0 0 0 0 0 0 0 0 0 0 0 0 0 0 0 0 0 0 0 69.9246 4.8634 1.7747 0 0 74.4889 0 -14.4889 0 0 0 0 0 0 0 0 0 0 0 0 0 0 0 0 0 0 0 0 0 0 0 0 0 0 0 0 0 0 0 0 0 0 0 0 0 0 0 0 0 0 0 0 0 0 0 0 0 0 0 0 0 0 0 0 0 0 0 0 0 0 -26.4705 0 0 56.4705 0 0 9.6593 0 0 0 0 0 -13.5295 0 0 43.5295 0 0 0 0 0 0 0
0 99.7634 5.0000 0 0 3.0902 0 0 0 0 9.8541 0 0 0 -1.8541 0 4.7553 0 -1.5460 9.3852 9.3974 0 0 0 -59.7733 6.6853 -3.8803 0 0 -79.2705 14.2658 6.1803 0 0 0 0 0 0 0 0 0 0 0 0 0 -39.2705 0 0 -39.2705 0 0 -39.2705 0 0 0 0 0 0 0 0 0 0 0 0 0 0 0 0 0 0 0 0 0 0 0 0 0 0 0 0 0 0 0 0 0 0 0 0 0 0 0 0 0 0 0 0 69.8924 5.8063 2.1211 0 0 74.2658 0 -14.2658 0 0 0 0 0 0 0 0 0 0 0 0 0 0 0 0 0 0 0 0 0 0 0 0 0 0 0 0 0 0 0 0 0 0 0 0 0 0 0 0 0 0 0 0 0 0 0 0 0 0 0 0 0 0 0 0 0 0 0 0 0 0 -27.7254 0 0 57.7254 0 0 9.5106 0 0 0 0 0 -12.2746 0 0 42.2746 0 0 0 0 0 0 0
0 100.0074 5.8333 0 0 3.5837 0 0 0 0 10.1502 0 0 0 -2.1502 0 4.6679 0 -1.7565 9.1705 10.8919 0 0 0 -59.6945 7.7509 -4.5071 0 0 -80.7510 14.0037 7.1674 0 0 0 0 0 0 0 0 0 0 0 0 0 -40.7510 0 0 -40.7510 0 0 -40.7510 0 0 0 0 0 0 0 0 0 0 0 0 0 0 0 0 0 0 0 0 0 0 0 0 0 0 0 0 0 0 0 0 0 0 0 0 0 0 0 0 0 0 0 0 69.8551 6.7330 2.4627 0 0 74.0037 0 -14.0037 0 0 0 0 0 0 0 0 0 0 0 0 0 0 0 0 0 0 0 0 0 0 0 0 0 0 0 0 0 0 0 0 0 0 0 0 0 0 0 0 0 0 0 0 0 0 0 0 0 0 0 0 0 0 0 0 0 0 0 0 0 0 -28.9592 0 0 58.9592 0 0 9.3358 0 0 0 0 0 -11.0408 0 0 41.0408 0 0 0 0 0 0 0
0 100.2294 6.6667 0 0 4.0674 0 0 0 0 10.4404 0 0 0 -2.4404 0 4.5677 0 -1.9467 8.9274 12.3541 0 0 0 -59.6057 8.7944 -5.1246 0 0 -82.2021 13.7032 8.1347 0 0 0 0 0 0 0 0 0 0 0 0 0 -42.2021 0 0 -42.2021 0 0 -42.2021 0 0 0 0 0 0 0 0 0 0 0 0 0 0 0 0 0 0 0 0 0 0 0 0 0 0 0 0 0 0 0 0 0 0 0 0 0 0 0 0 0 0 0 0 69.8131 7.6411 2.7989 0 0 73.7032 0 -13.7032 0 0 0 0 0 0 0 0 0 0 0 0 0 0 0 0 0 0 0 0 0 0 0 0 0 0 0 0 0 0 0 0 0 0 0 0 0 0 0 0 0 0 0 0 0 0 0 0 0 0 0 0 0 0 0 0 0 0 0 0 0 0 -30.1684 0 0 60.1684 0 0 9.1355 0 0 0 0 0 -9.8316 0 0 39.8316 0 0 0 0 0 0 0
0 100.4271 7.5000 0 0 4.5399 0 0 0 0 10.7239 0 0 0 -2.7239 0 4.4550 0 -2.1142 8.6576 13.7798 0 0 0 -59.5076 9.8129 -5.7311 0 0 -83.6197 13.3651 9.0798 0 0 0 0 0 0 0 0 0 0 0 0 0 -43.6197 0 0 -43.6197 0 0 -43.6197 0 0 0 0 0 0 0 0 0 0 0 0 0 0 0 0 0 0 0 0 0 0 0 0 0 0 0 0 0 0 0 0 0 0 0 0 0 0 0 0 0 0 0 0 69.7667 8.5280 3.1286 0 0 73.3651 0 -13.3651 0 0 0 0 0 0 0 0 0 0 0 0 0 0 0 0 0 0 0 0 0 0 0 0 0 0 0 0 0 0 0 0 0 0 0 0 0 0 0 0 0 0 0 0 0 0 0 0 0 0 0 0 0 0 0 0 0 0 0 0 0 0 -31.3498 0 0 61.3498 0 0 8.9101 0 0 0 0 0 -8.6502 0 0 38.6502 0 0 0 0 0 0 0
0 100.5981 8.3333 0 0 5.0000 0 0 0 0 11.0000 0 0 0 -3.0000 0 4.3301 0 -2.2575 8.3630 15.1651 0 0 0 -59.4013 10.8036 -6.3253 0 0 -85.0000 12.9904 10.0000 0 0 0 0 0 0 0 0 0 0 0 0 0 -45.0000 0 0 -45.0000 0 0 -45.0000 0 0 0 0 0 0 0 0 0 0 0 0 0 0 0 0 0 0 0 0 0 0 0 0 0 0 0 0 0 0 0 0 0 0 0 0 0 0 0 0 0 0 0 0 69.7164 9.3913 3.4512 0 0 72.9904 0 -12.9904 0 0 0 0 0 0 0 0 0 0 0 0 0 0 0 0 0 0 0 0 0 0 0 0 0 0 0 0 0 0 0 0 0 0 0 0 0 0 0 0 0 0 0 0 0 0 0 0 0 0 0 0 0 0 0 0 0 0 0 0 0 0 -32.5000 0 0 62.5000 0 0 8.6603 0 0 0 0 0 -7.5000 0 0 37.5000 0 0 0 0 0 0 0
0 100.7406 9.1667 0 0 5.4464 0 0 0 0 11.2678 0 0 0 -3.2678 0 4.1934 0 -2.3750 8.0457 16.5062 0 0 0 -59.2878 11.7636 -6.9055 0 0 -86.3392 12.5801 10.8928 0 0 0 0 0 0 0 0 0 0 0 0 0 -46.3392 0 0 -46.3392 0 0 -46.3392 0 0 0 0 0 0 0 0 0 0 0 0 0 0 0 0 0 0 0 0 0 0 0 0 0 0 0 0 0 0 0 0 0 0 0 0 0 0 0 0 0 0 0 0 69.6629 10.2286 3.7657 0 0 72.5801 0 -12.5801 0 0 0 0 0 0 0 0 0 0 0 0 0 0 0 0 0 0 0 0 0 0 0 0 0 0 0 0 0 0 0 0 0 0 0 0 0 0 0 0 0 0 0 0 0 0 0 0 0 0 0 0 0 0 0 0 0 0 0 0 0 0 -33.6160 0 0 63.6160 0 0 8.3867 0 0 0 0 0 -6.3840 0 0 36.3840 0 0 0 0 0 0 0
0 100.8532 10.0000 0 0 5.8779 0 0 0 0 11.5267 0 0 0 -3.5267 0 4.0451 0 -2.4656 7.7077 17.7997 0 0 0 -59.1682 12.6904 -7.4701 0 0 -87.6336 12.1353 11.7557 0 0 0 0 0 0 0 0 0 0 0 0 0 -47.6336 0 0 -47.6336 0 0 -47.6336 0 0 0 0 0 0 0 0 0 0 0 0 0 0 0 0 0 0 0 0 0 0 0 0 0 0 0 0 0 0 0 0 0 0 0 0 0 0 0 0 0 0 0 0 69.6065 11.0375 4.0712 0 0 72.1353 0 -12.1353 0 0 0 0 0 0 0 0 0 0 0 0 0 0 0 0 0 0 0 0 0 0 0 0 0 0 0 0 0 0 0 0 0 0 0 0 0 0 0 0 0 0 0 0 0 0 0 0 0 0 0 0 0 0 0 0 0 0 0 0 0 0 -34.6946 0 0 64.6946 0 0 8.0902 0 0 0 0 0 -5.3054 0 0 35.3054 0 0 0 0 0 0 0
0 100.9344 10.8333 0 0 6.2932 0 0 0 0 11.7759 0 0 0 -3.7759 0 3.8857 0 -2.5286 7.3510 19.0421 0 0 0 -59.0437 13.5814 -8.0176 0 0 -88.8796 11.6572 12.5864 0 0 0 0 0 0 0 0 0 0 0 0 0 -48.8796 0 0 -48.8796 0 0 -48.8796 0 0 0 0 0 0 0 0 0 0 0 0 0 0 0 0 0 0 0 0 0 0 0 0 0 0 0 0 0 0 0 0 0 0 0 0 0 0 0 0 0 0 0 0 69.5479 11.8160 4.3669 0 0 71.6572 0 -11.6572 0 0 0 0 0 0 0 0 0 0 0 0 0 0 0 0 0 0 0 0 0 0 0 0 0 0 0 0 0 0 0 0 0 0 0 0 0 0 0 0 0 0 0 0 0 0 0 0 0 0 0 0 0 0 0 0 0 0 0 0 0 0 -35.7330 0 0 65.7330 0 0 7.7715 0 0 0 0 0 -4.2670 0 0 34.2670 0 0 0 0 0 0 0
0 100.9836 11.6667 0 0 6.6913 0 0 0 0 12.0148 0 0 0 -4.0148 0 3.7157 0 -2.5634 6.9777 20.2302 0 0 0 -58.9158 14.4344 -8.5462 0 0 -90.0739 11.1472 13.3826 0 0 0 0 0 0 0 0 0 0 0 0 0 -50.0739 0 0 -50.0739 0 0 -50.0739 0 0 0 0 0 0 0 0 0 0 0 0 0 0 0 0 0 0 0 0 0 0 0 0 0 0 0 0 0 0 0 0 0 0 0 0 0 0 0 0 0 0 0 0 69.4877 12.5619 4.6520 0 0 71.1472 0 -11.1472 0 0 0 0 0 0 0 0 0 0 0 0 0 0 0 0 0 0 0 0 0 0 0 0 0 0 0 0 0 0 0 0 0 0 0 0 0 0 0 0 0 0 0 0 0 0 0 0 0 0 0 0 0 0 0 0 0 0 0 0 0 0 -36.7283 0 0 66.7283 0 0 7.4314 0 0 0 0 0 -3.2717 0 0 33.2717 0 0 0 0 0 0 0
0 101.0000 12.5000 0 0 7.0711 0 0 0 0 12.2426 0 0 0 -4.2426 0 3.5355 0 -2.5699 6.5897 21.3612 0 0 0 -58.7856 15.2469 -9.0543 0 0 -91.2132 10.6066 14.1421 0 0 0 0 0 0 0 0 0 0 0 0 0 -51.2132 0 0 -51.2132 0 0 -51.2132 0 0 0 0 0 0 0 0 0 0 0 0 0 0 0 0 0 0 0 0 0 0 0 0 0 0 0 0 0 0 0 0 0 0 0 0 0 0 0 0 0 0 0 0 69.4266 13.2731 4.9254 0 0 70.6066 0 -10.6066 0 0 0 0 0 0 0 0 0 0 0 0 0 0 0 0 0 0 0 0 0 0 0 0 0 0 0 0 0 0 0 0 0 0 0 0 0 0 0 0 0 0 0 0 0 0 0 0 0 0 0 0 0 0 0 0 0 0 0 0 0 0 -37.6777 0 0 67.6777 0 0 7.0711 0 0 0 0 0 -2.3223 0 0 32.3223 0 0 0 0 0 0 0
0 100.9836 13.3333 0 0 7.4314 0 0 0 0 12.4589 0 0 0 -4.4589 0 3.3457 0 -2.5484 6.1891 22.4321 0 0 0 -58.6548 16.0169 -9.5400 0 0 -92.2943 10.0370 14.8629 0 0 0 0 0 0 0 0 0 0 0 0 0 -52.2943 0 0 -52.2943 0 0 -52.2943 0 0 0 0 0 0 0 0 0 0 0 0 0 0 0 0 0 0 0 0 0 0 0 0 0 0 0 0 0 0 0 0 0 0 0 0 0 0 0 0 0 0 0 0 69.3652 13.9478 5.1864 0 0 70.0370 0 -10.0370 0 0 0 0 0 0 0 0 0 0 0 0 0 0 0 0 0 0 0 0 0 0 0 0 0 0 0 0 0 0 0 0 0 0 0 0 0 0 0 0 0 0 0 0 0 0 0 0 0 0 0 0 0 0 0 0 0 0 0 0 0 0 -38.5786 0 0 68.5786 0 0 6.6913 0 0 0 0 0 -1.4214 0 0 31.4214 0 0 0 0 0 0 0
0 100.9344 14.1667 0 0 7.7715 0 0 0 0 12.6629 0 0 0 -4.6629 0 3.1466 0 -2.4992 5.7775 23.4405 0 0 0 -58.5245 16.7423 -10.0018 0 0 -93.3144 9.4398 15.5429 0 0 0 0 0 0 0 0 0 0 0 0 0 -53.3144 0 0 -53.3144 0 0 -53.3144 0 0 0 0 0 0 0 0 0 0 0 0 0 0 0 0 0 0 0 0 0 0 0 0 0 0 0 0 0 0 0 0 0 0 0 0 0 0 0 0 0 0 0 0 69.3041 14.5841 5.4340 0 0 69.4398 0 -9.4398 0 0 0 0 0 0 0 0 0 0 0 0 0 0 0 0 0 0 0 0 0 0 0 0 0 0 0 0 0 0 0 0 0 0 0 0 0 0 0 0 0 0 0 0 0 0 0 0 0 0 0 0 0 0 0 0 0 0 0 0 0 0 -39.4286 0 0 69.4286 0 0 6.2932 0 0 0 0 0 -0.5714 0 0 30.5714 0 0 0 0 0 0 0
0 100.8532 15.0000 0 0 8.0902 0 0 0 0 12.8541 0 0 0 -4.8541 0 2.9389 0 -2.4231 5.3567 24.3839 0 0 0 -58.3965 17.4214 -10.4378 0 0 -94.2705 8.8168 16.1803 0 0 0 0 0 0 0 0 0 0 0 0 0 -54.2705 0 0 -54.2705 0 0 -54.2705 0 0 0 0 0 0 0 0 0 0 0 0 0 0 0 0 0 0 0 0 0 0 0 0 0 0 0 0 0 0 0 0 0 0 0 0 0 0 0 0 0 0 0 0 69.2442 15.1802 5.6674 0 0 68.8168 0 -8.8168 0 0 0 0 0 0 0 0 0 0 0 0 0 0 0 0 0 0 0 0 0 0 0 0 0 0 0 0 0 0 0 0 0 0 0 0 0 0 0 0 0 0 0 0 0 0 0 0 0 0 0 0 0 0 0 0 0 0 0 0 0 0 -40.2254 0 0 70.2254 0 0 5.8779 0 0 0 0 0 0.2254 0 0 29.7746 0 0 0 0 0 0 0
0 100.7406 15.8333 0 0 8.3867 0 0 0 0 13.0320 0 0 0 -5.0320 0 2.7232 0 -2.3213 4.9283 25.2600 0 0 0 -58.2720 18.0524 -10.8464 0 0 -95.1601 8.1696 16.7734 0 0 0 0 0 0 0 0 0 0 0 0 0 -55.1601 0 0 -55.1601 0 0 -55.1601 0 0 0 0 0 0 0 0 0 0 0 0 0 0 0 0 0 0 0 0 0 0 0 0 0 0 0 0 0 0 0 0 0 0 0 0 0 0 0 0 0 0 0 0 69.1860 15.7347 5.8858 0 0 68.1696 0 -8.1696 0 0 0 0 0 0 0 0 0 0 0 0 0 0 0 0 0 0 0 0 0 0 0 0 0 0 0 0 0 0 0 0 0 0 0 0 0 0 0 0 0 0 0 0 0 0 0 0 0 0 0 0 0 0 0 0 0 0 0 0 0 0 -40.9668 0 0 70.9668 0 0 5.4464 0 0 0 0 0 0.9668 0 0 29.0332 0 0 0 0 0 0 0
0 100.5981 16.6667 0 0 8.6603 0 0 0 0 13.1962 0 0 0 -5.1962 0 2.5000 0 -2.1948 4.4936 26.0669 0 0 0 -58.1525 18.6337 -11.2259 0 0 -95.9808 7.5000 17.3205 0 0 0 0 0 0 0 0 0 0 0 0 0 -55.9808 0 0 -55.9808 0 0 -55.9808 0 0 0 0 0 0 0 0 0 0 0 0 0 0 0 0 0 0 0 0 0 0 0 0 0 0 0 0 0 0 0 0 0 0 0 0 0 0 0 0 0 0 0 0 69.1302 16.2460 6.0882 0 0 67.5000 0 -7.5000 0 0 0 0 0 0 0 0 0 0 0 0 0 0 0 0 0 0 0 0 0 0 0 0 0 0 0 0 0 0 0 0 0 0 0 0 0 0 0 0 0 0 0 0 0 0 0 0 0 0 0 0 0 0 0 0 0 0 0 0 0 0 -41.6506 0 0 71.6506 0 0 5.0000 0 0 0 0 0 1.6506 0 0 28.3494 0 0 0 0 0 0 0
0 100.4271 17.5000 0 0 8.9101 0 0 0 0 13.3460 0 0 0 -5.3460 0 2.2700 0 -2.0454 4.0539 26.8026 0 0 0 -58.0395 19.1639 -11.5748 0 0 -96.7302 6.8099 17.8201 0 0 0 0 0 0 0 0 0 0 0 0 0 -56.7302 0 0 -56.7302 0 0 -56.7302 0 0 0 0 0 0 0 0 0 0 0 0 0 0 0 0 0 0 0 0 0 0 0 0 0 0 0 0 0 0 0 0 0 0 0 0 0 0 0 0 0 0 0 0 69.0775 16.7128 6.2741 0 0 66.8099 0 -6.8099 0 0 0 0 0 0 0 0 0 0 0 0 0 0 0 0 0 0 0 0 0 0 0 0 0 0 0 0 0 0 0 0 0 0 0 0 0 0 0 0 0 0 0 0 0 0 0 0 0 0 0 0 0 0 0 0 0 0 0 0 0 0 -42.2752 0 0 72.2752 0 0 4.5399 0 0 0 0 0 2.2752 0 0 27.7248 0 0 0 0 0 0 0
0 100.2294 18.3333 0 0 9.1355 0 0 0 0 13.4813 0 0 0 -5.4813 0 2.0337 0 -1.8747 3.6102 27.4655 0 0 0 -57.9343 19.6417 -11.8915 0 0 -97.4064 6.1010 18.2709 0 0 0 0 0 0 0 0 0 0 0 0 0 -57.4064 0 0 -57.4064 0 0 -57.4064 0 0 0 0 0 0 0 0 0 0 0 0 0 0 0 0 0 0 0 0 0 0 0 0 0 0 0 0 0 0 0 0 0 0 0 0 0 0 0 0 0 0 0 0 69.0285 17.1338 6.4425 0 0 66.1010 0 -6.1010 0 0 0 0 0 0 0 0 0 0 0 0 0 0 0 0 0 0 0 0 0 0 0 0 0 0 0 0 0 0 0 0 0 0 0 0 0 0 0 0 0 0 0 0 0 0 0 0 0 0 0 0 0 0 0 0 0 0 0 0 0 0 -42.8386 0 0 72.8386 0 0 4.0674 0 0 0 0 0 2.8386 0 0 27.1614 0 0 0 0 0 0 0
0 100.0074 19.1667 0 0 9.3358 0 0 0 0 13.6015 0 0 0 -5.6015 0 1.7918 0 -1.6846 3.1635 28.0539 0 0 0 -57.8382 20.0659 -12.1746 0 0 -98.0074 5.3755 18.6716 0 0 0 0 0 0 0 0 0 0 0 0 0 -58.0074 0 0 -58.0074 0 0 -58.0074 0 0 0 0 0 0 0 0 0 0 0 0 0 0 0 0 0 0 0 0 0 0 0 0 0 0 0 0 0 0 0 0 0 0 0 0 0 0 0 0 0 0 0 0 68.9837 17.5079 6.5929 0 0 65.3755 0 -5.3755 0 0 0 0 0 0 0 0 0 0 0 0 0 0 0 0 0 0 0 0 0 0 0 0 0 0 0 0 0 0 0 0 0 0 0 0 0 0 0 0 0 0 0 0 0 0 0 0 0 0 0 0 0 0 0 0 0 0 0 0 0 0 -43.3395 0 0 73.3395 0 0 3.5837 0 0 0 0 0 3.3395 0 0 26.6605 0 0 0 0 0 0 0
0 99.7634 20.0000 0 0 9.5106 0 0 0 0 13.7063 0 0 0 -5.7063 0 1.5451 0 -1.4771 2.7146 28.5667 0 0 0 -57.7523 20.4356 -12.4227 0 0 -98.5317 4.6353 19.0211 0 0 0 0 0 0 0 0 0 0 0 0 0 -58.5317 0 0 -58.5317 0 0 -58.5317 0 0 0 0 0 0 0 0 0 0 0 0 0 0 0 0 0 0 0 0 0 0 0 0 0 0 0 0 0 0 0 0 0 0 0 0 0 0 0 0 0 0 0 0 68.9437 17.8341 6.7246 0 0 64.6353 0 -4.6353 0 0 0 0 0 0 0 0 0 0 0 0 0 0 0 0 0 0 0 0 0 0 0 0 0 0 0 0 0 0 0 0 0 0 0 0 0 0 0 0 0 0 0 0 0 0 0 0 0 0 0 0 0 0 0 0 0 0 0 0 0 0 -43.7764 0 0 73.7764 0 0 3.0902 0 0 0 0 0 3.7764 0 0 26.2236 0 0 0 0 0 0 0
0 99.5000 20.8333 0 0 9.6593 0 0 0 0 13.7956 0 0 0 -5.7956 0 1.2941 0 -1.2546 2.2640 29.0026 0 0 0 -57.6777 20.7499 -12.6349 0 0 -98.9778 3.8823 19.3185 0 0 0 0 0 0 0 0 0 0 0 0 0 -58.9778 0 0 -58.9778 0 0 -58.9778 0 0 0 0 0 0 0 0 0 0 0 0 0 0 0 0 0 0 0 0 0 0 0 0 0 0 0 0 0 0 0 0 0 0 0 0 0 0 0 0 0 0 0 0 68.9090 18.1116 6.8370 0 0 63.8823 0 -3.8823 0 0 0 0 0 0 0 0 0 0 0 0 0 0 0 0 0 0 0 0 0 0 0 0 0 0 0 0 0 0 0 0 0 0 0 0 0 0 0 0 0 0 0 0 0 0 0 0 0 0 0 0 0 0 0 0 0 0 0 0 0 0 -44.1481 0 0 74.1481 0 0 2.5882 0 0 0 0 0 4.1481 0 0 25.8519 0 0 0 0 0 0 0
0 99.2202 21.6667 0 0 9.7815 0 0 0 0 13.8689 0 0 0 -5.8689 0 1.0396 0 -1.0192 1.8122 29.3605 0 0 0 -57.6153 21.0080 -12.8099 0 0 -99.3444 3.1187 19.5630 0 0 0 0 0 0 0 0 0 0 0 0 0 -59.3444 0 0 -59.3444 0 0 -59.3444 0 0 0 0 0 0 0 0 0 0 0 0 0 0 0 0 0 0 0 0 0 0 0 0 0 0 0 0 0 0 0 0 0 0 0 0 0 0 0 0 0 0 0 0 68.8801 18.3396 6.9297 0 0 63.1187 0 -3.1187 0 0 0 0 0 0 0 0 0 0 0 0 0 0 0 0 0 0 0 0 0 0 0 0 0 0 0 0 0 0 0 0 0 0 0 0 0 0 0 0 0 0 0 0 0 0 0 0 0 0 0 0 0 0 0 0 0 0 0 0 0 0 -44.4537 0 0 74.4537 0 0 2.0791 0 0 0 0 0 4.4537 0 0 25.5463 0 0 0 0 0 0 0
0 98.9271 22.5000 0 0 9.8769 0 0 0 0 13.9261 0 0 0 -5.9261 0 0.7822 0 -0.7736 1.3597 29.6398 0 0 0 -57.5660 21.2093 -12.9469 0 0 -99.6307 2.3465 19.7538 0 0 0 0 0 0 0 0 0 0 0 0 0 -59.6307 0 0 -59.6307 0 0 -59.6307 0 0 0 0 0 0 0 0 0 0 0 0 0 0 0 0 0 0 0 0 0 0 0 0 0 0 0 0 0 0 0 0 0 0 0 0 0 0 0 0 0 0 0 0 68.8571 18.5176 7.0022 0 0 62.3465 0 -2.3465 0 0 0 0 0 0 0 0 0 0 0 0 0 0 0 0 0 0 0 0 0 0 0 0 0 0 0 0 0 0 0 0 0 0 0 0 0 0 0 0 0 0 0 0 0 0 0 0 0 0 0 0 0 0 0 0 0 0 0 0 0 0 -44.6922 0 0 74.6922 0 0 1.5643 0 0 0 0 0 4.6922 0 0 25.3078 0 0 0 0 0 0 0
0 98.6237 23.3333 0 0 9.9452 0 0 0 0 13.9671 0 0 0 -5.9671 0 0.5226 0 -0.5201 0.9067 29.8398 0 0 0 -57.5303 21.3535 -13.0453 0 0 -99.8357 1.5679 19.8904 0 0 0 0 0 0 0 0 0 0 0 0 0 -59.8357 0 0 -59.8357 0 0 -59.8357 0 0 0 0 0 0 0 0 0 0 0 0 0 0 0 0 0 0 0 0 0 0 0 0 0 0 0 0 0 0 0 0 0 0 0 0 0 0 0 0 0 0 0 0 68.8406 18.6451 7.0542 0 0 61.5679 0 -1.5679 0 0 0 0 0 0 0 0 0 0 0 0 0 0 0 0 0 0 0 0 0 0 0 0 0 0 0 0 0 0 0 0 0 0 0 0 0 0 0 0 0 0 0 0 0 0 0 0 0 0 0 0 0 0 0 0 0 0 0 0 0 0 -44.8630 0 0 74.8630 0 0 1.0453 0 0 0 0 0 4.8630 0 0 25.1370 0 0 0 0 0 0 0
0 98.3136 24.1667 0 0 9.9863 0 0 0 0 13.9918 0 0 0 -5.9918 0 0.2617 0 -0.2614 0.4534 29.9599 0 0 0 -57.5086 21.4401 -13.1045 0 0 -99.9589 0.7850 19.9726 0 0 0 0 0 0 0 0 0 0 0 0 0 -59.9589 0 0 -59.9589 0 0 -59.9589 0 0 0 0 0 0 0 0 0 0 0 0 0 0 0 0 0 0 0 0 0 0 0 0 0 0 0 0 0 0 0 0 0 0 0 0 0 0 0 0 0 0 0 0 68.8305 18.7217 7.0855 0 0 60.7850 0 -0.7850 0 0 0 0 0 0 0 0 0 0 0 0 0 0 0 0 0 0 0 0 0 0 0 0 0 0 0 0 0 0 0 0 0 0 0 0 0 0 0 0 0 0 0 0 0 0 0 0 0 0 0 0 0 0 0 0 0 0 0 0 0 0 -44.9657 0 0 74.9657 0 0 0.5234 0 0 0 0 0 4.9657 0 0 25.0343 0 0 0 0 0 0 0
0 98.0000 25.0000 0 0 10.0000 0 0 0 0 14.0000 0 0 0 -6.0000 0 0 0 0 0 30.0000 0 0 0 -57.5014 21.4690 -13.1243 0 0 -100.0000 0 20.0000 0 0 0 0 0 0 0 0 0 0 0 0 0 -60.0000 0 0 -60.0000 0 0 -60.0000 0 0 0 0 0 0 0 0 0 0 0 0 0 0 0 0 0 0 0 0 0 0 0 0 0 0 0 0 0 0 0 0 0 0 0 0 0 0 0 0 0 0 0 0 68.8272 18.7472 7.0960 0 0 60.0000 0 0 0 0 0 0 0 0 0 0 0 0 0 0 0 0 0 0 0 0 0 0 0 0 0 0 0 0 0 0 0 0 0 0 0 0 0 0 0 0 0 0 0 0 0 0 0 0 0 0 0 0 0 0 0 0 0 0 0 0 0 0 0 0 -45.0000 0 0 75.0000 0 0 0 0 0 0 0 0 5.0000 0 0 25.0000 0 0 0 0 0 0 0
0 97.6864 25.8333 0 0 9.9863 0 0 0 0 13.9918 0 0 0 -5.9918 0 -0.2617 0 0.2614 -0.4534 29.9599 0 0 0 -57.5086 21.4401 -13.1045 0 0 -99.9589 -0.7850 19.9726 0 0 0 0 0 0 0 0 0 0 0 0 0 -59.9589 0 0 -59.9589 0 0 -59.9589 0 0 0 0 0 0 0 0 0 0 0 0 0 0 0 0 0 0 0 0 0 0 0 0 0 0 0 0 0 0 0 0 0 0 0 0 0 0 0 0 0 0 0 0 68.8305 18.7217 7.0855 0 0 59.2150 0 0.7850 0 0 0 0 0 0 0 0 0 0 0 0 0 0 0 0 0 0 0 0 0 0 0 0 0 0 0 0 0 0 0 0 0 0 0 0 0 0 0 0 0 0 0 0 0 0 0 0 0 0 0 0 0 0 0 0 0 0 0 0 0 0 -44.9657 0 0 74.9657 0 0 -0.5234 0 0 0 0 0 4.9657 0 0 25.0343 0 0 0 0 0 0 0
0 97.3763 26.6667 0 0 9.9452 0 0 0 0 13.9671 0 0 0 -5.9671 0 -0.5226 0 0.5201 -0.9067 29.8398 0 0 0 -57.5303 21.3535 -13.0453 0 0 -99.8357 -1.5679 19.8904 0 0 0 0 0 0 0 0 0 0 0 0 0 -59.8357 0 0 -59.8357 0 0 -59.8357 0 0 0 0 0 0 0 0 0 0 0 0 0 0 0 0 0 0 0 0 0 0 0 0 0 0 0 0 0 0 0 0 0 0 0 0 0 0 0 0 0 0 0 0 68.8406 18.6451 7.0542 0 0 58.4321 0 1.5679 0 0 0 0 0 0 0 0 0 0 0 0 0 0 0 0 0 0 0 0 0 0 0 0 0 0 0 0 0 0 0 0 0 0 0 0 0 0 0 0 0 0 0 0 0 0 0 0 0 0 0 0 0 0 0 0 0 0 0 0 0 0 -44.8630 0 0 74.8630 0 0 -1.0453 0 0 0 0 0 4.8630 0 0 25.1370 0 0 0 0 0 0 0
0 97.0729 27.5000 0 0 9.8769 0 0 0 0 13.9261 0 0 0 -5.9261 0 -0.7822 0 0.7736 -1.3597 29.6398 0 0 0 -57.5660 21.2093 -12.9469 0 0 -99.6307 -2.3465 19.7538 0 0 0 0 0 0 0 0 0 0 0 0 0 -59.6307 0 0 -59.6307 0 0 -59.6307 0 0 0 0 0 0 0 0 0 0 0 0 0 0 0 0 0 0 0 0 0 0 0 0 0 0 0 0 0 0 0 0 0 0 0 0 0 0 0 0 0 0 0 0 68.8571 18.5176 7.0022 0 0 57.6535 0 2.3465 0 0 0 0 0 0 0 0 0 0 0 0 0 0 0 0 0 0 0 0 0 0 0 0 0 0 0 0 0 0 0 0 0 0 0 0 0 0 0 0 0 0 0 0 0 0 0 0 0 0 0 0 0 0 0 0 0 0 0 0 0 0 -44.6922 0 0 74.6922 0 0 -1.5643 0 0 0 0 0 4.6922 0 0 25.3078 0 0 0 0 0 0 0
0 96.7798 28.3333 0 0 9.7815 0 0 0 0 13.8689 0 0 0 -5.8689 0 -1.0396 0 1.0192 -1.8122 29.3605 0 0 0 -57.6153 21.0080 -12.8099 0 0 -99.3444 -3.1187 19.5630 0 0 0 0 0 0 0 0 0 0 0 0 0 -59.3444 0 0 -59.3444 0 0 -59.3444 0 0 0 0 0 0 0 0 0 0 0 0 0 0 0 0 0 0 0 0 0 0 0 0 0 0 0 0 0 0 0 0 0 0 0 0 0 0 0 0 0 0 0 0 68.8801 18.3396 6.9297 0 0 56.8813 0 3.1187 0 0 0 0 0 0 0 0 0 0 0 0 0 0 0 0 0 0 0 0 0 0 0 0 0 0 0 0 0 0 0 0 0 0 0 0 0 0 0 0 0 0 0 0 0 0 0 0 0 0 0 0 0 0 0 0 0 0 0 0 0 0 -44.4537 0 0 74.4537 0 0 -2.0791 0 0 0 0 0 4.4537 0 0 25.5463 0 0 0 0 0 0 0
0 96.5000 29.1667 0 0 9.6593 0 0 0 0 13.7956 0 0 0 -5.7956 0 -1.2941 0 1.2546 -2.2640 29.0026 0 0 0 -57.6777 20.7499 -12.6349 0 0 -98.9778 -3.8823 19.3185 0 0 0 0 0 0 0 0 0 0 0 0 0 -58.9778 0 0 -58.9778 0 0 -58.9778 0 0 0 0 0 0 0 0 0 0 0 0 0 0 0 0 0 0 0 0 0 0 0 0 0 0 0 0 0 0 0 0 0 0 0 0 0 0 0 0 0 0 0 0 68.9090 18.1116 6.8370 0 0 56.1177 0 3.8823 0 0 0 0 0 0 0 0 0 0 0 0 0 0 0 0 0 0 0 0 0 0 0 0 0 0 0 0 0 0 0 0 0 0 0 0 0 0 0 0 0 0 0 0 0 0 0 0 0 0 0 0 0 0 0 0 0 0 0 0 0 0 -44.1481 0 0 74.1481 0 0 -2.5882 0 0 0 0 0 4.1481 0 0 25.8519 0 0 0 0 0 0 0
0 96.2366 30.0000 0 0 9.5106 0 0 0 0 13.7063 0 0 0 -5.7063 0 -1.5451 0 1.4771 -2.7146 28.5667 0 0 0 -57.7523 20.4356 -12.4227 0 0 -98.5317 -4.6353 19.0211 0 0 0 0 0 0 0 0 0 0 0 0 0 -58.5317 0 0 -58.5317 0 0 -58.5317 0 0 0 0 0 0 0 0 0 0 0 0 0 0 0 0 0 0 0 0 0 0 0 0 0 0 0 0 0 0 0 0 0 0 0 0 0 0 0 0 0 0 0 0 68.9437 17.8341 6.7246 0 0 55.3647 0 4.6353 0 0 0 0 0 0 0 0 0 0 0 0 0 0 0 0 0 0 0 0 0 0 0 0 0 0 0 0 0 0 0 0 0 0 0 0 0 0 0 0 0 0 0 0 0 0 0 0 0 0 0 0 0 0 0 0 0 0 0 0 0 0 -43.7764 0 0 73.7764 0 0 -3.0902 0 0 0 0 0 3.7764 0 0 26.2236 0 0 0 0 0 0 0
0 95.9926 30.8333 0 0 9.3358 0 0 0 0 13.6015 0 0 0 -5.6015 0 -1.7918 0 1.6846 -3.1635 28.0539 0 0 0 -57.8382 20.0659 -12.1746 0 0 -98.0074 -5.3755 18.6716 0 0 0 0 0 0 0 0 0 0 0 0 0 -58.0074 0 0 -58.0074 0 0 -58.0074 0 0 0 0 0 0 0 0 0 0 0 0 0 0 0 0 0 0 0 0 0 0 0 0 0 0 0 0 0 0 0 0 0 0 0 0 0 0 0 0 0 0 0 0 68.9837 17.5079 6.5929 0 0 54.6245 0 5.3755 0 0 0 0 0 0 0 0 0 0 0 0 0 0 0 0 0 0 0 0 0 0 0 0 0 0 0 0 0 0 0 0 0 0 0 0 0 0 0 0 0 0 0 0 0 0 0 0 0 0 0 0 0 0 0 0 0 0 0 0 0 0 -43.3395 0 0 73.3395 0 0 -3.5837 0 0 0 0 0 3.3395 0 0 26.6605 0 0 0 0 0 0 0
0 95.7706 31.6667 0 0 9.1355 0 0 0 0 13.4813 0 0 0 -5.4813 0 -2.0337 0 1.8747 -3.6102 27.4655 0 0 0 -57.9343 19.6417 -11.8915 0 0 -97.4064 -6.1010 18.2709 0 0 0 0 0 0 0 0 0 0 0 0 0 -57.4064 0 0 -57.4064 0 0 -57.4064 0 0 0 0 0 0 0 0 0 0 0 0 0 0 0 0 0 0 0 0 0 0 0 0 0 0 0 0 0 0 0 0 0 0 0 0 0 0 0 0 0 0 0 0 69.0285 17.1338 6.4425 0 0 53.8990 0 6.1010 0 0 0 0 0 0 0 0 0 0 0 0 0 0 0 0 0 0 0 0 0 0 0 0 0 0 0 0 0 0 0 0 0 0 0 0 0 0 0 0 0 0 0 0 0 0 0 0 0 0 0 0 0 0 0 0 0 0 0 0 0 0 -42.8386 0 0 72.8386 0 0 -4.0674 0 0 0 0 0 2.8386 0 0 27.1614 0 0 0 0 0 0 0
0 95.5729 32.5000 0 0 8.9101 0 0 0 0 13.3460 0 0 0 -5.3460 0 -2.2700 0 2.0454 -4.0539 26.8026 0 0 0 -58.0395 19.1639 -11.5748 0 0 -96.7302 -6.8099 17.8201 0 0 0 0 0 0 0 0 0 0 0 0 0 -56.7302 0 0 -56.7302 0 0 -56.7302 0 0 0 0 0 0 0 0 0 0 0 0 0 0 0 0 0 0 0 0 0 0 0 0 0 0 0 0 0 0 0 0 0 0 0 0 0 0 0 0 0 0 0 0 69.0775 16.7128 6.2741 0 0 53.1901 0 6.8099 0 0 0 0 0 0 0 0 0 0 0 0 0 0 0 0 0 0 0 0 0 0 0 0 0 0 0 0 0 0 0 0 0 0 0 0 0 0 0 0 0 0 0 0 0 0 0 0 0 0 0 0 0 0 0 0 0 0 0 0 0 0 -42.2752 0 0 72.2752 0 0 -4.5399 0 0 0 0 0 2.2752 0 0 27.7248 0 0 0 0 0 0 0
0 95.4019 33.3333 0 0 8.6603 0 0 0 0 13.1962 0 0 0 -5.1962 0 -2.5000 0 2.1948 -4.4936 26.0669 0 0 0 -58.1525 18.6337 -11.2259 0 0 -95.9808 -7.5000 17.3205 0 0 0 0 0 0 0 0 0 0 0 0 0 -55.9808 0 0 -55.9808 0 0 -55.9808 0 0 0 0 0 0 0 0 0 0 0 0 0 0 0 0 0 0 0 0 0 0 0 0 0 0 0 0 0 0 0 0 0 0 0 0 0 0 0 0 0 0 0 0 69.1302 16.2460 6.0882 0 0 52.5000 0 7.5000 0 0 0 0 0 0 0 0 0 0 0 0 0 0 0 0 0 0 0 0 0 0 0 0 0 0 0 0 0 0 0 0 0 0 0 0 0 0 0 0 0 0 0 0 0 0 0 0 0 0 0 0 0 0 0 0 0 0 0 0 0 0 -41.6506 0 0 71.6506 0 0 -5.0000 0 0 0 0 0 1.6506 0 0 28.3494 0 0 0 0 0 0 0
0 95.2594 34.1667 0 0 8.3867 0 0 0 0 13.0320 0 0 0 -5.0320 0 -2.7232 0 2.3213 -4.9283 25.2600 0 0 0 -58.2720 18.0524 -10.8464 0 0 -95.1601 -8.1696 16.7734 0 0 0 0 0 0 0 0 0 0 0 0 0 -55.1601 0 0 -55.1601 0 0 -55.1601 0 0 0 0 0 0 0 0 0 0 0 0 0 0 0 0 0 0 0 0 0 0 0 0 0 0 0 0 0 0 0 0 0 0 0 0 0 0 0 0 0 0 0 0 69.1860 15.7347 5.8858 0 0 51.8304 0 8.1696 0 0 0 0 0 0 0 0 0 0 0 0 0 0 0 0 0 0 0 0 0 0 0 0 0 0 0 0 0 0 0 0 0 0 0 0 0 0 0 0 0 0 0 0 0 0 0 0 0 0 0 0 0 0 0 0 0 0 0 0 0 0 -40.9668 0 0 70.9668 0 0 -5.4464 0 0 0 0 0 0.9668 0 0 29.0332 0 0 0 0 0 0 0
0 95.1468 35.0000 0 0 8.0902 0 0 0 0 12.8541 0 0 0 -4.8541 0 -2.9389 0 2.4231 -5.3567 24.3839 0 0 0 -58.3965 17.4214 -10.4378 0 0 -94.2705 -8.8168 16.1803 0 0 0 0 0 0 0 0 0 0 0 0 0 -54.2705 0 0 -54.2705 0 0 -54.2705 0 0 0 0 0 0 0 0 0 0 0 0 0 0 0 0 0 0 0 0 0 0 0 0 0 0 0 0 0 0 0 0 0 0 0 0 0 0 0 0 0 0 0 0 69.2442 15.1802 5.6674 0 0 51.1832 0 8.8168 0 0 0 0 0 0 0 0 0 0 0 0 0 0 0 0 0 0 0 0 0 0 0 0 0 0 0 0 0 0 0 0 0 0 0 0 0 0 0 0 0 0 0 0 0 0 0 0 0 0 0 0 0 0 0 0 0 0 0 0 0 0 -40.2254 0 0 70.2254 0 0 -5.8779 0 0 0 0 0 0.2254 0 0 29.7746 0 0 0 0 0 0 0
0 95.0656 35.8333 0 0 7.7715 0 0 0 0 12.6629 0 0 0 -4.6629 0 -3.1466 0 2.4992 -5.7775 23.4405 0 0 0 -58.5245 16.7423 -10.0018 0 0 -93.3144 -9.4398 15.5429 0 0 0 0 0 0 0 0 0 0 0 0 0 -53.3144 0 0 -53.3144 0 0 -53.3144 0 0 0 0 0 0 0 0 0 0 0 0 0 0 0 0 0 0 0 0 0 0 0 0 0 0 0 0 0 0 0 0 0 0 0 0 0 0 0 0 0 0 0 0 69.3041 14.5841 5.4340 0 0 50.5602 0 9.4398 0 0 0 0 0 0 0 0 0 0 0 0 0 0 0 0 0 0 0 0 0 0 0 0 0 0 0 0 0 0 0 0 0 0 0 0 0 0 0 0 0 0 0 0 0 0 0 0 0 0 0 0 0 0 0 0 0 0 0 0 0 0 -39.4286 0 0 69.4286 0 0 -6.2932 0 0 0 0 0 -0.5714 0 0 30.5714 0 0 0 0 0 0 0
0 95.0164 36.6667 0 0 7.4314 0 0 0 0 12.4589 0 0 0 -4.4589 0 -3.3457 0 2.5484 -6.1891 22.4321 0 0 0 -58.6548 16.0169 -9.5400 0 0 -92.2943 -10.0370 14.8629 0 0 0 0 0 0 0 0 0 0 0 0 0 -52.2943 0 0 -52.2943 0 0 -52.2943 0 0 0 0 0 0 0 0 0 0 0 0 0 0 0 0 0 0 0 0 0 0 0 0 0 0 0 0 0 0 0 0 0 0 0 0 0 0 0 0 0 0 0 0 69.3652 13.9478 5.1864 0 0 49.9630 0 10.0370 0 0 0 0 0 0 0 0 0 0 0 0 0 0 0 0 0 0 0 0 0 0 0 0 0 0 0 0 0 0 0 0 0 0 0 0 0 0 0 0 0 0 0 0 0 0 0 0 0 0 0 0 0 0 0 0 0 0 0 0 0 0 -38.5786 0 0 68.5786 0 0 -6.6913 0 0 0 0 0 -1.4214 0 0 31.4214 0 0 0 0 0 0 0
0 95.0000 37.5000 0 0 7.0711 0 0 0 0 12.2426 0 0 0 -4.2426 0 -3.5355 0 2.5699 -6.5897 21.3612 0 0 0 -58.7856 15.2469 -9.0543 0 0 -91.2132 -10.6066 14.1421 0 0 0 0 0 0 0 0 0 0 0 0 0 -51.2132 0 0 -51.2132 0 0 -51.2132 0 0 0 0 0 0 0 0 0 0 0 0 0 0 0 0 0 0 0 0 0 0 0 0 0 0 0 0 0 0 0 0 0 0 0 0 0 0 0 0 0 0 0 0 69.4266 13.2731 4.9254 0 0 49.3934 0 10.6066 0 0 0 0 0 0 0 0 0 0 0 0 0 0 0 0 0 0 0 0 0 0 0 0 0 0 0 0 0 0 0 0 0 0 0 0 0 0 0 0 0 0 0 0 0 0 0 0 0 0 0 0 0 0 0 0 0 0 0 0 0 0 -37.6777 0 0 67.6777 0 0 -7.0711 0 0 0 0 0 -2.3223 0 0 32.3223 0 0 0 0 0 0 0
0 95.0164 38.3333 0 0 6.6913 0 0 0 0 12.0148 0 0 0 -4.0148 0 -3.7157 0 2.5634 -6.9777 20.2302 0 0 0 -58.9158 14.4344 -8.5462 0 0 -90.0739 -11.1472 13.3826 0 0 0 0 0 0 0 0 0 0 0 0 0 -50.0739 0 0 -50.0739 0 0 -50.0739 0 0 0 0 0 0 0 0 0 0 0 0 0 0 0 0 0 0 0 0 0 0 0 0 0 0 0 0 0 0 0 0 0 0 0 0 0 0 0 0 0 0 0 0 69.4877 12.5619 4.6520 0 0 48.8528 0 11.1472 0 0 0 0 0 0 0 0 0 0 0 0 0 0 0 0 0 0 0 0 0 0 0 0 0 0 0 0 0 0 0 0 0 0 0 0 0 0 0 0 0 0 0 0 0 0 0 0 0 0 0 0 0 0 0 0 0 0 0 0 0 0 -36.7283 0 0 66.7283 0 0 -7.4314 0 0 0 0 0 -3.2717 0 0 33.2717 0 0 0 0 0 0 0
0 95.0656 39.1667 0 0 6.2932 0 0 0 0 11.7759 0 0 0 -3.7759 0 -3.8857 0 2.5286 -7.3510 19.0421 0 0 0 -59.0437 13.5814 -8.0176 0 0 -88.8796 -11.6572 12.5864 0 0 0 0 0 0 0 0 0 0 0 0 0 -48.8796 0 0 -48.8796 0 0 -48.8796 0 0 0 0 0 0 0 0 0 0 0 0 0 0 0 0 0 0 0 0 0 0 0 0 0 0 0 0 0 0 0 0 0 0 0 0 0 0 0 0 0 0 0 0 69.5479 11.8160 4.3669 0 0 48.3428 0 11.6572 0 0 0 0 0 0 0 0 0 0 0 0 0 0 0 0 0 0 0 0 0 0 0 0 0 0 0 0 0 0 0 0 0 0 0 0 0 0 0 0 0 0 0 0 0 0 0 0 0 0 0 0 0 0 0 0 0 0 0 0 0 0 -35.7330 0 0 65.7330 0 0 -7.7715 0 0 0 0 0 -4.2670 0 0 34.2670 0 0 0 0 0 0 0
0 95.1468 40.0000 0 0 5.8779 0 0 0 0 11.5267 0 0 0 -3.5267 0 -4.0451 0 2.4656 -7.7077 17.7997 0 0 0 -59.1682 12.6904 -7.4701 0 0 -87.6336 -12.1353 11.7557 0 0 0 0 0 0 0 0 0 0 0 0 0 -47.6336 0 0 -47.6336 0 0 -47.6336 0 0 0 0 0 0 0 0 0 0 0 0 0 0 0 0 0 0 0 0 0 0 0 0 0 0 0 0 0 0 0 0 0 0 0 0 0 0 0 0 0 0 0 0 69.6065 11.0375 4.0712 0 0 47.8647 0 12.1353 0 0 0 0 0 0 0 0 0 0 0 0 0 0 0 0 0 0 0 0 0 0 0 0 0 0 0 0 0 0 0 0 0 0 0 0 0 0 0 0 0 0 0 0 0 0 0 0 0 0 0 0 0 0 0 0 0 0 0 0 0 0 -34.6946 0 0 64.6946 0 0 -8.0902 0 0 0 0 0 -5.3054 0 0 35.3054 0 0 0 0 0 0 0
0 95.2594 40.8333 0 0 5.4464 0 0 0 0 11.2678 0 0 0 -3.2678 0 -4.1934 0 2.3750 -8.0457 16.5062 0 0 0 -59.2878 11.7636 -6.9055 0 0 -86.3392 -12.5801 10.8928 0 0 0 0 0 0 0 0 0 0 0 0 0 -46.3392 0 0 -46.3392 0 0 -46.3392 0 0 0 0 0 0 0 0 0 0 0 0 0 0 0 0 0 0 0 0 0 0 0 0 0 0 0 0 0 0 0 0 0 0 0 0 0 0 0 0 0 0 0 0 69.6629 10.2286 3.7657 0 0 47.4199 0 12.5801 0 0 0 0 0 0 0 0 0 0 0 0 0 0 0 0 0 0 0 0 0 0 0 0 0 0 0 0 0 0 0 0 0 0 0 0 0 0 0 0 0 0 0 0 0 0 0 0 0 0 0 0 0 0 0 0 0 0 0 0 0 0 -33.6160 0 0 63.6160 0 0 -8.3867 0 0 0 0 0 -6.3840 0 0 36.3840 0 0 0 0 0 0 0
0 95.4019 41.6667 0 0 5.0000 0 0 0 0 11.0000 0 0 0 -3.0000 0 -4.3301 0 2.2575 -8.3630 15.1651 0 0 0 -59.4013 10.8036 -6.3253 0 0 -85.0000 -12.9904 10.0000 0 0 0 0 0 0 0 0 0 0 0 0 0 -45.0000 0 0 -45.0000 0 0 -45.0000 0 0 0 0 0 0 0 0 0 0 0 0 0 0 0 0 0 0 0 0 0 0 0 0 0 0 0 0 0 0 0 0 0 0 0 0 0 0 0 0 0 0 0 0 69.7164 9.3913 3.4512 0 0 47.0096 0 12.9904 0 0 0 0 0 0 0 0 0 0 0 0 0 0 0 0 0 0 0 0 0 0 0 0 0 0 0 0 0 0 0 0 0 0 0 0 0 0 0 0 0 0 0 0 0 0 0 0 0 0 0 0 0 0 0 0 0 0 0 0 0 0 -32.5000 0 0 62.5000 0 0 -8.6603 0 0 0 0 0 -7.5000 0 0 37.5000 0 0 0 0 0 0 0
0 95.5729 42.5000 0 0 4.5399 0 0 0 0 10.7239 0 0 0 -2.7239 0 -4.4550 0 2.1142 -8.6576 13.7798 0 0 0 -59.5076 9.8129 -5.7311 0 0 -83.6197 -13.3651 9.0798 0 0 0 0 0 0 0 0 0 0 0 0 0 -43.6197 0 0 -43.6197 0 0 -43.6197 0 0 0 0 0 0 0 0 0 0 0 0 0 0 0 0 0 0 0 0 0 0 0 0 0 0 0 0 0 0 0 0 0 0 0 0 0 0 0 0 0 0 0 0 69.7667 8.5280 3.1286 0 0 46.6349 0 13.3651 0 0 0 0 0 0 0 0 0 0 0 0 0 0 0 0 0 0 0 0 0 0 0 0 0 0 0 0 0 0 0 0 0 0 0 0 0 0 0 0 0 0 0 0 0 0 0 0 0 0 0 0 0 0 0 0 0 0 0 0 0 0 -31.3498 0 0 61.3498 0 0 -8.9101 0 0 0 0 0 -8.6502 0 0 38.6502 0 0 0 0 0 0 0
0 95.7706 43.3333 0 0 4.0674 0 0 0 0 10.4404 0 0 0 -2.4404 0 -4.5677 0 1.9467 -8.9274 12.3541 0 0 0 -59.6057 8.7944 -5.1246 0 0 -82.2021 -13.7032 8.1347 0 0 0 0 0 0 0 0 0 0 0 0 0 -42.2021 0 0 -42.2021 0 0 -42.2021 0 0 0 0 0 0 0 0 0 0 0 0 0 0 0 0 0 0 0 0 0 0 0 0 0 0 0 0 0 0 0 0 0 0 0 0 0 0 0 0 0 0 0 0 69.8131 7.6411 2.7989 0 0 46.2968 0 13.7032 0 0 0 0 0 0 0 0 0 0 0 0 0 0 0 0 0 0 0 0 0 0 0 0 0 0 0 0 0 0 0 0 0 0 0 0 0 0 0 0 0 0 0 0 0 0 0 0 0 0 0 0 0 0 0 0 0 0 0 0 0 0 -30.1684 0 0 60.1684 0 0 -9.1355 0 0 0 0 0 -9.8316 0 0 39.8316 0 0 0 0 0 0 0
0 95.9926 44.1667 0 0 3.5837 0 0 0 0 10.1502 0 0 0 -2.1502 0 -4.6679 0 1.7565 -9.1705 10.8919 0 0 0 -59.6945 7.7509 -4.5071 0 0 -80.7510 -14.0037 7.1674 0 0 0 0 0 0 0 0 0 0 0 0 0 -40.7510 0 0 -40.7510 0 0 -40.7510 0 0 0 0 0 0 0 0 0 0 0 0 0 0 0 0 0 0 0 0 0 0 0 0 0 0 0 0 0 0 0 0 0 0 0 0 0 0 0 0 0 0 0 0 69.8551 6.7330 2.4627 0 0 45.9963 0 14.0037 0 0 0 0 0 0 0 0 0 0 0 0 0 0 0 0 0 0 0 0 0 0 0 0 0 0 0 0 0 0 0 0 0 0 0 0 0 0 0 0 0 0 0 0 0 0 0 0 0 0 0 0 0 0 0 0 0 0 0 0 0 0 -28.9592 0 0 58.9592 0 0 -9.3358 0 0 0 0 0 -11.0408 0 0 41.0408 0 0 0 0 0 0 0
0 96.2366 45.0000 0 0 3.0902 0 0 0 0 9.8541 0 0 0 -1.8541 0 -4.7553 0 1.5460 -9.3852 9.3974 0 0 0 -59.7733 6.6853 -3.8803 0 0 -79.2705 -14.2658 6.1803 0 0 0 0 0 0 0 0 0 0 0 0 0 -39.2705 0 0 -39.2705 0 0 -39.2705 0 0 0 0 0 0 0 0 0 0 0 0 0 0 0 0 0 0 0 0 0 0 0 0 0 0 0 0 0 0 0 0 0 0 0 0 0 0 0 0 0 0 0 0 69.8924 5.8063 2.1211 0 0 45.7342 0 14.2658 0 0 0 0 0 0 0 0 0 0 0 0 0 0 0 0 0 0 0 0 0 0 0 0 0 0 0 0 0 0 0 0 0 0 0 0 0 0 0 0 0 0 0 0 0 0 0 0 0 0 0 0 0 0 0 0 0 0 0 0 0 0 -27.7254 0 0 57.7254 0 0 -9.5106 0 0 0 0 0 -12.2746 0 0 42.2746 0 0 0 0 0 0 0
0 96.5000 45.8333 0 0 2.5882 0 0 0 0 9.5529 0 0 0 -1.5529 0 -4.8296 0 1.3173 -9.5699 7.8748 0 0 0 -59.8412 5.6006 -3.2456 0 0 -77.7646 -14.4889 5.1764 0 0 0 0 0 0 0 0 0 0 0 0 0 -37.7646 0 0 -37.7646 0 0 -37.7646 0 0 0 0 0 0 0 0 0 0 0 0 0 0 0 0 0 0 0 0 0 0 0 0 0 0 0 0 0 0 0 0 0 0 0 0 0 0 0 0 0 0 0 0 69.9246 4.8634 1.7747 0 0 45.5111 0 14.4889 0 0 0 0 0 0 0 0 0 0 0 0 0 0 0 0 0 0 0 0 0 0 0 0 0 0 0 0 0 0 0 0 0 0 0 0 0 0 0 0 0 0 0 0 0 0 0 0 0 0 0 0 0 0 0 0 0 0 0 0 0 0 -26.4705 0 0 56.4705 0 0 -9.6593 0 0 0 0 0 -13.5295 0 0 43.5295 0 0 0 0 0 0 0
0 96.7798 46.6667 0 0 2.0791 0 0 0 0 9.2475 0 0 0 -1.2475 0 -4.8907 0 1.0731 -9.7230 6.3286 0 0 0 -59.8977 4.4999 -2.6043 0 0 -76.2374 -14.6722 4.1582 0 0 0 0 0 0 0 0 0 0 0 0 0 -36.2374 0 0 -36.2374 0 0 -36.2374 0 0 0 0 0 0 0 0 0 0 0 0 0 0 0 0 0 0 0 0 0 0 0 0 0 0 0 0 0 0 0 0 0 0 0 0 0 0 0 0 0 0 0 0 69.9514 3.9071 1.4244 0 0 45.3278 0 14.6722 0 0 0 0 0 0 0 0 0 0 0 0 0 0 0 0 0 0 0 0 0 0 0 0 0 0 0 0 0 0 0 0 0 0 0 0 0 0 0 0 0 0 0 0 0 0 0 0 0 0 0 0 0 0 0 0 0 0 0 0 0 0 -25.1978 0 0 55.1978 0 0 -9.7815 0 0 0 0 0 -14.8022 0 0 44.8022 0 0 0 0 0 0 0
0 97.0729 47.5000 0 0 1.5643 0 0 0 0 8.9386 0 0 0 -0.9386 0 -4.9384 0 0.8161 -9.8434 4.7633 0 0 0 -59.9421 3.3862 -1.9577 0 0 -74.6930 -14.8153 3.1287 0 0 0 0 0 0 0 0 0 0 0 0 0 -34.6930 0 0 -34.6930 0 0 -34.6930 0 0 0 0 0 0 0 0 0 0 0 0 0 0 0 0 0 0 0 0 0 0 0 0 0 0 0 0 0 0 0 0 0 0 0 0 0 0 0 0 0 0 0 0 69.9725 2.9398 1.0710 0 0 45.1847 0 14.8153 0 0 0 0 0 0 0 0 0 0 0 0 0 0 0 0 0 0 0 0 0 0 0 0 0 0 0 0 0 0 0 0 0 0 0 0 0 0 0 0 0 0 0 0 0 0 0 0 0 0 0 0 0 0 0 0 0 0 0 0 0 0 -23.9109 0 0 53.9109 0 0 -9.8769 0 0 0 0 0 -16.0891 0 0 46.0891 0 0 0 0 0 0 0
0 97.3763 48.3333 0 0 1.0453 0 0 0 0 8.6272 0 0 0 -0.6272 0 -4.9726 0 0.5496 -9.9302 3.1836 0 0 0 -59.9742 2.2629 -1.3073 0 0 -73.1359 -14.9178 2.0906 0 0 0 0 0 0 0 0 0 0 0 0 0 -33.1359 0 0 -33.1359 0 0 -33.1359 0 0 0 0 0 0 0 0 0 0 0 0 0 0 0 0 0 0 0 0 0 0 0 0 0 0 0 0 0 0 0 0 0 0 0 0 0 0 0 0 0 0 0 0 69.9877 1.9644 0.7153 0 0 45.0822 0 14.9178 0 0 0 0 0 0 0 0 0 0 0 0 0 0 0 0 0 0 0 0 0 0 0 0 0 0 0 0 0 0 0 0 0 0 0 0 0 0 0 0 0 0 0 0 0 0 0 0 0 0 0 0 0 0 0 0 0 0 0 0 0 0 -22.6132 0 0 52.6132 0 0 -9.9452 0 0 0 0 0 -17.3868 0 0 47.3868 0 0 0 0 0 0 0
0 97.6864 49.1667 0 0 0.5234 0 0 0 0 8.3140 0 0 0 -0.3140 0 -4.9931 0 0.2764 -9.9825 1.5942 0 0 0 -59.9935 1.1331 -0.6543 0 0 -71.5701 -14.9794 1.0467 0 0 0 0 0 0 0 0 0 0 0 0 0 -31.5701 0 0 -31.5701 0 0 -31.5701 0 0 0 0 0 0 0 0 0 0 0 0 0 0 0 0 0 0 0 0 0 0 0 0 0 0 0 0 0 0 0 0 0 0 0 0 0 0 0 0 0 0 0 0 69.9969 0.9836 0.3580 0 0 45.0206 0 14.9794 0 0 0 0 0 0 0 0 0 0 0 0 0 0 0 0 0 0 0 0 0 0 0 0 0 0 0 0 0 0 0 0 0 0 0 0 0 0 0 0 0 0 0 0 0 0 0 0 0 0 0 0 0 0 0 0 0 0 0 0 0 0 -21.3084 0 0 51.3084 0 0 -9.9863 0 0 0 0 0 -18.6916 0 0 48.6916 0 0 0 0 0 0 0
0 98.0000 50.0000 0 0 0 0 0 0 0 8.0000 0 0 0 0 0 -5.0000 0 0 -10.0000 0 0 0 0 -60.0000 0 0 0 0 -70.0000 -15.0000 0 0 0 0 0 0 0 0 0 0 0 0 0 0 -30.0000 0 0 -30.0000 0 0 -30.0000 0 0 0 0 0 0 0 0 0 0 0 0 0 0 0 0 0 0 0 0 0 0 0 0 0 0 0 0 0 0 0 0 0 0 0 0 0 0 0 0 0 0 0 0 70.0000 0 0 0 0 45.0000 0 15.0000 0 0 0 0 0 0 0 0 0 0 0 0 0 0 0 0 0 0 0 0 0 0 0 0 0 0 0 0 0 0 0 0 0 0 0 0 0 0 0 0 0 0 0 0 0 0 0 0 0 0 0 0 0 0 0 0 0 0 0 0 0 0 -20.0000 0 0 50.0000 0 0 -10.0000 0 0 0 0 0 -20.0000 0 0 50.0000 0 0 0 0 0 0 0
0 98.3136 50.8333 0 0 -0.5234 0 0 0 0 7.6860 0 0 0 0.3140 0 -4.9931 0 -0.2764 -9.9825 -1.5942 0 0 0 -59.9935 -1.1331 0.6543 0 0 -68.4299 -14.9794 -1.0467 0 0 0 0 0 0 0 0 0 0 0 0 0 -28.4299 0 0 -28.4299 0 0 -28.4299 0 0 0 0 0 0 0 0 0 0 0 0 0 0 0 0 0 0 0 0 0 0 0 0 0 0 0 0 0 0 0 0 0 0 0 0 0 0 0 0 0 0 0 0 69.9969 -0.9836 -0.3580 0 0 45.0206 0 14.9794 0 0 0 0 0 0 0 0 0 0 0 0 0 0 0 0 0 0 0 0 0 0 0 0 0 0 0 0 0 0 0 0 0 0 0 0 0 0 0 0 0 0 0 0 0 0 0 0 0 0 0 0 0 0 0 0 0 0 0 0 0 0 -18.6916 0 0 48.6916 0 0 -9.9863 0 0 0 0 0 -21.3084 0 0 51.3084 0 0 0 0 0 0 0
0 98.6237 51.6667 0 0 -1.0453 0 0 0 0 7.3728 0 0 0 0.6272 0 -4.9726 0 -0.5496 -9.9302 -3.1836 0 0 0 -59.9742 -2.2629 1.3073 0 0 -66.8641 -14.9178 -2.0906 0 0 0 0 0 0 0 0 0 0 0 0 0 -26.8641 0 0 -26.8641 0 0 -26.8641 0 0 0 0 0 0 0 0 0 0 0 0 0 0 0 0 0 0 0 0 0 0 0 0 0 0 0 0 0 0 0 0 0 0 0 0 0 0 0 0 0 0 0 0 69.9877 -1.9644 -0.7153 0 0 45.0822 0 14.9178 0 0 0 0 0 0 0 0 0 0 0 0 0 0 0 0 0 0 0 0 0 0 0 0 0 0 0 0 0 0 0 0 0 0 0 0 0 0 0 0 0 0 0 0 0 0 0 0 0 0 0 0 0 0 0 0 0 0 0 0 0 0 -17.3868 0 0 47.3868 0 0 -9.9452 0 0 0 0 0 -22.6132 0 0 52.6132 0 0 0 0 0 0 0
0 98.9271 52.5000 0 0 -1.5643 0 0 0 0 7.0614 0 0 0 0.9386 0 -4.9384 0 -0.8161 -9.8434 -4.7633 0 0 0 -59.9421 -3.3862 1.9577 0 0 -65.3070 -14.8153 -3.1287 0 0 0 0 0 0 0 0 0 0 0 0 0 -25.3070 0 0 -25.3070 0 0 -25.3070 0 0 0 0 0 0 0 0 0 0 0 0 0 0 0 0 0 0 0 0 0 0 0 0 0 0 0 0 0 0 0 0 0 0 0 0 0 0 0 0 0 0 0 0 69.9725 -2.9398 -1.0710 0 0 45.1847 0 14.8153 0 0 0 0 0 0 0 0 0 0 0 0 0 0 0 0 0 0 0 0 0 0 0 0 0 0 0 0 0 0 0 0 0 0 0 0 0 0 0 0 0 0 0 0 0 0 0 0 0 0 0 0 0 0 0 0 0 0 0 0 0 0 -16.0891 0 0 46.0891 0 0 -9.8769 0 0 0 0 0 -23.9109 0 0 53.9109 0 0 0 0 0 0 0
0 99.2202 53.3333 0 0 -2.0791 0 0 0 0 6.7525 0 0 0 1.2475 0 -4.8907 0 -1.0731 -9.7230 -6.3286 0 0 0 -59.8977 -4.4999 2.6043 0 0 -63.7626 -14.6722 -4.1582 0 0 0 0 0 0 0 0 0 0 0 0 0 -23.7626 0 0 -23.7626 0 0 -23.7626 0 0 0 0 0 0 0 0 0 0 0 0 0 0 0 0 0 0 0 0 0 0 0 0 0 0 0 0 0 0 0 0 0 0 0 0 0 0 0 0 0 0 0 0 69.9514 -3.9071 -1.4244 0 0 45.3278 0 14.6722 0 0 0 0 0 0 0 0 0 0 0 0 0 0 0 0 0 0 0 0 0 0 0 0 0 0 0 0 0 0 0 0 0 0 0 0 0 0 0 0 0 0 0 0 0 0 0 0 0 0 0 0 0 0 0 0 0 0 0 0 0 0 -14.8022 0 0 44.8022 0 0 -9.7815 0 0 0 0 0 -25.1978 0 0 55.1978 0 0 0 0 0 0 0
0 99.5000 54.1667 0 0 -2.5882 0 0 0 0 6.4471 0 0 0 1.5529 0 -4.8296 0 -1.3173 -9.5699 -7.8748 0 0 0 -59.8412 -5.6006 3.2456 0 0 -62.2354 -14.4889 -5.1764 0 0 0 0 0 0 0 0 0 0 0 0 0 -22.2354 0 0 -22.2354 0 0 -22.2354 0 0 0 0 0 0 0 0 0 0 0 0 0 0 0 0 0 0 0 0 0 0 0 0 0 0 0 0 0 0 0 0 0 0 0 0 0 0 0 0 0 0 0 0 69.9246 -4.8634 -1.7747 0 0 45.5111 0 14.4889 0 0 0 0 0 0 0 0 0 0 0 0 0 0 0 0 0 0 0 0 0 0 0 0 0 0 0 0 0 0 0 0 0 0 0 0 0 0 0 0 0 0 0 0 0 0 0 0 0 0 0 0 0 0 0 0 0 0 0 0 0 0 -13.5295 0 0 43.5295 0 0 -9.6593 0 0 0 0 0 -26.4705 0 0 56.4705 0 0 0 0 0 0 0
0 99.7634 55.0000 0 0 -3.0902 0 0 0 0 6.1459 0 0 0 1.8541 0 -4.7553 0 -1.5460 -9.3852 -9.3974 0 0 0 -59.7733 -6.6853 3.8803 0 0 -60.7295 -14.2658 -6.1803 0 0 0 0 0 0 0 0 0 0 0 0 0 -20.7295 0 0 -20.7295 0 0 -20.7295 0 0 0 0 0 0 0 0 0 0 0 0 0 0 0 0 0 0 0 0 0 0 0 0 0 0 0 0 0 0 0 0 0 0 0 0 0 0 0 0 0 0 0 0 69.8924 -5.8063 -2.1211 0 0 45.7342 0 14.2658 0 0 0 0 0 0 0 0 0 0 0 0 0 0 0 0 0 0 0 0 0 0 0 0 0 0 0 0 0 0 0 0 0 0 0 0 0 0 0 0 0 0 0 0 0 0 0 0 0 0 0 0 0 0 0 0 0 0 0 0 0 0 -12.2746 0 0 42.2746 0 0 -9.5106 0 0 0 0 0 -27.7254 0 0 57.7254 0 0 0 0 0 0 0
0 100.0074 55.8333 0 0 -3.5837 0 0 0 0 5.8498 0 0 0 2.1502 0 -4.6679 0 -1.7565 -9.1705 -10.8919 0 0 0 -59.6945 -7.7509 4.5071 0 0 -59.2490 -14.0037 -7.1674 0 0 0 0 0 0 0 0 0 0 0 0 0 -19.2490 0 0 -19.2490 0 0 -19.2490 0 0 0 0 0 0 0 0 0 0 0 0 0 0 0 0 0 0 0 0 0 0 0 0 0 0 0 0 0 0 0 0 0 0 0 0 0 0 0 0 0 0 0 0 69.8551 -6.7330 -2.4627 0 0 45.9963 0 14.0037 0 0 0 0 0 0 0 0 0 0 0 0 0 0 0 0 0 0 0 0 0 0 0 0 0 0 0 0 0 0 0 0 0 0 0 0 0 0 0 0 0 0 0 0 0 0 0 0 0 0 0 0 0 0 0 0 0 0 0 0 0 0 -11.0408 0 0 41.0408 0 0 -9.3358 0 0 0 0 0 -28.9592 0 0 58.9592 0 0 0 0 0 0 0
0 100.2294 56.6667 0 0 -4.0674 0 0 0 0 5.5596 0 0 0 2.4404 0 -4.5677 0 -1.9467 -8.9274 -12.3541 0 0 0 -59.6057 -8.7944 5.1246 0 0 -57.7979 -13.7032 -8.1347 0 0 0 0 0 0 0 0 0 0 0 0 0 -17.7979 0 0 -17.7979 0 0 -17.7979 0 0 0 0 0 0 0 0 0 0 0 0 0 0 0 0 0 0 0 0 0 0 0 0 0 0 0 0 0 0 0 0 0 0 0 0 0 0 0 0 0 0 0 0 69.8131 -7.6411 -2.7989 0 0 46.2968 0 13.7032 0 0 0 0 0 0 0 0 0 0 0 0 0 0 0 0 0 0 0 0 0 0 0 0 0 0 0 0 0 0 0 0 0 0 0 0 0 0 0 0 0 0 0 0 0 0 0 0 0 0 0 0 0 0 0 0 0 0 0 0 0 0 -9.8316 0 0 39.8316 0 0 -9.1355 0 0 0 0 0 -30.1684 0 0 60.1684 0 0 0 0 0 0 0
0 100.4271 57.5000 0 0 -4.5399 0 0 0 0 5.2761 0 0 0 2.7239 0 -4.4550 0 -2.1142 -8.6576 -13.7798 0 0 0 -59.5076 -9.8129 5.7311 0 0 -56.3803 -13.3651 -9.0798 0 0 0 0 0 0 0 0 0 0 0 0 0 -16.3803 0 0 -16.3803 0 0 -16.3803 0 0 0 0 0 0 0 0 0 0 0 0 0 0 0 0 0 0 0 0 0 0 0 0 0 0 0 0 0 0 0 0 0 0 0 0 0 0 0 0 0 0 0 0 69.7667 -8.5280 -3.1286 0 0 46.6349 0 13.3651 0 0 0 0 0 0 0 0 0 0 0 0 0 0 0 0 0 0 0 0 0 0 0 0 0 0 0 0 0 0 0 0 0 0 0 0 0 0 0 0 0 0 0 0 0 0 0 0 0 0 0 0 0 0 0 0 0 0 0 0 0 0 -8.6502 0 0 38.6502 0 0 -8.9101 0 0 0 0 0 -31.3498 0 0 61.3498 0 0 0 0 0 0 0
0 100.5981 58.3333 0 0 -5.0000 0 0 0 0 5.0000 0 0 0 3.0000 0 -4.3301 0 -2.2575 -8.3630 -15.1651 0 0 0 -59.4013 -10.8036 6.3253 0 0 -55.0000 -12.9904 -10.0000 0 0 0 0 0 0 0 0 0 0 0 0 0 -15.0000 0 0 -15.0000 0 0 -15.0000 0 0 0 0 0 0 0 0 0 0 0 0 0 0 0 0 0 0 0 0 0 0 0 0 0 0 0 0 0 0 0 0 0 0 0 0 0 0 0 0 0 0 0 0 69.7164 -9.3913 -3.4512 0 0 47.0096 0 12.9904 0 0 0 0 0 0 0 0 0 0 0 0 0 0 0 0 0 0 0 0 0 0 0 0 0 0 0 0 0 0 0 0 0 0 0 0 0 0 0 0 0 0 0 0 0 0 0 0 0 0 0 0 0 0 0 0 0 0 0 0 0 0 -7.5000 0 0 37.5000 0 0 -8.6603 0 0 0 0 0 -32.5000 0 0 62.5000 0 0 0 0 0 0 0
0 100.7406 59.1667 0 0 -5.4464 0 0 0 0 4.7322 0 0 0 3.2678 0 -4.1934 0 -2.3750 -8.0457 -16.5062 0 0 0 -59.2878 -11.7636 6.9055 0 0 -53.6608 -12.5801 -10.8928 0 0 0 0 0 0 0 0 0 0 0 0 0 -13.6608 0 0 -13.6608 0 0 -13.6608 0 0 0 0 0 0 0 0 0 0 0 0 0 0 0 0 0 0 0 0 0 0 0 0 0 0 0 0 0 0 0 0 0 0 0 0 0 0 0 0 0 0 0 0 69.6629 -10.2286 -3.7657 0 0 47.4199 0 12.5801 0 0 0 0 0 0 0 0 0 0 0 0 0 0 0 0 0 0 0 0 0 0 0 0 0 0 0 0 0 0 0 0 0 0 0 0 0 0 0 0 0 0 0 0 0 0 0 0 0 0 0 0 0 0 0 0 0 0 0 0 0 0 -6.3840 0 0 36.3840 0 0 -8.3867 0 0 0 0 0 -33.6160 0 0 63.6160 0 0 0 0 0 0 0
0 100.8532 60.0000 0 0 -5.8779 0 0 0 0 4.4733 0 0 0 3.5267 0 -4.0451 0 -2.4656 -7.7077 -17.7997 0 0 0 -59.1682 -12.6904 7.4701 0 0 -52.3664 -12.1353 -11.7557 0 0 0 0 0 0 0 0 0 0 0 0 0 -12.3664 0 0 -12.3664 0 0 -12.3664 0 0 0 0 0 0 0 0 0 0 0 0 0 0 0 0 0 0 0 0 0 0 0 0 0 0 0 0 0 0 0 0 0 0 0 0 0 0 0 0 0 0 0 0 69.6065 -11.0375 -4.0712 0 0 47.8647 0 12.1353 0 0 0 0 0 0 0 0 0 0 0 0 0 0 0 0 0 0 0 0 0 0 0 0 0 0 0 0 0 0 0 0 0 0 0 0 0 0 0 0 0 0 0 0 0 0 0 0 0 0 0 0 0 0 0 0 0 0 0 0 0 0 -5.3054 0 0 35.3054 0 0 -8.0902 0 0 0 0 0 -34.6946 0 0 64.6946 0 0 0 0 0 0 0
0 100.9344 60.8333 0 0 -6.2932 0 0 0 0 4.2241 0 0 0 3.7759 0 -3.8857 0 -2.5286 -7.3510 -19.0421 0 0 0 -59.0437 -13.5814 8.0176 0 0 -51.1204 -11.6572 -12.5864 0 0 0 0 0 0 0 0 0 0 0 0 0 -11.1204 0 0 -11.1204 0 0 -11.1204 0 0 0 0 0 0 0 0 0 0 0 0 0 0 0 0 0 0 0 0 0 0 0 0 0 0 0 0 0 0 0 0 0 0 0 0 0 0 0 0 0 0 0 0 69.5479 -11.8160 -4.3669 0 0 48.3428 0 11.6572 0 0 0 0 0 0 0 0 0 0 0 0 0 0 0 0 0 0 0 0 0 0 0 0 0 0 0 0 0 0 0 0 0 0 0 0 0 0 0 0 0 0 0 0 0 0 0 0 0 0 0 0 0 0 0 0 0 0 0 0 0 0 -4.2670 0 0 34.2670 0 0 -7.7715 0 0 0 0 0 -35.7330 0 0 65.7330 0 0 0 0 0 0 0
0 100.9836 61.6667 0 0 -6.6913 0 0 0 0 3.9852 0 0 0 4.0148 0 -3.7157 0 -2.5634 -6.9777 -20.2302 0 0 0 -58.9158 -14.4344 8.5462 0 0 -49.9261 -11.1472 -13.3826 0 0 0 0 0 0 0 0 0 0 0 0 0 -9.9261 0 0 -9.9261 0 0 -9.9261 0 0 0 0 0 0 0 0 0 0 0 0 0 0 0 0 0 0 0 0 0 0 0 0 0 0 0 0 0 0 0 0 0 0 0 0 0 0 0 0 0 0 0 0 69.4877 -12.5619 -4.6520 0 0 48.8528 0 11.1472 0 0 0 0 0 0 0 0 0 0 0 0 0 0 0 0 0 0 0 0 0 0 0 0 0 0 0 0 0 0 0 0 0 0 0 0 0 0 0 0 0 0 0 0 0 0 0 0 0 0 0 0 0 0 0 0 0 0 0 0 0 0 -3.2717 0 0 33.2717 0 0 -7.4314 0 0 0 0 0 -36.7283 0 0 66.7283 0 0 0 0 0 0 0
0 101.0000 62.5000 0 0 -7.0711 0 0 0 0 3.7574 0 0 0 4.2426 0 -3.5355 0 -2.5699 -6.5897 -21.3612 0 0 0 -58.7856 -15.2469 9.0543 0 0 -48.7868 -10.6066 -14.1421 0 0 0 0 0 0 0 0 0 0 0 0 0 -8.7868 0 0 -8.7868 0 0 -8.7868 0 0 0 0 0 0 0 0 0 0 0 0 0 0 0 0 0 0 0 0 0 0 0 0 0 0 0 0 0 0 0 0 0 0 0 0 0 0 0 0 0 0 0 0 69.4266 -13.2731 -4.9254 0 0 49.3934 0 10.6066 0 0 0 0 0 0 0 0 0 0 0 0 0 0 0 0 0 0 0 0 0 0 0 0 0 0 0 0 0 0 0 0 0 0 0 0 0 0 0 0 0 0 0 0 0 0 0 0 0 0 0 0 0 0 0 0 0 0 0 0 0 0 -2.3223 0 0 32.3223 0 0 -7.0711 0 0 0 0 0 -37.6777 0 0 67.6777 0 0 0 0 0 0 0
0 100.9836 63.3333 0 0 -7.4314 0 0 0 0 3.5411 0 0 0 4.4589 0 -3.3457 0 -2.5484 -6.1891 -22.4321 0 0 0 -58.6548 -16.0169 9.5400 0 0 -47.7057 -10.0370 -14.8629 0 0 0 0 0 0 0 0 0 0 0 0 0 -7.7057 0 0 -7.7057 0 0 -7.7057 0 0 0 0 0 0 0 0 0 0 0 0 0 0 0 0 0 0 0 0 0 0 0 0 0 0 0 0 0 0 0 0 0 0 0 0 0 0 0 0 0 0 0 0 69.3652 -13.9478 -5.1864 0 0 49.9630 0 10.0370 0 0 0 0 0 0 0 0 0 0 0 0 0 0 0 0 0 0 0 0 0 0 0 0 0 0 0 0 0 0 0 0 0 0 0 0 0 0 0 0 0 0 0 0 0 0 0 0 0 0 0 0 0 0 0 0 0 0 0 0 0 0 -1.4214 0 0 31.4214 0 0 -6.6913 0 0 0 0 0 -38.5786 0 0 68.5786 0 0 0 0 0 0 0
0 100.9344 64.1667 0 0 -7.7715 0 0 0 0 3.3371 0 0 0 4.6629 0 -3.1466 0 -2.4992 -5.7775 -23.4405 0 0 0 -58.5245 -16.7423 10.0018 0 0 -46.6856 -9.4398 -15.5429 0 0 0 0 0 0 0 0 0 0 0 0 0 -6.6856 0 0 -6.6856 0 0 -6.6856 0 0 0 0 0 0 0 0 0 0 0 0 0 0 0 0 0 0 0 0 0 0 0 0 0 0 0 0 0 0 0 0 0 0 0 0 0 0 0 0 0 0 0 0 69.3041 -14.5841 -5.4340 0 0 50.5602 0 9.4398 0 0 0 0 0 0 0 0 0 0 0 0 0 0 0 0 0 0 0 0 0 0 0 0 0 0 0 0 0 0 0 0 0 0 0 0 0 0 0 0 0 0 0 0 0 0 0 0 0 0 0 0 0 0 0 0 0 0 0 0 0 0 -0.5714 0 0 30.5714 0 0 -6.2932 0 0 0 0 0 -39.4286 0 0 69.4286 0 0 0 0 0 0 0
0 100.8532 65.0000 0 0 -8.0902 0 0 0 0 3.1459 0 0 0 4.8541 0 -2.9389 0 -2.4231 -5.3567 -24.3839 0 0 0 -58.3965 -17.4214 10.4378 0 0 -45.7295 -8.8168 -16.1803 0 0 0 0 0 0 0 0 0 0 0 0 0 -5.7295 0 0 -5.7295 0 0 -5.7295 0 0 0 0 0 0 0 0 0 0 0 0 0 0 0 0 0 0 0 0 0 0 0 0 0 0 0 0 0 0 0 0 0 0 0 0 0 0 0 0 0 0 0 0 69.2442 -15.1802 -5.6674 0 0 51.1832 0 8.8168 0 0 0 0 0 0 0 0 0 0 0 0 0 0 0 0 0 0 0 0 0 0 0 0 0 0 0 0 0 0 0 0 0 0 0 0 0 0 0 0 0 0 0 0 0 0 0 0 0 0 0 0 0 0 0 0 0 0 0 0 0 0 0.2254 0 0 29.7746 0 0 -5.8779 0 0 0 0 0 -40.2254 0 0 70.2254 0 0 0 0 0 0 0
0 100.7406 65.8333 0 0 -8.3867 0 0 0 0 2.9680 0 0 0 5.0320 0 -2.7232 0 -2.3213 -4.9283 -25.2600 0 0 0 -58.2720 -18.0524 10.8464 0 0 -44.8399 -8.1696 -16.7734 0 0 0 0 0 0 0 0 0 0 0 0 0 -4.8399 0 0 -4.8399 0 0 -4.8399 0 0 0 0 0 0 0 0 0 0 0 0 0 0 0 0 0 0 0 0 0 0 0 0 0 0 0 0 0 0 0 0 0 0 0 0 0 0 0 0 0 0 0 0 69.1860 -15.7347 -5.8858 0 0 51.8304 0 8.1696 0 0 0 0 0 0 0 0 0 0 0 0 0 0 0 0 0 0 0 0 0 0 0 0 0 0 0 0 0 0 0 0 0 0 0 0 0 0 0 0 0 0 0 0 0 0 0 0 0 0 0 0 0 0 0 0 0 0 0 0 0 0 0.9668 0 0 29.0332 0 0 -5.4464 0 0 0 0 0 -40.9668 0 0 70.9668 0 0 0 0 0 0 0
0 100.5981 66.6667 0 0 -8.6603 0 0 0 0 2.8038 0 0 0 5.1962 0 -2.5000 0 -2.1948 -4.4936 -26.0669 0 0 0 -58.1525 -18.6337 11.2259 0 0 -44.0192 -7.5000 -17.3205 0 0 0 0 0 0 0 0 0 0 0 0 0 -4.0192 0 0 -4.0192 0 0 -4.0192 0 0 0 0 0 0 0 0 0 0 0 0 0 0 0 0 0 0 0 0 0 0 0 0 0 0 0 0 0 0 0 0 0 0 0 0 0 0 0 0 0 0 0 0 69.1302 -16.2460 -6.0882 0 0 52.5000 0 7.5000 0 0 0 0 0 0 0 0 0 0 0 0 0 0 0 0 0 0 0 0 0 0 0 0 0 0 0 0 0 0 0 0 0 0 0 0 0 0 0 0 0 0 0 0 0 0 0 0 0 0 0 0 0 0 0 0 0 0 0 0 0 0 1.6506 0 0 28.3494 0 0 -5.0000 0 0 0 0 0 -41.6506 0 0 71.6506 0 0 0 0 0 0 0
0 100.4271 67.5000 0 0 -8.9101 0 0 0 0 2.6540 0 0 0 5.3460 0 -2.2700 0 -2.0454 -4.0539 -26.8026 0 0 0 -58.0395 -19.1639 11.5748 0 0 -43.2698 -6.8099 -17.8201 0 0 0 0 0 0 0 0 0 0 0 0 0 -3.2698 0 0 -3.2698 0 0 -3.2698 0 0 0 0 0 0 0 0 0 0 0 0 0 0 0 0 0 0 0 0 0 0 0 0 0 0 0 0 0 0 0 0 0 0 0 0 0 0 0 0 0 0 0 0 69.0775 -16.7128 -6.2741 0 0 53.1901 0 6.8099 0 0 0 0 0 0 0 0 0 0 0 0 0 0 0 0 0 0 0 0 0 0 0 0 0 0 0 0 0 0 0 0 0 0 0 0 0 0 0 0 0 0 0 0 0 0 0 0 0 0 0 0 0 0 0 0 0 0 0 0 0 0 2.2752 0 0 27.7248 0 0 -4.5399 0 0 0 0 0 -42.2752 0 0 72.2752 0 0 0 0 0 0 0
0 100.2294 68.3333 0 0 -9.1355 0 0 0 0 2.5187 0 0 0 5.4813 0 -2.0337 0 -1.8747 -3.6102 -27.4655 0 0 0 -57.9343 -19.6417 11.8915 0 0 -42.5936 -6.1010 -18.2709 0 0 0 0 0 0 0 0 0 0 0 0 0 -2.5936 0 0 -2.5936 0 0 -2.5936 0 0 0 0 0 0 0 0 0 0 0 0 0 0 0 0 0 0 0 0 0 0 0 0 0 0 0 0 0 0 0 0 0 0 0 0 0 0 0 0 0 0 0 0 69.0285 -17.1338 -6.4425 0 0 53.8990 0 6.1010 0 0 0 0 0 0 0 0 0 0 0 0 0 0 0 0 0 0 0 0 0 0 0 0 0 0 0 0 0 0 0 0 0 0 0 0 0 0 0 0 0 0 0 0 0 0 0 0 0 0 0 0 0 0 0 0 0 0 0 0 0 0 2.8386 0 0 27.1614 0 0 -4.0674 0 0 0 0 0 -42.8386 0 0 72.8386 0 0 0 0 0 0 0
0 100.0074 69.1667 0 0 -9.3358 0 0 0 0 2.3985 0 0 0 5.6015 0 -1.7918 0 -1.6846 -3.1635 -28.0539 0 0 0 -57.8382 -20.0659 12.1746 0 0 -41.9926 -5.3755 -18.6716 0 0 0 0 0 0 0 0 0 0 0 0 0 -1.9926 0 0 -1.9926 0 0 -1.9926 0 0 0 0 0 0 0 0 0 0 0 0 0 0 0 0 0 0 0 0 0 0 0 0 0 0 0 0 0 0 0 0 0 0 0 0 0 0 0 0 0 0 0 0 68.9837 -17.5079 -6.5929 0 0 54.6245 0 5.3755 0 0 0 0 0 0 0 0 0 0 0 0 0 0 0 0 0 0 0 0 0 0 0 0 0 0 0 0 0 0 0 0 0 0 0 0 0 0 0 0 0 0 0 0 0 0 0 0 0 0 0 0 0 0 0 0 0 0 0 0 0 0 3.3395 0 0 26.6605 0 0 -3.5837 0 0 0 0 0 -43.3395 0 0 73.3395 0 0 0 0 0 0 0
0 99.7634 70.0000 0 0 -9.5106 0 0 0 0 2.2937 0 0 0 5.7063 0 -1.5451 0 -1.4771 -2.7146 -28.5667 0 0 0 -57.7523 -20.4356 12.4227 0 0 -41.4683 -4.6353 -19.0211 0 0 0 0 0 0 0 0 0 0 0 0 0 -1.4683 0 0 -1.4683 0 0 -1.4683 0 0 0 0 0 0 0 0 0 0 0 0 0 0 0 0 0 0 0 0 0 0 0 0 0 0 0 0 0 0 0 0 0 0 0 0 0 0 0 0 0 0 0 0 68.9437 -17.8341 -6.7246 0 0 55.3647 0 4.6353 0 0 0 0 0 0 0 0 0 0 0 0 0 0 0 0 0 0 0 0 0 0 0 0 0 0 0 0 0 0 0 0 0 0 0 0 0 0 0 0 0 0 0 0 0 0 0 0 0 0 0 0 0 0 0 0 0 0 0 0 0 0 3.7764 0 0 26.2236 0 0 -3.0902 0 0 0 0 0 -43.7764 0 0 73.7764 0 0 0 0 0 0 0
0 99.5000 70.8333 0 0 -9.6593 0 0 0 0 2.2044 0 0 0 5.7956 0 -1.2941 0 -1.2546 -2.2640 -29.0026 0 0 0 -57.6777 -20.7499 12.6349 0 0 -41.0222 -3.8823 -19.3185 0 0 0 0 0 0 0 0 0 0 0 0 0 -1.0222 0 0 -1.0222 0 0 -1.0222 0 0 0 0 0 0 0 0 0 0 0 0 0 0 0 0 0 0 0 0 0 0 0 0 0 0 0 0 0 0 0 0 0 0 0 0 0 0 0 0 0 0 0 0 68.9090 -18.1116 -6.8370 0 0 56.1177 0 3.8823 0 0 0 0 0 0 0 0 0 0 0 0 0 0 0 0 0 0 0 0 0 0 0 0 0 0 0 0 0 0 0 0 0 0 0 0 0 0 0 0 0 0 0 0 0 0 0 0 0 0 0 0 0 0 0 0 0 0 0 0 0 0 4.1481 0 0 25.8519 0 0 -2.5882 0 0 0 0 0 -44.1481 0 0 74.1481 0 0 0 0 0 0 0
0 99.2202 71.6667 0 0 -9.7815 0 0 0 0 2.1311 0 0 0 5.8689 0 -1.0396 0 -1.0192 -1.8122 -29.3605 0 0 0 -57.6153 -21.0080 12.8099 0 0 -40.6556 -3.1187 -19.5630 0 0 0 0 0 0 0 0 0 0 0 0 0 -0.6556 0 0 -0.6556 0 0 -0.6556 0 0 0 0 0 0 0 0 0 0 0 0 0 0 0 0 0 0 0 0 0 0 0 0 0 0 0 0 0 0 0 0 0 0 0 0 0 0 0 0 0 0 0 0 68.8801 -18.3396 -6.9297 0 0 56.8813 0 3.1187 0 0 0 0 0 0 0 0 0 0 0 0 0 0 0 0 0 0 0 0 0 0 0 0 0 0 0 0 0 0 0 0 0 0 0 0 0 0 0 0 0 0 0 0 0 0 0 0 0 0 0 0 0 0 0 0 0 0 0 0 0 0 4.4537 0 0 25.5463 0 0 -2.0791 0 0 0 0 0 -44.4537 0 0 74.4537 0 0 0 0 0 0 0
0 98.9271 72.5000 0 0 -9.8769 0 0 0 0 2.0739 0 0 0 5.9261 0 -0.7822 0 -0.7736 -1.3597 -29.6398 0 0 0 -57.5660 -21.2093 12.9469 0 0 -40.3693 -2.3465 -19.7538 0 0 0 0 0 0 0 0 0 0 0 0 0 -0.3693 0 0 -0.3693 0 0 -0.3693 0 0 0 0 0 0 0 0 0 0 0 0 0 0 0 0 0 0 0 0 0 0 0 0 0 0 0 0 0 0 0 0 0 0 0 0 0 0 0 0 0 0 0 0 68.8571 -18.5176 -7.0022 0 0 57.6535 0 2.3465 0 0 0 0 0 0 0 0 0 0 0 0 0 0 0 0 0 0 0 0 0 0 0 0 0 0 0 0 0 0 0 0 0 0 0 0 0 0 0 0 0 0 0 0 0 0 0 0 0 0 0 0 0 0 0 0 0 0 0 0 0 0 4.6922 0 0 25.3078 0 0 -1.5643 0 0 0 0 0 -44.6922 0 0 74.6922 0 0 0 0 0 0 0
0 98.6237 73.3333 0 0 -9.9452 0 0 0 0 2.0329 0 0 0 5.9671 0 -0.5226 0 -0.5201 -0.9067 -29.8398 0 0 0 -57.5303 -21.3535 13.0453 0 0 -40.1643 -1.5679 -19.8904 0 0 0 0 0 0 0 0 0 0 0 0 0 -0.1643 0 0 -0.1643 0 0 -0.1643 0 0 0 0 0 0 0 0 0 0 0 0 0 0 0 0 0 0 0 0 0 0 0 0 0 0 0 0 0 0 0 0 0 0 0 0 0 0 0 0 0 0 0 0 68.8406 -18.6451 -7.0542 0 0 58.4321 0 1.5679 0 0 0 0 0 0 0 0 0 0 0 0 0 0 0 0 0 0 0 0 0 0 0 0 0 0 0 0 0 0 0 0 0 0 0 0 0 0 0 0 0 0 0 0 0 0 0 0 0 0 0 0 0 0 0 0 0 0 0 0 0 0 4.8630 0 0 25.1370 0 0 -1.0453 0 0 0 0 0 -44.8630 0 0 74.8630 0 0 0 0 0 0 0
0 98.3136 74.1667 0 0 -9.9863 0 0 0 0 2.0082 0 0 0 5.9918 0 -0.2617 0 -0.2614 -0.4534 -29.9599 0 0 0 -57.5086 -21.4401 13.1045 0 0 -40.0411 -0.7850 -19.9726 0 0 0 0 0 0 0 0 0 0 0 0 0 -0.0411 0 0 -0.0411 0 0 -0.0411 0 0 0 0 0 0 0 0 0 0 0 0 0 0 0 0 0 0 0 0 0 0 0 0 0 0 0 0 0 0 0 0 0 0 0 0 0 0 0 0 0 0 0 0 68.8305 -18.7217 -7.0855 0 0 59.2150 0 0.7850 0 0 0 0 0 0 0 0 0 0 0 0 0 0 0 0 0 0 0 0 0 0 0 0 0 0 0 0 0 0 0 0 0 0 0 0 0 0 0 0 0 0 0 0 0 0 0 0 0 0 0 0 0 0 0 0 0 0 0 0 0 0 4.9657 0 0 25.0343 0 0 -0.5234 0 0 0 0 0 -44.9657 0 0 74.9657 0 0 0 0 0 0 0
0 98.0000 75.0000 0 0 -10.0000 0 0 0 0 2.0000 0 0 0 6.0000 0 0 0 0 0 -30.0000 0 0 0 -57.5014 -21.4690 13.1243 0 0 -40.0000 0 -20.0000 0 0 0 0 0 0 0 0 0 0 0 0 0 0 0 0 0 0 0 0 0 0 0 0 0 0 0 0 0 0 0 0 0 0 0 0 0 0 0 0 0 0 0 0 0 0 0 0 0 0 0 0 0 0 0 0 0 0 0 0 0 0 0 0 68.8272 -18.7472 -7.0960 0 0 60.0000 0 0 0 0 0 0 0 0 0 0 0 0 0 0 0 0 0 0 0 0 0 0 0 0 0 0 0 0 0 0 0 0 0 0 0 0 0 0 0 0 0 0 0 0 0 0 0 0 0 0 0 0 0 0 0 0 0 0 0 0 0 0 0 0 5.0000 0 0 25.0000 0 0 0 0 0 0 0 0 -45.0000 0 0 75.0000 0 0 0 0 0 0 0
0 97.6864 75.8333 0 0 -9.9863 0 0 0 0 2.0082 0 0 0 5.9918 0 0.2617 0 0.2614 0.4534 -29.9599 0 0 0 -57.5086 -21.4401 13.1045 0 0 -40.0411 0.7850 -19.9726 0 0 0 0 0 0 0 0 0 0 0 0 0 -0.0411 0 0 -0.0411 0 0 -0.0411 0 0 0 0 0 0 0 0 0 0 0 0 0 0 0 0 0 0 0 0 0 0 0 0 0 0 0 0 0 0 0 0 0 0 0 0 0 0 0 0 0 0 0 0 68.8305 -18.7217 -7.0855 0 0 60.7850 0 -0.7850 0 0 0 0 0 0 0 0 0 0 0 0 0 0 0 0 0 0 0 0 0 0 0 0 0 0 0 0 0 0 0 0 0 0 0 0 0 0 0 0 0 0 0 0 0 0 0 0 0 0 0 0 0 0 0 0 0 0 0 0 0 0 4.9657 0 0 25.0343 0 0 0.5234 0 0 0 0 0 -44.9657 0 0 74.9657 0 0 0 0 0 0 0
0 97.3763 76.6667 0 0 -9.9452 0 0 0 0 2.0329 0 0 0 5.9671 0 0.5226 0 0.5201 0.9067 -29.8398 0 0 0 -57.5303 -21.3535 13.0453 0 0 -40.1643 1.5679 -19.8904 0 0 0 0 0 0 0 0 0 0 0 0 0 -0.1643 0 0 -0.1643 0 0 -0.1643 0 0 0 0 0 0 0 0 0 0 0 0 0 0 0 0 0 0 0 0 0 0 0 0 0 0 0 0 0 0 0 0 0 0 0 0 0 0 0 0 0 0 0 0 68.8406 -18.6451 -7.0542 0 0 61.5679 0 -1.5679 0 0 0 0 0 0 0 0 0 0 0 0 0 0 0 0 0 0 0 0 0 0 0 0 0 0 0 0 0 0 0 0 0 0 0 0 0 0 0 0 0 0 0 0 0 0 0 0 0 0 0 0 0 0 0 0 0 0 0 0 0 0 4.8630 0 0 25.1370 0 0 1.0453 0 0 0 0 0 -44.8630 0 0 74.8630 0 0 0 0 0 0 0
0 97.0729 77.5000 0 0 -9.8769 0 0 0 0 2.0739 0 0 0 5.9261 0 0.7822 0 0.7736 1.3597 -29.6398 0 0 0 -57.5660 -21.2093 12.9469 0 0 -40.3693 2.3465 -19.7538 0 0 0 0 0 0 0 0 0 0 0 0 0 -0.3693 0 0 -0.3693 0 0 -0.3693 0 0 0 0 0 0 0 0 0 0 0 0 0 0 0 0 0 0 0 0 0 0 0 0 0 0 0 0 0 0 0 0 0 0 0 0 0 0 0 0 0 0 0 0 68.8571 -18.5176 -7.0022 0 0 62.3465 0 -2.3465 0 0 0 0 0 0 0 0 0 0 0 0 0 0 0 0 0 0 0 0 0 0 0 0 0 0 0 0 0 0 0 0 0 0 0 0 0 0 0 0 0 0 0 0 0 0 0 0 0 0 0 0 0 0 0 0 0 0 0 0 0 0 4.6922 0 0 25.3078 0 0 1.5643 0 0 0 0 0 -44.6922 0 0 74.6922 0 0 0 0 0 0 0
0 96.7798 78.3333 0 0 -9.7815 0 0 0 0 2.1311 0 0 0 5.8689 0 1.0396 0 1.0192 1.8122 -29.3605 0 0 0 -57.6153 -21.0080 12.8099 0 0 -40.6556 3.1187 -19.5630 0 0 0 0 0 0 0 0 0 0 0 0 0 -0.6556 0 0 -0.6556 0 0 -0.6556 0 0 0 0 0 0 0 0 0 0 0 0 0 0 0 0 0 0 0 0 0 0 0 0 0 0 0 0 0 0 0 0 0 0 0 0 0 0 0 0 0 0 0 0 68.8801 -18.3396 -6.9297 0 0 63.1187 0 -3.1187 0 0 0 0 0 0 0 0 0 0 0 0 0 0 0 0 0 0 0 0 0 0 0 0 0 0 0 0 0 0 0 0 0 0 0 0 0 0 0 0 0 0 0 0 0 0 0 0 0 0 0 0 0 0 0 0 0 0 0 0 0 0 4.4537 0 0 25.5463 0 0 2.0791 0 0 0 0 0 -44.4537 0 0 74.4537 0 0 0 0 0 0 0
0 96.5000 79.1667 0 0 -9.6593 0 0 0 0 2.2044 0 0 0 5.7956 0 1.2941 0 1.2546 2.2640 -29.0026 0 0 0 -57.6777 -20.7499 12.6349 0 0 -41.0222 3.8823 -19.3185 0 0 0 0 0 0 0 0 0 0 0 0 0 -1.0222 0 0 -1.0222 0 0 -1.0222 0 0 0 0 0 0 0 0 0 0 0 0 0 0 0 0 0 0 0 0 0 0 0 0 0 0 0 0 0 0 0 0 0 0 0 0 0 0 0 0 0 0 0 0 68.9090 -18.1116 -6.8370 0 0 63.8823 0 -3.8823 0 0 0 0 0 0 0 0 0 0 0 0 0 0 0 0 0 0 0 0 0 0 0 0 0 0 0 0 0 0 0 0 0 0 0 0 0 0 0 0 0 0 0 0 0 0 0 0 0 0 0 0 0 0 0 0 0 0 0 0 0 0 4.1481 0 0 25.8519 0 0 2.5882 0 0 0 0 0 -44.1481 0 0 74.1481 0 0 0 0 0 0 0
0 96.2366 80.0000 0 0 -9.5106 0 0 0 0 2.2937 0 0 0 5.7063 0 1.5451 0 1.4771 2.7146 -28.5667 0 0 0 -57.7523 -20.4356 12.4227 0 0 -41.4683 4.6353 -19.0211 0 0 0 0 0 0 0 0 0 0 0 0 0 -1.4683 0 0 -1.4683 0 0 -1.4683 0 0 0 0 0 0 0 0 0 0 0 0 0 0 0 0 0 0 0 0 0 0 0 0 0 0 0 0 0 0 0 0 0 0 0 0 0 0 0 0 0 0 0 0 68.9437 -17.8341 -6.7246 0 0 64.6353 0 -4.6353 0 0 0 0 0 0 0 0 0 0 0 0 0 0 0 0 0 0 0 0 0 0 0 0 0 0 0 0 0 0 0 0 0 0 0 0 0 0 0 0 0 0 0 0 0 0 0 0 0 0 0 0 0 0 0 0 0 0 0 0 0 0 3.7764 0 0 26.2236 0 0 3.0902 0 0 0 0 0 -43.7764 0 0 73.7764 0 0 0 0 0 0 0
0 95.9926 80.8333 0 0 -9.3358 0 0 0 0 2.3985 0 0 0 5.6015 0 1.7918 0 1.6846 3.1635 -28.0539 0 0 0 -57.8382 -20.0659 12.1746 0 0 -41.9926 5.3755 -18.6716 0 0 0 0 0 0 0 0 0 0 0 0 0 -1.9926 0 0 -1.9926 0 0 -1.9926 0 0 0 0 0 0 0 0 0 0 0 0 0 0 0 0 0 0 0 0 0 0 0 0 0 0 0 0 0 0 0 0 0 0 0 0 0 0 0 0 0 0 0 0 68.9837 -17.5079 -6.5929 0 0 65.3755 0 -5.3755 0 0 0 0 0 0 0 0 0 0 0 0 0 0 0 0 0 0 0 0 0 0 0 0 0 0 0 0 0 0 0 0 0 0 0 0 0 0 0 0 0 0 0 0 0 0 0 0 0 0 0 0 0 0 0 0 0 0 0 0 0 0 3.3395 0 0 26.6605 0 0 3.5837 0 0 0 0 0 -43.3395 0 0 73.3395 0 0 0 0 0 0 0
0 95.7706 81.6667 0 0 -9.1355 0 0 0 0 2.5187 0 0 0 5.4813 0 2.0337 0 1.8747 3.6102 -27.4655 0 0 0 -57.9343 -19.6417 11.8915 0 0 -42.5936 6.1010 -18.2709 0 0 0 0 0 0 0 0 0 0 0 0 0 -2.5936 0 0 -2.5936 0 0 -2.5936 0 0 0 0 0 0 0 0 0 0 0 0 0 0 0 0 0 0 0 0 0 0 0 0 0 0 0 0 0 0 0 0 0 0 0 0 0 0 0 0 0 0 0 0 69.0285 -17.1338 -6.4425 0 0 66.1010 0 -6.1010 0 0 0 0 0 0 0 0 0 0 0 0 0 0 0 0 0 0 0 0 0 0 0 0 0 0 0 0 0 0 0 0 0 0 0 0 0 0 0 0 0 0 0 0 0 0 0 0 0 0 0 0 0 0 0 0 0 0 0 0 0 0 2.8386 0 0 27.1614 0 0 4.0674 0 0 0 0 0 -42.8386 0 0 72.8386 0 0 0 0 0 0 0
0 95.5729 82.5000 0 0 -8.9101 0 0 0 0 2.6540 0 0 0 5.3460 0 2.2700 0 2.0454 4.0539 -26.8026 0 0 0 -58.0395 -19.1639 11.5748 0 0 -43.2698 6.8099 -17.8201 0 0 0 0 0 0 0 0 0 0 0 0 0 -3.2698 0 0 -3.2698 0 0 -3.2698 0 0 0 0 0 0 0 0 0 0 0 0 0 0 0 0 0 0 0 0 0 0 0 0 0 0 0 0 0 0 0 0 0 0 0 0 0 0 0 0 0 0 0 0 69.0775 -16.7128 -6.2741 0 0 66.8099 0 -6.8099 0 0 0 0 0 0 0 0 0 0 0 0 0 0 0 0 0 0 0 0 0 0 0 0 0 0 0 0 0 0 0 0 0 0 0 0 0 0 0 0 0 0 0 0 0 0 0 0 0 0 0 0 0 0 0 0 0 0 0 0 0 0 2.2752 0 0 27.7248 0 0 4.5399 0 0 0 0 0 -42.2752 0 0 72.2752 0 0 0 0 0 0 0
0 95.4019 83.3333 0 0 -8.6603 0 0 0 0 2.8038 0 0 0 5.1962 0 2.5000 0 2.1948 4.4936 -26.0669 0 0 0 -58.1525 -18.6337 11.2259 0 0 -44.0192 7.5000 -17.3205 0 0 0 0 0 0 0 0 0 0 0 0 0 -4.0192 0 0 -4.0192 0 0 -4.0192 0 0 0 0 0 0 0 0 0 0 0 0 0 0 0 0 0 0 0 0 0 0 0 0 0 0 0 0 0 0 0 0 0 0 0 0 0 0 0 0 0 0 0 0 69.1302 -16.2460 -6.0882 0 0 67.5000 0 -7.5000 0 0 0 0 0 0 0 0 0 0 0 0 0 0 0 0 0 0 0 0 0 0 0 0 0 0 0 0 0 0 0 0 0 0 0 0 0 0 0 0 0 0 0 0 0 0 0 0 0 0 0 0 0 0 0 0 0 0 0 0 0 0 1.6506 0 0 28.3494 0 0 5.0000 0 0 0 0 0 -41.6506 0 0 71.6506 0 0 0 0 0 0 0
0 95.2594 84.1667 0 0 -8.3867 0 0 0 0 2.9680 0 0 0 5.0320 0 2.7232 0 2.3213 4.9283 -25.2600 0 0 0 -58.2720 -18.0524 10.8464 0 0 -44.8399 8.1696 -16.7734 0 0 0 0 0 0 0 0 0 0 0 0 0 -4.8399 0 0 -4.8399 0 0 -4.8399 0 0 0 0 0 0 0 0 0 0 0 0 0 0 0 0 0 0 0 0 0 0 0 0 0 0 0 0 0 0 0 0 0 0 0 0 0 0 0 0 0 0 0 0 69.1860 -15.7347 -5.8858 0 0 68.1696 0 -8.1696 0 0 0 0 0 0 0 0 0 0 0 0 0 0 0 0 0 0 0 0 0 0 0 0 0 0 0 0 0 0 0 0 0 0 0 0 0 0 0 0 0 0 0 0 0 0 0 0 0 0 0 0 0 0 0 0 0 0 0 0 0 0 0.9668 0 0 29.0332 0 0 5.4464 0 0 0 0 0 -40.9668 0 0 70.9668 0 0 0 0 0 0 0
0 95.1468 85.0000 0 0 -8.0902 0 0 0 0 3.1459 0 0 0 4.8541 0 2.9389 0 2.4231 5.3567 -24.3839 0 0 0 -58.3965 -17.4214 10.4378 0 0 -45.7295 8.8168 -16.1803 0 0 0 0 0 0 0 0 0 0 0 0 0 -5.7295 0 0 -5.7295 0 0 -5.7295 0 0 0 0 0 0 0 0 0 0 0 0 0 0 0 0 0 0 0 0 0 0 0 0 0 0 0 0 0 0 0 0 0 0 0 0 0 0 0 0 0 0 0 0 69.2442 -15.1802 -5.6674 0 0 68.8168 0 -8.8168 0 0 0 0 0 0 0 0 0 0 0 0 0 0 0 0 0 0 0 0 0 0 0 0 0 0 0 0 0 0 0 0 0 0 0 0 0 0 0 0 0 0 0 0 0 0 0 0 0 0 0 0 0 0 0 0 0 0 0 0 0 0 0.2254 0 0 29.7746 0 0 5.8779 0 0 0 0 0 -40.2254 0 0 70.2254 0 0 0 0 0 0 0
0 95.0656 85.8333 0 0 -7.7715 0 0 0 0 3.3371 0 0 0 4.6629 0 3.1466 0 2.4992 5.7775 -23.4405 0 0 0 -58.5245 -16.7423 10.0018 0 0 -46.6856 9.4398 -15.5429 0 0 0 0 0 0 0 0 0 0 0 0 0 -6.6856 0 0 -6.6856 0 0 -6.6856 0 0 0 0 0 0 0 0 0 0 0 0 0 0 0 0 0 0 0 0 0 0 0 0 0 0 0 0 0 0 0 0 0 0 0 0 0 0 0 0 0 0 0 0 69.3041 -14.5841 -5.4340 0 0 69.4398 0 -9.4398 0 0 0 0 0 0 0 0 0 0 0 0 0 0 0 0 0 0 0 0 0 0 0 0 0 0 0 0 0 0 0 0 0 0 0 0 0 0 0 0 0 0 0 0 0 0 0 0 0 0 0 0 0 0 0 0 0 0 0 0 0 0 -0.5714 0 0 30.5714 0 0 6.2932 0 0 0 0 0 -39.4286 0 0 69.4286 0 0 0 0 0 0 0
0 95.0164 86.6667 0 0 -7.4314 0 0 0 0 3.5411 0 0 0 4.4589 0 3.3457 0 2.5484 6.1891 -22.4321 0 0 0 -58.6548 -16.0169 9.5400 0 0 -47.7057 10.0370 -14.8629 0 0 0 0 0 0 0 0 0 0 0 0 0 -7.7057 0 0 -7.7057 0 0 -7.7057 0 0 0 0 0 0 0 0 0 0 0 0 0 0 0 0 0 0 0 0 0 0 0 0 0 0 0 0 0 0 0 0 0 0 0 0 0 0 0 0 0 0 0 0 69.3652 -13.9478 -5.1864 0 0 70.0370 0 -10.0370 0 0 0 0 0 0 0 0 0 0 0 0 0 0 0 0 0 0 0 0 0 0 0 0 0 0 0 0 0 0 0 0 0 0 0 0 0 0 0 0 0 0 0 0 0 0 0 0 0 0 0 0 0 0 0 0 0 0 0 0 0 0 -1.4214 0 0 31.4214 0 0 6.6913 0 0 0 0 0 -38.5786 0 0 68.5786 0 0 0 0 0 0 0
0 95.0000 87.5000 0 0 -7.0711 0 0 0 0 3.7574 0 0 0 4.2426 0 3.5355 0 2.5699 6.5897 -21.3612 0 0 0 -58.7856 -15.2469 9.0543 0 0 -48.7868 10.6066 -14.1421 0 0 0 0 0 0 0 0 0 0 0 0 0 -8.7868 0 0 -8.7868 0 0 -8.7868 0 0 0 0 0 0 0 0 0 0 0 0 0 0 0 0 0 0 0 0 0 0 0 0 0 0 0 0 0 0 0 0 0 0 0 0 0 0 0 0 0 0 0 0 69.4266 -13.2731 -4.9254 0 0 70.6066 0 -10.6066 0 0 0 0 0 0 0 0 0 0 0 0 0 0 0 0 0 0 0 0 0 0 0 0 0 0 0 0 0 0 0 0 0 0 0 0 0 0 0 0 0 0 0 0 0 0 0 0 0 0 0 0 0 0 0 0 0 0 0 0 0 0 -2.3223 0 0 32.3223 0 0 7.0711 0 0 0 0 0 -37.6777 0 0 67.6777 0 0 0 0 0 0 0
0 95.0164 88.3333 0 0 -6.6913 0 0 0 0 3.9852 0 0 0 4.0148 0 3.7157 0 2.5634 6.9777 -20.2302 0 0 0 -58.9158 -14.4344 8.5462 0 0 -49.9261 11.1472 -13.3826 0 0 0 0 0 0 0 0 0 0 0 0 0 -9.9261 0 0 -9.9261 0 0 -9.9261 0 0 0 0 0 0 0 0 0 0 0 0 0 0 0 0 0 0 0 0 0 0 0 0 0 0 0 0 0 0 0 0 0 0 0 0 0 0 0 0 0 0 0 0 69.4877 -12.5619 -4.6520 0 0 71.1472 0 -11.1472 0 0 0 0 0 0 0 0 0 0 0 0 0 0 0 0 0 0 0 0 0 0 0 0 0 0 0 0 0 0 0 0 0 0 0 0 0 0 0 0 0 0 0 0 0 0 0 0 0 0 0 0 0 0 0 0 0 0 0 0 0 0 -3.2717 0 0 33.2717 0 0 7.4314 0 0 0 0 0 -36.7283 0 0 66.7283 0 0 0 0 0 0 0
0 95.0656 89.1667 0 0 -6.2932 0 0 0 0 4.2241 0 0 0 3.7759 0 3.8857 0 2.5286 7.3510 -19.0421 0 0 0 -59.0437 -13.5814 8.0176 0 0 -51.1204 11.6572 -12.5864 0 0 0 0 0 0 0 0 0 0 0 0 0 -11.1204 0 0 -11.1204 0 0 -11.1204 0 0 0 0 0 0 0 0 0 0 0 0 0 0 0 0 0 0 0 0 0 0 0 0 0 0 0 0 0 0 0 0 0 0 0 0 0 0 0 0 0 0 0 0 69.5479 -11.8160 -4.3669 0 0 71.6572 0 -11.6572 0 0 0 0 0 0 0 0 0 0 0 0 0 0 0 0 0 0 0 0 0 0 0 0 0 0 0 0 0 0 0 0 0 0 0 0 0 0 0 0 0 0 0 0 0 0 0 0 0 0 0 0 0 0 0 0 0 0 0 0 0 0 -4.2670 0 0 34.2670 0 0 7.7715 0 0 0 0 0 -35.7330 0 0 65.7330 0 0 0 0 0 0 0
0 95.1468 90.0000 0 0 -5.8779 0 0 0 0 4.4733 0 0 0 3.5267 0 4.0451 0 2.4656 7.7077 -17.7997 0 0 0 -59.1682 -12.6904 7.4701 0 0 -52.3664 12.1353 -11.7557 0 0 0 0 0 0 0 0 0 0 0 0 0 -12.3664 0 0 -12.3664 0 0 -12.3664 0 0 0 0 0 0 0 0 0 0 0 0 0 0 0 0 0 0 0 0 0 0 0 0 0 0 0 0 0 0 0 0 0 0 0 0 0 0 0 0 0 0 0 0 69.6065 -11.0375 -4.0712 0 0 72.1353 0 -12.1353 0 0 0 0 0 0 0 0 0 0 0 0 0 0 0 0 0 0 0 0 0 0 0 0 0 0 0 0 0 0 0 0 0 0 0 0 0 0 0 0 0 0 0 0 0 0 0 0 0 0 0 0 0 0 0 0 0 0 0 0 0 0 -5.3054 0 0 35.3054 0 0 8.0902 0 0 0 0 0 -34.6946 0 0 64.6946 0 0 0 0 0 0 0
0 95.2594 90.8333 0 0 -5.4464 0 0 0 0 4.7322 0 0 0 3.2678 0 4.1934 0 2.3750 8.0457 -16.5062 0 0 0 -59.2878 -11.7636 6.9055 0 0 -53.6608 12.5801 -10.8928 0 0 0 0 0 0 0 0 0 0 0 0 0 -13.6608 0 0 -13.6608 0 0 -13.6608 0 0 0 0 0 0 0 0 0 0 0 0 0 0 0 0 0 0 0 0 0 0 0 0 0 0 0 0 0 0 0 0 0 0 0 0 0 0 0 0 0 0 0 0 69.6629 -10.2286 -3.7657 0 0 72.5801 0 -12.5801 0 0 0 0 0 0 0 0 0 0 0 0 0 0 0 0 0 0 0 0 0 0 0 0 0 0 0 0 0 0 0 0 0 0 0 0 0 0 0 0 0 0 0 0 0 0 0 0 0 0 0 0 0 0 0 0 0 0 0 0 0 0 -6.3840 0 0 36.3840 0 0 8.3867 0 0 0 0 0 -33.6160 0 0 63.6160 0 0 0 0 0 0 0
0 95.4019 91.6667 0 0 -5.0000 0 0 0 0 5.0000 0 0 0 3.0000 0 4.3301 0 2.2575 8.3630 -15.1651 0 0 0 -59.4013 -10.8036 6.3253 0 0 -55.0000 12.9904 -10.0000 0 0 0 0 0 0 0 0 0 0 0 0 0 -15.0000 0 0 -15.0000 0 0 -15.0000 0 0 0 0 0 0 0 0 0 0 0 0 0 0 0 0 0 0 0 0 0 0 0 0 0 0 0 0 0 0 0 0 0 0 0 0 0 0 0 0 0 0 0 0 69.7164 -9.3913 -3.4512 0 0 72.9904 0 -12.9904 0 0 0 0 0 0 0 0 0 0 0 0 0 0 0 0 0 0 0 0 0 0 0 0 0 0 0 0 0 0 0 0 0 0 0 0 0 0 0 0 0 0 0 0 0 0 0 0 0 0 0 0 0 0 0 0 0 0 0 0 0 0 -7.5000 0 0 37.5000 0 0 8.6603 0 0 0 0 0 -32.5000 0 0 62.5000 0 0 0 0 0 0 0
0 95.5729 92.5000 0 0 -4.5399 0 0 0 0 5.2761 0 0 0 2.7239 0 4.4550 0 2.1142 8.6576 -13.7798 0 0 0 -59.5076 -9.8129 5.7311 0 0 -56.3803 13.3651 -9.0798 0 0 0 0 0 0 0 0 0 0 0 0 0 -16.3803 0 0 -16.3803 0 0 -16.3803 0 0 0 0 0 0 0 0 0 0 0 0 0 0 0 0 0 0 0 0 0 0 0 0 0 0 0 0 0 0 0 0 0 0 0 0 0 0 0 0 0 0 0 0 69.7667 -8.5280 -3.1286 0 0 73.3651 0 -13.3651 0 0 0 0 0 0 0 0 0 0 0 0 0 0 0 0 0 0 0 0 0 0 0 0 0 0 0 0 0 0 0 0 0 0 0 0 0 0 0 0 0 0 0 0 0 0 0 0 0 0 0 0 0 0 0 0 0 0 0 0 0 0 -8.6502 0 0 38.6502 0 0 8.9101 0 0 0 0 0 -31.3498 0 0 61.3498 0 0 0 0 0 0 0
0 95.7706 93.3333 0 0 -4.0674 0 0 0 0 5.5596 0 0 0 2.4404 0 4.5677 0 1.9467 8.9274 -12.3541 0 0 0 -59.6057 -8.7944 5.1246 0 0 -57.7979 13.7032 -8.1347 0 0 0 0 0 0 0 0 0 0 0 0 0 -17.7979 0 0 -17.7979 0 0 -17.7979 0 0 0 0 0 0 0 0 0 0 0 0 0 0 0 0 0 0 0 0 0 0 0 0 0 0 0 0 0 0 0 0 0 0 0 0 0 0 0 0 0 0 0 0 69.8131 -7.6411 -2.7989 0 0 73.7032 0 -13.7032 0 0 0 0 0 0 0 0 0 0 0 0 0 0 0 0 0 0 0 0 0 0 0 0 0 0 0 0 0 0 0 0 0 0 0 0 0 0 0 0 0 0 0 0 0 0 0 0 0 0 0 0 0 0 0 0 0 0 0 0 0 0 -9.8316 0 0 39.8316 0 0 9.1355 0 0 0 0 0 -30.1684 0 0 60.1684 0 0 0 0 0 0 0
0 95.9926 94.1667 0 0 -3.5837 0 0 0 0 5.8498 0 0 0 2.1502 0 4.6679 0 1.7565 9.1705 -10.8919 0 0 0 -59.6945 -7.7509 4.5071 0 0 -59.2490 14.0037 -7.1674 0 0 0 0 0 0 0 0 0 0 0 0 0 -19.2490 0 0 -19.2490 0 0 -19.2490 0 0 0 0 0 0 0 0 0 0 0 0 0 0 0 0 0 0 0 0 0 0 0 0 0 0 0 0 0 0 0 0 0 0 0 0 0 0 0 0 0 0 0 0 69.8551 -6.7330 -2.4627 0 0 74.0037 0 -14.0037 0 0 0 0 0 0 0 0 0 0 0 0 0 0 0 0 0 0 0 0 0 0 0 0 0 0 0 0 0 0 0 0 0 0 0 0 0 0 0 0 0 0 0 0 0 0 0 0 0 0 0 0 0 0 0 0 0 0 0 0 0 0 -11.0408 0 0 41.0408 0 0 9.3358 0 0 0 0 0 -28.9592 0 0 58.9592 0 0 0 0 0 0 0
0 96.2366 95.0000 0 0 -3.0902 0 0 0 0 6.1459 0 0 0 1.8541 0 4.7553 0 1.5460 9.3852 -9.3974 0 0 0 -59.7733 -6.6853 3.8803 0 0 -60.7295 14.2658 -6.1803 0 0 0 0 0 0 0 0 0 0 0 0 0 -20.7295 0 0 -20.7295 0 0 -20.7295 0 0 0 0 0 0 0 0 0 0 0 0 0 0 0 0 0 0 0 0 0 0 0 0 0 0 0 0 0 0 0 0 0 0 0 0 0 0 0 0 0 0 0 0 69.8924 -5.8063 -2.1211 0 0 74.2658 0 -14.2658 0 0 0 0 0 0 0 0 0 0 0 0 0 0 0 0 0 0 0 0 0 0 0 0 0 0 0 0 0 0 0 0 0 0 0 0 0 0 0 0 0 0 0 0 0 0 0 0 0 0 0 0 0 0 0 0 0 0 0 0 0 0 -12.2746 0 0 42.2746 0 0 9.5106 0 0 0 0 0 -27.7254 0 0 57.7254 0 0 0 0 0 0 0
0 96.5000 95.8333 0 0 -2.5882 0 0 0 0 6.4471 0 0 0 1.5529 0 4.8296 0 1.3173 9.5699 -7.8748 0 0 0 -59.8412 -5.6006 3.2456 0 0 -62.2354 14.4889 -5.1764 0 0 0 0 0 0 0 0 0 0 0 0 0 -22.2354 0 0 -22.2354 0 0 -22.2354 0 0 0 0 0 0 0 0 0 0 0 0 0 0 0 0 0 0 0 0 0 0 0 0 0 0 0 0 0 0 0 0 0 0 0 0 0 0 0 0 0 0 0 0 69.9246 -4.8634 -1.7747 0 0 74.4889 0 -14.4889 0 0 0 0 0 0 0 0 0 0 0 0 0 0 0 0 0 0 0 0 0 0 0 0 0 0 0 0 0 0 0 0 0 0 0 0 0 0 0 0 0 0 0 0 0 0 0 0 0 0 0 0 0 0 0 0 0 0 0 0 0 0 -13.5295 0 0 43.5295 0 0 9.6593 0 0 0 0 0 -26.4705 0 0 56.4705 0 0 0 0 0 0 0
0 96.7798 96.6667 0 0 -2.0791 0 0 0 0 6.7525 0 0 0 1.2475 0 4.8907 0 1.0731 9.7230 -6.3286 0 0 0 -59.8977 -4.4999 2.6043 0 0 -63.7626 14.6722 -4.1582 0 0 0 0 0 0 0 0 0 0 0 0 0 -23.7626 0 0 -23.7626 0 0 -23.7626 0 0 0 0 0 0 0 0 0 0 0 0 0 0 0 0 0 0 0 0 0 0 0 0 0 0 0 0 0 0 0 0 0 0 0 0 0 0 0 0 0 0 0 0 69.9514 -3.9071 -1.4244 0 0 74.6722 0 -14.6722 0 0 0 0 0 0 0 0 0 0 0 0 0 0 0 0 0 0 0 0 0 0 0 0 0 0 0 0 0 0 0 0 0 0 0 0 0 0 0 0 0 0 0 0 0 0 0 0 0 0 0 0 0 0 0 0 0 0 0 0 0 0 -14.8022 0 0 44.8022 0 0 9.7815 0 0 0 0 0 -25.1978 0 0 55.1978 0 0 0 0 0 0 0
0 97.0729 97.5000 0 0 -1.5643 0 0 0 0 7.0614 0 0 0 0.9386 0 4.9384 0 0.8161 9.8434 -4.7633 0 0 0 -59.9421 -3.3862 1.9577 0 0 -65.3070 14.8153 -3.1287 0 0 0 0 0 0 0 0 0 0 0 0 0 -25.3070 0 0 -25.3070 0 0 -25.3070 0 0 0 0 0 0 0 0 0 0 0 0 0 0 0 0 0 0 0 0 0 0 0 0 0 0 0 0 0 0 0 0 0 0 0 0 0 0 0 0 0 0 0 0 69.9725 -2.9398 -1.0710 0 0 74.8153 0 -14.8153 0 0 0 0 0 0 0 0 0 0 0 0 0 0 0 0 0 0 0 0 0 0 0 0 0 0 0 0 0 0 0 0 0 0 0 0 0 0 0 0 0 0 0 0 0 0 0 0 0 0 0 0 0 0 0 0 0 0 0 0 0 0 -16.0891 0 0 46.0891 0 0 9.8769 0 0 0 0 0 -23.9109 0 0 53.9109 0 0 0 0 0 0 0
0 97.3763 98.3333 0 0 -1.0453 0 0 0 0 7.3728 0 0 0 0.6272 0 4.9726 0 0.5496 9.9302 -3.1836 0 0 0 -59.9742 -2.2629 1.3073 0 0 -66.8641 14.9178 -2.0906 0 0 0 0 0 0 0 0 0 0 0 0 0 -26.8641 0 0 -26.8641 0 0 -26.8641 0 0 0 0 0 0 0 0 0 0 0 0 0 0 0 0 0 0 0 0 0 0 0 0 0 0 0 0 0 0 0 0 0 0 0 0 0 0 0 0 0 0 0 0 69.9877 -1.9644 -0.7153 0 0 74.9178 0 -14.9178 0 0 0 0 0 0 0 0 0 0 0 0 0 0 0 0 0 0 0 0 0 0 0 0 0 0 0 0 0 0 0 0 0 0 0 0 0 0 0 0 0 0 0 0 0 0 0 0 0 0 0 0 0 0 0 0 0 0 0 0 0 0 -17.3868 0 0 47.3868 0 0 9.9452 0 0 0 0 0 -22.6132 0 0 52.6132 0 0 0 0 0 0 0
0 97.6864 99.1667 0 0 -0.5234 0 0 0 0 7.6860 0 0 0 0.3140 0 4.9931 0 0.2764 9.9825 -1.5942 0 0 0 -59.9935 -1.1331 0.6543 0 0 -68.4299 14.9794 -1.0467 0 0 0 0 0 0 0 0 0 0 0 0 0 -28.4299 0 0 -28.4299 0 0 -28.4299 0 0 0 0 0 0 0 0 0 0 0 0 0 0 0 0 0 0 0 0 0 0 0 0 0 0 0 0 0 0 0 0 0 0 0 0 0 0 0 0 0 0 0 0 69.9969 -0.9836 -0.3580 0 0 74.9794 0 -14.9794 0 0 0 0 0 0 0 0 0 0 0 0 0 0 0 0 0 0 0 0 0 0 0 0 0 0 0 0 0 0 0 0 0 0 0 0 0 0 0 0 0 0 0 0 0 0 0 0 0 0 0 0 0 0 0 0 0 0 0 0 0 0 -18.6916 0 0 48.6916 0 0 9.9863 0 0 0 0 0 -21.3084 0 0 51.3084 0 0 0 0 0 0 0
0 98.0000 100.0000 0 0 0 0 0 0 0 8.0000 0 0 0 0 0 5.0000 0 0 10.0000 0 0 0 0 -60.0000 0 0 0 0 -70.0000 15.0000 0 0 0 0 0 0 0 0 0 0 0 0 0 0 -30.0000 0 0 -30.0000 0 0 -30.0000 0 0 0 0 0 0 0 0 0 0 0 0 0 0 0 0 0 0 0 0 0 0 0 0 0 0 0 0 0 0 0 0 0 0 0 0 0 0 0 0 0 0 0 0 70.0000 0 0 0 0 75.0000 0 -15.0000 0 0 0 0 0 0 0 0 0 0 0 0 0 0 0 0 0 0 0 0 0 0 0 0 0 0 0 0 0 0 0 0 0 0 0 0 0 0 0 0 0 0 0 0 0 0 0 0 0 0 0 0 0 0 0 0 0 0 0 0 0 0 -20.0000 0 0 50.0000 0 0 10.0000 0 0 0 0 0 -20.0000 0 0 50.0000 0 0 0 0 0 0 0
